no,UTM_X,UTM_Y,latitude,longitude,name,ชื่อโรงแรม (อังกฤษ),อำเภอ,สถานที่ตั้ง,subDistrict,district,phone,website
1,789780.0237,1936079.568,17.49218511,101.728764,ประกายเพชรโฮเต็ล,-,เมืองเลย,88/9 ถนนพิพัฒนมงคล,กุดป่อง,เมืองเลย,0 4281 5334,https://www.facebook.com/Prakaipetch.Hotel/
2,789589.3785,1941758.199,17.54348092,101.7277365,โรงแรม ณ เลย บูทีค รีสอร์ท,Na Loei Boutique Resort Hotel,เมืองเลย,399 หมู่ที่ 9 ,เมือง,เมืองเลย,0 4283 4399,https://m.facebook.com/naloei/?locale2=th_TH
3,789687.8989,1934142.852,17.47471077,101.7276364,โรงแรม เดอะ บลิส เลย ลิฟวิ่ง,THE BLISS LOEI LIVING,เมืองเลย,246/88 ซอยเจริญรัฐ 9 (อินคำดี) ถนนเจริญรัฐ,กุดป่อง,เมืองเลย,0 4281 2988,https://www.facebook.com/Theblissloeiliving-280270288837815
4,789279.7824,1938049.362,17.51003469,101.7243225,โรงแรม เดอะ เวียนนา เพลส โฮเทล,THE VIENNA PLACE HOTEL,เมืองเลย,19/28 ถนนเลย - เชียงคาน ,กุดป่อง,เมืองเลย,09 6935 1065 ,https://www.facebook.com/theviennaplacehotel
5,789615.2002,1935709.147,17.48886196,101.7271633,โรงแรม เอพี คอร์ท,A.P.Court Hotel,เมืองเลย,31/29 ถนนร่วมใจ ,กุดป่อง,เมืองเลย,0 4286 1627,https://m.facebook.com/A.P.CourtHotel/
6,789850.9109,1935604.717,17.4878886,101.729367,โรงแรมคิงส์,King Hotel Loei,เมืองเลย,11/8-12 ถนนชุมสาย ,กุดป่อง,เมืองเลย,06 1028 5574,https://www.facebook.com/LoeiKingHotel
7,789463.6252,1939191.709,17.52032493,101.7262065,โรงแรมศิริมาธานี,Kirimathani hotel,เมืองเลย,430 หมู่ที่ 8 ถนนเลย - เชียงคาน ,เมือง,เมืองเลย,0 4281 2673,https://m.facebook.com/kirimathanihotel
8,789687.0371,1935545.566,17.48737574,101.7278172,โรงแรมบ้านสบายเลย,Baan Sabai Loei,เมืองเลย,11/11 ถนนนกแก้ว ,กุดป่อง,เมืองเลย,0 4283 3112,https://www.facebook.com/Baansabailoei
9,789018.8447,1934560.842,17.47857107,101.7213981,โรงแรมเบนซ์รีสอร์ท,Benz resort,เมืองเลย,72/36-47 ถนนมลิวรรณ ,กุดป่อง,เมืองเลย,08 4458 8935,https://th-th.facebook.com/pages/category/Hotel-Resort/Benz-resort-410561855821063/
10,790178.6562,1933562.138,17.46940418,101.7321752,โรงแรมใบบุญแกรนด์,Baiboon Grand Hotel,เมืองเลย,111 หมู่ที่ 9 ถนนเจริญรัฐ ,นาอาน,เมืองเลย,0 4283 3533,https://th-th.facebook.com/pages/category/Lodge/ใบบุญแกรนด์-จังหวัดเลย-515549998483150/
11,789539.5525,1935291.094,17.48509721,101.7263953,โรงแรมใบบุญเพลส,Baiboon Place,เมืองเลย,51/1 ถนนเสริฐศรี ,กุดป่อง,เมืองเลย,0 4281 2837,https://th-th.facebook.com/people/ใบบุญเพลส-เมืองเลย/100028957151364
12,789174.0687,1935086.007,17.48329269,101.722929,โรงแรมฟอร์จูน ดี เลย,FORTUNE D LOEI HOTEL,เมืองเลย,55/22 ถนนมลิวรรณ ,กุดป่อง,เมืองเลย,0 4203 6630,https://www.facebook.com/fortunedhotelloei/
13,781625.7566,1935038.827,17.48382782,101.6519026,โรงแรมฟอร์ร่า ฮิลล์ รีสอร์ท,Forra Hill Resort,เมืองเลย,150 หมู่ที่ 1,เสี้ยว,เมืองเลย,0 4281 0381,https://th-th.facebook.com/www.Foraahillresort.co.th/
14,789642.1222,1935547.203,17.48739632,101.7273948,โรงแรมภูตะวัน,Phutawan Hotel,เมืองเลย,15/4 ถนนนกแก้ว ,กุดป่อง,เมืองเลย,0 4281 0215,https://th-th.facebook.com/PhutawanAtLoei/
15,791615.0115,1935965.471,17.49091686,101.7460136,โรงแรมภูบ่อบิดฮิลล์,PHU BO BIT HILL HOTEL,เมืองเลย,158 หมู่ที่ 10 ถนนภูบ่อบิด - ห้วยพอด,ชัยพฤกษ์,เมืองเลย,0 4281 2285,https://th-th.facebook.com/pages/category/Local-Business/%E0%B9%82%E0%B8%A3%E0%B8%87%E0%B9%81%E0%B8%A3%E0%B8%A1%E0%B8%A0%E0%B8%B9%E0%B8%9A%E0%B9%88%E0%B8%AD%E0%B8%9A%E0%B8%B4%E0%B8%94%E0%B8%AE%E0%B8%B4%E0%B8%A5%E0%B8%A5%E0%B9%8C-591657747894894/
16,790123.823,1935968.599,17.4911387,101.7319838,โรงแรมภูหลวง,Phu Luang Hotel,เมืองเลย,55 ถนนเจริญรัฐ ,กุดป่อง,เมืองเลย,0 4281 1532,https://th-th.facebook.com/PhuLuangBudgetHotel/
17,789689.1431,1930782.74,17.4443727,101.7271963,โรงแรมเมืองเลย แอร์พอร์ต โฮเทล,Muang Loei Airport Hotel,เมืองเลย,97/1 หมู่ที่ 8 ถนนมะลิวรรณ ,นาอาน,เมืองเลย,0 4283 2863,https://www.facebook.com/Muangloeiresort/
18,789895.3221,1935632.047,17.48812962,101.7297885,โรงแรมรอยัลอินน์,Royal Inn Hotel,เมืองเลย,22/16 ถนนชุมสาย ,กุดป่อง,เมืองเลย,0 4281 1798 ,https://th-th.facebook.com/pages/category/Hotel-Resort/%E0%B9%82%E0%B8%A3%E0%B8%87%E0%B9%81%E0%B8%A3%E0%B8%A1%E0%B8%A3%E0%B8%AD%E0%B8%A2%E0%B8%B1%E0%B8%A5%E0%B8%AD%E0%B8%B4%E0%B8%99%E0%B8%99%E0%B9%8C-254752114538391/
19,789362.674,1934339.921,17.47653206,101.7246032,โรงแรมเลย เรสซิเดนซ์,Loei Residence Hotel,เมืองเลย,83/45 ถนนมะลิวรรณ ,กุดป่อง,เมืองเลย,0 4283 3477,https://www.facebook.com/pages/category/Hotel/%E0%B9%82%E0%B8%A3%E0%B8%87%E0%B9%81%E0%B8%A3%E0%B8%A1-%E0%B9%80%E0%B8%A5%E0%B8%A2%E0%B9%80%E0%B8%A3%E0%B8%AA%E0%B8%8B%E0%B8%B4%E0%B9%80%E0%B8%94%E0%B8%99%E0%B8%8B%E0%B9%8C-Loei-Residence-Hotel-1413014089003862/
20,788692.7678,1935802.909,17.48982756,101.718497,โรงแรมเลยนารา,Loei Nara Hotel,เมืองเลย,36/74 ถนนมะลิวรรณ,กุดป่อง,เมืองเลย,0 4286 1112,https://th-th.facebook.com/Loeinara2557/
21,790404.6124,1935260.09,17.48470536,101.73453,โรงแรมเลยพาเลซ,loei palace hotel,เมืองเลย,167/4 ถนนเจริญรัฐ ,กุดป่อง,เมืองเลย,0 4281 5668,https://www.facebook.com/loeipalacehotel
22,788379.5179,1936243.632,17.49384715,101.7156088,โรงแรมเลยพาวิลเลี่ยน,Loei pavilion Hotel,เมืองเลย,111/1 ถนนเลย - ด่านซ้าย ,กุดป่อง,เมืองเลย,0 4281 5552,https://www.facebook.com/Loei.Pavilion.Resort.Hot/
23,789318.0898,1935203.33,17.48433341,101.7242998,โรงแรมเลยวิลเลจ,Loei Villages,เมืองเลย,17/62 ซอย 3 ถนนนกแก้ว ,กุดป่อง,เมืองเลย,0 4283 3599,https://th-th.facebook.com/Loeivillages
24,789658.7965,1935717.585,17.48893251,101.7275746,โรงแรมเลยออร์คิด,Loei Orchid Hotel,เมืองเลย,1/41 ถนนสถลเชียงคาน ,กุดป่อง,เมืองเลย,0 4286 1888,www.loeiorchid.com
25,788842.1262,1938394.513,17.51320754,101.7202507,โรงแรมวิลล่าเดอเลยรีสอร์ท,Villa de Loei Resort,เมืองเลย,10/31 ถนนเลย - เชียงคาน ,กุดป่อง,เมืองเลย,0 4283 4789,
26,788079.0387,1937251.422,17.50298505,101.7129166,โรงแรมเฮือนฮักเลย,Hueanhugloei Resort,เมืองเลย,435 หมู่ที่ 5 ถนนเลยด่านซ้าย ,เมือง,เมืองเลย,042 834 225,https://th-th.facebook.com/hueanhugloeiResort/
27,789524.520,1935759.439,17.48932776,101.7263169,อินดิโก้ สเปซ,Indiego Space,เมืองเลย,31/24 ถนนร่วมใจ ,กุดป่อง,เมืองเลย,09 3416 6295,https://www.facebook.com/indiegospace
28,789198.018,1939846.637,17.52627252,101.7237953,โรงแรมเอยู เพลซ,Au place hotel,เมืองเลย,669/1 หมู่ 11 ถนนเลย-เชียงคาน,เมือง,เมืองเลย,"
06 5237 7115",https://www.facebook.com/AuPlaceHotel/
29,787933.994,1937101.298,17.50164826,101.7115317,โรงแรมคริสตัลบอกซ์,Crystal Box Hotel,เมืองเลย,105 หมู่ 5 ถนนเลย-ด่านซ้าย ซอย 10 (ซอยรัชนีรีสอร์ทเดิม) ,เมือง,เมืองเลย,09 5665 9298,https://www.facebook.com/crystalboxhotel/
30,789380.412,1935352.733,17.4856743,101.7249063,ม้วนมาณี บูทิก โฮเต็ล,Muanmanee Boutique Hotel,เมืองเลย,35/59 ถนนนกแก้ว ซอย 3 ,กุดป่อง,เมืองเลย,0 4281 1364,https://m.facebook.com/muanmaneeboutiquehotel/?locale2=th_TH
31,788518.838,1935292.586,17.48524232,101.716792,เลยเฮือนเฮาฮัก,Loei Huen Hao Hug Home & Resort,เมืองเลย,999 หมู่ 7 ถนนนกแก้ว ,กุดป่อง,เมืองเลย,08 4604 5029,https://www.facebook.com/pitmanee59
32,791653.793,1931793.347,17.45324301,101.7458132,โรงแรม ลา ปลาซ,La Place,เมืองเลย,479 หมู่ 2 ,นาอาน,เมืองเลย,08 8560 8778,https://www.facebook.com/La-Place-Loei-0885608778-1521048611549374/
33,784830.915,1982096.532,17.90830405,101.6883791,โรงแรมริเวอร์ไซด์เชียงคานรีสอร์ท,Riverside Chiangkhan Resort,เชียงคาน,1/8 หมู่ที่ 4,เชียงคาน,เชียงคาน,0 4282 1477,https://www.facebook.com/Riversideck/
34,781257.303,1977831.263,17.87025592,101.6541034,เรือนเอก ณ เชียงคาน รีสอร์ท,Reaun Eak Resort,เชียงคาน,461/2 หมู่ที่ 6 ,เชียงคาน,เชียงคาน,08 5752 3524,
35,781817.956,1980810.610,17.89708425,101.6597906,โรงแรม ดิ โอลด์ เชียงคาน,The Old Chiangkhan Boutique Hotel,เชียงคาน,288 หมู่ที่ 1 ,เชียงคาน,เชียงคาน,0 4282 2119,https://m.facebook.com/The-Old-Chiangkhan-Boutique-Hotel-584513194950089/
36,781427.876,1978390.484,17.87528322,101.6557868,โรงแรม ทาสุคนธ์,THA SUKHON HOUSING,เชียงคาน,409 หมู่ที่ 6 ,เชียงคาน,เชียงคาน,08 7230 4027,https://th-th.facebook.com/Thasukhon/
37,781485.952,1977244.064,17.86492473,101.6561805,โรงแรมขอนทองรีสอร์ท,Khontong Resort,เชียงคาน,45 หมู่ที่ 8 ถนนเลย - เชียงคาน ,นาซ่าว,เชียงคาน,09 5663 9709,https://th-th.facebook.com/pages/category/Local-Business/%E0%B8%82%E0%B8%AD%E0%B8%99%E0%B8%97%E0%B8%AD%E0%B8%87%E0%B8%A3%E0%B8%B5%E0%B8%AA%E0%B8%AD%E0%B8%A3%E0%B9%8C%E0%B8%97Khonthong-Resort-513438165395404/
38,779342.654,1980193.496,17.89182992,101.6363647,โรงแรมเชียงคาน ริเวอร์ เมาท์เทน,Chiangkhan River Mountain,เชียงคาน,451 หมู่ที่ 1 ,เชียงคาน,เชียงคาน,0 4282 2191,https://th-th.facebook.com/chiangkhanrivermountain/
39,781365.013,1980622.218,17.8954416,101.6554938,โรงแรมเชียงคาน โฮเต็ล,CHIANGKHAN HOTEL,เชียงคาน,372 หมู่ที่ 1 ซอย 12 (ล่าง) ,เชียงคาน,เชียงคาน,09 4985 4789,https://www.facebook.com/chiangkhanhotelloei/
40,781243.007,1979376.185,17.88420687,101.6541759,โรงแรมเชียงคานแกรนด์,Chiangkhan Grande Hotel,เชียงคาน,268/10 หมู่ที่ 6 ,เชียงคาน,เชียงคาน,08 7430 6007,https://www.facebook.com/%E0%B9%82%E0%B8%A3%E0%B8%87%E0%B9%81%E0%B8%A3%E0%B8%A1%E0%B9%80%E0%B8%8A%E0%B8%B5%E0%B8%A2%E0%B8%87%E0%B8%84%E0%B8%B2%E0%B8%99%E0%B9%81%E0%B8%81%E0%B8%A3%E0%B8%99%E0%B8%94%E0%B9%8C-%E0%B8%A3%E0%B8%B5%E0%B8%AA%E0%B8%AD%E0%B8%A3%E0%B9%8C%E0%B8%97-307620659252199/
41,785043.905,1982136.969,17.90864137,101.6903932,โรงแรมเชียงคานหาดพรหมรีสอร์ท,CHIANG KHAN HAT PHROM RESORT,เชียงคาน,31/7 หมู่ที่ 4 ,เชียงคาน,เชียงคาน,08 2123 7134,https://www.facebook.com/pages/category/Hotel-Resort/%E0%B9%80%E0%B8%8A%E0%B8%B5%E0%B8%A2%E0%B8%87%E0%B8%84%E0%B8%B2%E0%B8%99%E0%B8%AB%E0%B8%B2%E0%B8%94%E0%B8%9E%E0%B8%A3%E0%B8%AB%E0%B8%A1%E0%B8%A3%E0%B8%B5%E0%B8%AA%E0%B8%AD%E0%B8%A3%E0%B9%8C%E0%B8%97-122443851758491/
42,786200.852,1981925.336,17.90657937,101.7012753,โรงแรมเชียงคานฮิลล์รีสอร์ท,ChiangKhan Hill Resort,เชียงคาน,28/2 หมู่ที่ 4 ถนนร่วมใจนฤมิตร ,เชียงคาน,เชียงคาน,0 4282 1285,https://www.facebook.com/chiangkhanhill/
43,781452.967,1980724.756,17.89635609,101.656337,โรงแรมใดเฮง บูทิค โฮเทล 1,Daiheng Boutique Hotel I,เชียงคาน,179 หมู่ที่ 2 ถนนชายโขง ,เชียงคาน,เชียงคาน,08 1261 4672,https://www.facebook.com/Daiheng-%E0%B9%80%E0%B8%8A%E0%B8%B5%E0%B8%A2%E0%B8%87%E0%B8%84%E0%B8%B2%E0%B8%99-103141291754320/
44,781452.967,1980724.756,17.89635609,101.656337,โรงแรมใดเฮง บูทิค โฮเทล 2,Daiheng Boutique Hotel II,เชียงคาน,185/1 หมู่ที่ 2 ถนนชายโขง ,เชียงคาน,เชียงคาน,08 8706 4488 ,https://www.facebook.com/Daiheng-%E0%B9%80%E0%B8%8A%E0%B8%B5%E0%B8%A2%E0%B8%87%E0%B8%84%E0%B8%B2%E0%B8%99-103141291754320/
45,708886.552,1435693.599,12.97982739,100.925779,โรงแรมทิพวรรณ @รีสอร์ท,,เชียงคาน,410/9 หมู่ที่ 1 ถนนถนนเชียงคาน - ปากชม ,เชียงคาน,เชียงคาน,09 3463 8395,https://www.facebook.com/pages/category/Local-Service/โรงแรมทิพวรรณChiangKhan-107240117808353/
46,780692.955,1980367.399,17.8932272,101.6491218,โรงแรมนอนนับดาวริมโขง,Norn Nab Dao Rimkhong Hotel,เชียงคาน,48 หมู่ที่ 1 ,เชียงคาน,เชียงคาน,0 4282 2274,https://th-th.facebook.com/pages/category/Bed-and-Breakfast/%E0%B8%99%E0%B8%AD%E0%B8%99%E0%B8%99%E0%B8%B1%E0%B8%9A%E0%B8%94%E0%B8%B2%E0%B8%A7-%E0%B8%A3%E0%B8%B4%E0%B8%A1%E0%B9%82%E0%B8%82%E0%B8%87-680776258723848/
47,783299.949,1978477.391,17.87582643,101.6734509,นอนนับดาว ริมภู รีสอร์ท,Norn Nab Dao Rimphu Resort,เชียงคาน,517/17 หมู่ 2,เชียงคาน,เชียงคาน,0 4282 2274,https://th-th.facebook.com/pages/category/Bed-and-Breakfast/%E0%B8%99%E0%B8%AD%E0%B8%99%E0%B8%99%E0%B8%B1%E0%B8%9A%E0%B8%94%E0%B8%B2%E0%B8%A7-%E0%B8%A3%E0%B8%B4%E0%B8%A1%E0%B9%82%E0%B8%82%E0%B8%87-680776258723848/
48,780637.020,1980319.779,17.89280442,101.6485879,นอนนับดาว ไวท์เฮ้าส์,Norn Nab Dao White House,เชียงคาน,40 ซอย 3 ,เชียงคาน,เชียงคาน,0 4282 2274,https://th-th.facebook.com/pages/category/Bed-and-Breakfast/%E0%B8%99%E0%B8%AD%E0%B8%99%E0%B8%99%E0%B8%B1%E0%B8%9A%E0%B8%94%E0%B8%B2%E0%B8%A7-%E0%B8%A3%E0%B8%B4%E0%B8%A1%E0%B9%82%E0%B8%82%E0%B8%87-680776258723848/
49,783382.378,1980894.824,17.89764239,101.6745552,โรงแรมบ้านครูตุ้ม,Baan Kru Toom Resort,เชียงคาน,404/3 หมู่ที่ 2 ถนนเชียงคาน - ปากชม ,เชียงคาน,เชียงคาน,08 1799 9802,https://www.facebook.com/%E0%B8%9A%E0%B9%89%E0%B8%B2%E0%B8%99%E0%B8%84%E0%B8%A3%E0%B8%B9%E0%B8%95%E0%B8%B8%E0%B9%89%E0%B8%A1%E0%B9%82%E0%B8%AE%E0%B8%A1%E0%B8%AA%E0%B9%80%E0%B8%95%E0%B8%A2%E0%B9%8C-%E0%B9%80%E0%B8%8A%E0%B8%B5%E0%B8%A2%E0%B8%87%E0%B8%84%E0%B8%B2%E0%B8%99-1107026816061702/
50,780714.832,1980449.647,17.89396701,101.6493391,โรงแรมบ้านเพื่อน,Friends House,เชียงคาน,99/8 หมู่ที่ 1 ซอย 4 (บน) ,เชียงคาน,เชียงคาน,09 3494 3486,https://www.facebook.com/BaanPuenChiangkhan/
51,783946.900,1981017.139,17.8986735,101.6798955,โรงแรมบ้านสามล้อ,Ban Sam Lor Resort,เชียงคาน,539/1 หมู่ที่ 2 ,เชียงคาน,เชียงคาน,08 1954 0994,https://th-th.facebook.com/pages/category/Local-Business/%E0%B8%9A%E0%B9%89%E0%B8%B2%E0%B8%99%E0%B8%AA%E0%B8%B2%E0%B8%A1%E0%B8%A5%E0%B9%89%E0%B8%AD-%E0%B8%A3%E0%B8%B5%E0%B8%AA%E0%B8%AD%E0%B8%A3%E0%B9%8C%E0%B8%97-%E0%B9%80%E0%B8%8A%E0%B8%B5%E0%B8%A2%E0%B8%87%E0%B8%84%E0%B8%B2%E0%B8%99-207733909253848/
52,781473.759,1980733.838,17.89643541,101.6565343,โรงแรมบ้านสุพิชญา,BAANSUPICHAYA,เชียงคาน,183/1 หมู่ที่ 2 ,เชียงคาน,เชียงคาน,08 5608 7557,https://www.facebook.com/pages/category/Hotel-Resort/BaanSupichaya-%E0%B8%9A%E0%B9%89%E0%B8%B2%E0%B8%99%E0%B8%AA%E0%B8%B8%E0%B8%9E%E0%B8%B4%E0%B8%8A%E0%B8%8D%E0%B8%B2-%E0%B9%80%E0%B8%8A%E0%B8%B5%E0%B8%A2%E0%B8%87%E0%B8%84%E0%B8%B2%E0%B8%99-196885260337582/
53,781213.001,1980540.476,17.8947231,101.6540493,โรงแรมพูลสวัสดิ์,Poonsawasdi,เชียงคาน,251/2 หมู่ที่ 1 ,เชียงคาน,เชียงคาน,08 0400 8777,https://th-th.facebook.com/poonsawasdi/
54,785727.6515,1982266.541,17.90972192,101.6968593,โรงแรมรุ่งนภารีสอร์ท,Rungnapha Resort,เชียงคาน,50/1 หมู่ที่ 4,เชียงคาน,เชียงคาน,08 0191 7835,https://www.facebook.com/pages/category/Hotel/%E0%B9%82%E0%B8%A3%E0%B8%87%E0%B9%81%E0%B8%A3%E0%B8%A1-%E0%B8%A3%E0%B8%B8%E0%B9%88%E0%B8%87%E0%B8%99%E0%B8%A0%E0%B8%B2-%E0%B8%A3%E0%B8%B5%E0%B8%AA%E0%B8%AD%E0%B8%A3%E0%B9%8C%E0%B8%97-%E0%B9%80%E0%B8%8A%E0%B8%B5%E0%B8%A2%E0%B8%87%E0%B8%84%E0%B8%B2%E0%B8%99-113445456727984/
55,781366.2599,1979097.06,17.88167081,101.6553007,โรงแรมเรือนบัว,Ruean Bua Resort,เชียงคาน,418 หมู่ที่ 6,เชียงคาน,เชียงคาน,08 9928 4379,https://www.facebook.com/rbckresort/
56,781044.4363,1980486.38,17.89425634,101.6524524,โรงแรมเรือนรักริมโขง,Ruk rim khong hotel,เชียงคาน,186/9 หมู่ที่ 1 ,เชียงคาน,เชียงคาน,08 9569 2530,https://www.facebook.com/%E0%B9%80%E0%B8%A3%E0%B8%B7%E0%B8%AD%E0%B8%99%E0%B8%A3%E0%B8%B1%E0%B8%81%E0%B8%A3%E0%B8%B4%E0%B8%A1%E0%B9%82%E0%B8%82%E0%B8%87-213032628828715/
57,780633.1512,1980367.641,17.89323706,101.6485579,โรงแรมละมุลอุ่นโขง,Baan Lamoon Aunkhong Hotel,เชียงคาน,98/3 หมู่ที่ 1 ถนนชายโขง,เชียงคาน,เชียงคาน,08 9394 1274,https://th-th.facebook.com/pages/category/Hotel-Resort/%E0%B8%9A%E0%B9%89%E0%B8%B2%E0%B8%99%E0%B8%A5%E0%B8%B0%E0%B8%A1%E0%B8%B8%E0%B8%A5%E0%B8%AD%E0%B8%B8%E0%B9%88%E0%B8%99%E0%B9%82%E0%B8%82%E0%B8%87%E0%B9%80%E0%B8%8A%E0%B8%B5%E0%B8%A2%E0%B8%87%E0%B8%84%E0%B8%B2%E0%B8%99-%E0%B8%97%E0%B8%B5%E0%B9%88%E0%B8%9E%E0%B8%B1%E0%B8%81-659517594120342/
58,779049.805,1980188.21,17.89181958,101.6336023,โรงแรมลามูน วิลล่า เดอ เชียงคาน,Lamoon Villa De Chiangkhan,เชียงคาน,444/29 หมู่ที่ 1 ,เชียงคาน,เชียงคาน,08 3671 0884,https://th-th.facebook.com/lamoonvilladechiangkhan/
59,784702.6612,1968453.406,17.78513978,101.68532,โรงแรมสบายเลยรีสอร์ท,,เชียงคาน,142/4 หมู่ที่ 11 ,นาซ่าว,เชียงคาน,08 6233 1078,https://www.facebook.com/%E0%B9%82%E0%B8%A3%E0%B8%87%E0%B9%81%E0%B8%A3%E0%B8%A1%E0%B8%AA%E0%B8%9A%E0%B8%B2%E0%B8%A2%E0%B9%80%E0%B8%A5%E0%B8%A2%E0%B8%A3%E0%B8%B5%E0%B8%AA%E0%B8%AD%E0%B8%A3%E0%B9%8C%E0%B8%97-789958551113310/
60,783257.6518,1980769.6,17.89652793,101.6733621,โรงแรมสวีทโฮม,Sweet Home Hotel,เชียงคาน,480/2 หมู่ที่ 2 ,เชียงคาน,เชียงคาน,08 1964 2715,https://th-th.facebook.com/pages/category/Hotel-Resort/%E0%B8%AA%E0%B8%A7%E0%B8%B5%E0%B8%97%E0%B9%82%E0%B8%AE%E0%B8%A1%E0%B9%80%E0%B8%8A%E0%B8%B5%E0%B8%A2%E0%B8%87%E0%B8%84%E0%B8%B2%E0%B8%99-175117572692045/
61,780506.6165,1980226.043,17.89197481,101.6473456,โรงแรมสองอ้ายน้องเคียงโขง,Songeiynong Kengkong,เชียงคาน,47/6 หมู่ที่ 1,เชียงคาน,เชียงคาน,08 3351 0032,https://www.facebook.com/pages/category/Hotel/%E0%B8%AA%E0%B8%AD%E0%B8%87%E0%B8%AD%E0%B9%89%E0%B8%B2%E0%B8%A2%E0%B8%99%E0%B9%89%E0%B8%AD%E0%B8%87-%E0%B9%80%E0%B8%84%E0%B8%B5%E0%B8%A2%E0%B8%87%E0%B9%82%E0%B8%82%E0%B8%87-308934553177317/
62,781156.3426,1980570.917,17.89500524,101.653519,โรงแรมสุขสมบูรณ์,Suksomboon Hotel,เชียงคาน,243/3 หมู่ที่ 1 ถนนชายโขง ,เชียงคาน,เชียงคาน,0 4282 1064,http://suksomboonhotel.com
63,781294.4447,1979096.96,17.88167914,101.6546235,โรงแรมอยู่สบาย,U Sabai Hotel,เชียงคาน,10 หมู่ที่ 6 ถนนเลย - เชียงคาน ,เชียงคาน,เชียงคาน,09 5669 5308,https://www.facebook.com/%E0%B8%AD%E0%B8%A2%E0%B8%B9%E0%B9%88%E0%B8%AA%E0%B8%9A%E0%B8%B2%E0%B8%A2%E0%B8%A3%E0%B8%B5%E0%B8%AA%E0%B8%AD%E0%B8%A3%E0%B9%8C%E0%B8%97-%E0%B9%80%E0%B8%8A%E0%B8%B5%E0%B8%A2%E0%B8%87%E0%B8%84%E0%B8%B2%E0%B8%99-361576794316064/
64,786201.0407,1981573.108,17.90339921,101.7012289,โรงแรมอุ่นรักริมโขงรีสอร์ท,Aun Rak Rim Khong Resort Chiangkhan,เชียงคาน,40/12 หมู่ที่ 4 ,เชียงคาน,เชียงคาน,0 4282 2484,https://th-th.facebook.com/aunrakrimkhong/
65,781278.4936,1980637.417,17.89558996,101.6546799,บ้านอุ่นรัก,Baanaunrak,เชียงคาน,328/1 หมู่ที่ 1 ถนนชายโขง ,เชียงคาน,เชียงคาน,08 6859 8550,https://www.facebook.com/Baanaunrakwalkingstreetchiangkhan
66,781752.2345,1980784.707,17.89685884,101.6591673,โรงแรมเฮือนสบายริมโขง,HUEAN Sbay Rim Khong,เชียงคาน,148/5 หมู่ที่ 1 ,เชียงคาน,เชียงคาน,08 1961 5882,https://www.facebook.com/HuanSabyRimKhong/
67,781758.619,1980789.878,17.8969047,101.6592282,ไทยมณี ริมโขง ,Thai Manee Guest House,เชียงคาน,374 หมู่ 2 ถนนชายโขง ,เชียงคาน,เชียงคาน,08 7778 0175,https://www.facebook.com/thaimanee.chiangkhan/
68,781767.4094,1980796.717,17.89696532,101.6593121,เชียงคาน ริเวอร์ วิว เกสท์เฮ้าส์,Chiangkhan River View Guest House,เชียงคาน,227 ถนนชายโขง ซอย 19 ,เชียงคาน,เชียงคาน,08 0741 8055,https://www.facebook.com/ChiangKhanRiverView/
69,781318.2063,1980647.827,17.89567884,101.6550558,เฮือนยายบับภา บูติค โฮเตล,Chiangkhan Nostalgia,เชียงคาน,350 หมู่ 1 ถนนชายโขง ซอย 3 ,เชียงคาน,เชียงคาน,08 3177 8114,https://www.facebook.com/%E0%B9%80%E0%B8%AE%E0%B8%B7%E0%B8%AD%E0%B8%99%E0%B8%A2%E0%B8%B2%E0%B8%A2%E0%B8%9A%E0%B8%B1%E0%B8%9A%E0%B8%A0%E0%B8%B2-%E0%B9%80%E0%B8%8A%E0%B8%B5%E0%B8%A2%E0%B8%87%E0%B8%84%E0%B8%B2%E0%B8%99-Chiangkhan-Nostalgia-187443008006366
70,781142.3451,1980539.549,17.89472382,101.6533828,บ้านก๋ง ริมโขง,BanKong RimKhong,เชียงคาน,294 หมู่ 1 ถนนชายโขง ,เชียงคาน,เชียงคาน,09 4262 9798,https://www.facebook.com/BanKong.ChiangKhan/
71,780883.4102,1980372.092,17.89324513,101.6509185,โรงแรมศรีเชียงคาน,Sri Chiang Khan Hotel,เชียงคาน,113 หมู่ 1 ถนนศรีเชียงคาน,เชียงคาน,เชียงคาน,0 4282 1000,
72,781320.9455,1980613.806,17.89537131,101.6550771,โรงแรมเชียงคานบุรี ,Chiangkhanburi Loei Hotel,เชียงคาน,343 หมู่ 1 ถนนศรีเชียงคาน ,เชียงคาน,เชียงคาน,08 2835 9194,https://www.facebook.com/%E0%B9%80%E0%B8%8A%E0%B8%B5%E0%B8%A2%E0%B8%87%E0%B8%84%E0%B8%B2%E0%B8%99%E0%B8%9A%E0%B8%B8%E0%B8%A3%E0%B8%B5-Chiangkhanburi-Loei-1365968000117156/
73,781420.3892,1980687.875,17.89602728,101.6560248,สุเนต์ตา โฮสเทล ,Suneta Hostel Chiangkhan,เชียงคาน,166/1 ถนนชายโขง หมู่ 2 ,เชียงคาน,เชียงคาน,08 6999 9218,https://www.facebook.com/sunetahostel/
74,783048.8978,1977985.538,17.87141802,101.6710173,เชียงคาน เดอ เลย รีสอร์ท,Chiang Khan De Loei Resort,เชียงคาน,516/38 หมู่ 2 ,เชียงคาน,เชียงคาน,09 7030 0208,https://www.facebook.com/ChiangKhanDeLoeiResort/
75,781436.1305,1980618.111,17.89539536,101.6561639,จันทรา วาริน โฮมเทล,Chandra Varin Hometel,เชียงคาน,135 หมู่ 2 ,เชียงคาน,เชียงคาน,08 4391 5614,https://www.facebook.com/ChandraVarin1/
76,781834.0457,1980816.275,17.89713332,101.6599431,โรงแรมชิค เชียงคาน,Chic Chiangkhan Hotel,เชียงคาน,290 หมู่ 2,เชียงคาน,เชียงคาน,08 9900 9788,https://www.facebook.com/chicchiangkhanhotel/
77,781950.8916,1980364.849,17.89304236,101.6609842,ปาณิศา เกสท์เฮาส์,Panisa Guesthouse,เชียงคาน,91/14 ซอย 20 (บน) ,เชียงคาน,เชียงคาน,08 6032 4800,
78,780854.9871,1979910.489,17.88908096,101.6505885,เชียงคาน กรีนวิว รีสอร์ท,Chiangkhan Greenview Resort,เชียงคาน,94 หมู่ 1 ซอย 4,เชียงคาน,เชียงคาน,08 1749 8355,https://www.facebook.com/ChiangkhanGreenviewResort/
79,781571.4269,1980740.415,17.89648222,101.6574563,เดอะ รอยัล เชียงคาน บูทิค โฮเต็ล,The Royal Chiangkhan Boutique Hotel,เชียงคาน,195 หมู่ 2 ,เชียงคาน,เชียงคาน,08 9900 9788,https://www.facebook.com/theroyalchiangkhan
80,781713.8589,1980766.585,17.89670016,101.658803,โรงแรมวงศ์สายสิริ ศรีเชียงคาน,Wong Sai Siri Srichiangkhan Hotel,เชียงคาน,266 ถนนศรีเชียงคาน (ชายโขง) ซอย 18 ,เชียงคาน,เชียงคาน,08 1843 9708,https://www.facebook.com/Wongsaisiri/
81,781513.3339,1980705.061,17.89617049,101.6569037,จำเลยรัก,Remember Loei Love,เชียงคาน,186/2 หมู่ 2 ซอย 15 ล่าง ถนนชายโขง ,เชียงคาน,เชียงคาน,08 8572 7754,https://www.facebook.com/jamloeirak
82,781890.2498,1980657.374,17.89569137,101.6604517,แคปซูล โฮสเทล เชียงคาน,Capsule Hostel Chiangkhan,เชียงคาน,153 ซอย 20 ถนนศรีเชียงคาน ,เชียงคาน,เชียงคาน,08 7746 5335,https://www.facebook.com/capsule.hostel.chiangkhan/
83,780748.1367,1980348.399,17.89304857,101.6496396,บ้านต้นโขง,Tonkong Guesthouse ,เชียงคาน,62/1 ซอย 3-4 ถนนชายโขง ,เชียงคาน,เชียงคาน,08 9394 0839,https://www.facebook.com/TonKongGuestHouse/
84,780851.8314,1980388.276,17.8933953,101.6506229,มุ้ยฟัง เกสท์เฮาส์,Muiphang Guesthouse,เชียงคาน,93/3 หมู่ 1 ถนนชายโขง ,เชียงคาน,เชียงคาน,08 1871 3556,https://www.facebook.com/muiphangatchiangkhan
85,780936.0593,1980245.082,17.89209159,101.651398,โรงแรมบ้านเฮา,Ban Hao Guesthouse,เชียงคาน,101 หมู่ 1 ซอย 5 ถนนศรีเชียงคาน ,เชียงคาน,เชียงคาน,08 4896 8329,https://www.facebook.com/BANHAORUANPHAK/
86,781655.1072,1980577.024,17.89499619,101.6582234,เชียงคาน สไมล์ โฮมสเตย์,Chiangkhan Smile Homestay,เชียงคาน,77 หมู่ 2 ถนนศรีเชียงคาน ,เชียงคาน,เชียงคาน,08 6857 6633,https://www.facebook.com/%E0%B9%80%E0%B8%8A%E0%B8%B5%E0%B8%A2%E0%B8%87%E0%B8%84%E0%B8%B2%E0%B8%99%E0%B8%AA%E0%B9%84%E0%B8%A1%E0%B8%A5%E0%B9%8C-%E0%B9%82%E0%B8%AE%E0%B8%A1%E0%B8%AA%E0%B9%80%E0%B8%95%E0%B8%A2%E0%B9%8C-640570989378902/
87,781216.4603,1980559.932,17.89489833,101.6540845,มาเลยเด้ เกสต์เฮาส์,Maloeide Guesthouse,เชียงคาน,291/1 ซอย 9 ถนนศรีเชียงคาน,เชียงคาน,เชียงคาน,08 6404 4372,https://www.facebook.com/Maloeide/
88,780790.2807,1980342.534,17.8929902,101.6500363,ขอบใจนะ โฮมสเตย์,Khobjaina Homestay,เชียงคาน,66 หมู่ 1 ,เชียงคาน,เชียงคาน,08 0292 5757,https://m.facebook.com/KobjainaHomestay/?locale2=th_TH
89,782678.6512,1979210.909,17.88252961,101.6676915,เชียงคาน แกลอรี่ รีสอร์ท,Chiangkhan Gallery Resort,เชียงคาน,530/3 ถนนเชียงคาน-บ้านโพน ,เชียงคาน,เชียงคาน,09 1061 7576,https://www.facebook.com/CheiyngkhanKaelLexRiHillRisxrth/
90,781864.4333,1980632.873,17.89547348,101.660205,โรงแรม อยู่ เชียงคาน,U Chiangkhan,เชียงคาน,350 ซอย 20 ถนนศรีเชียงคาน,เชียงคาน,เชียงคาน,08 6600 7332,https://www.facebook.com/uchiangkhan/
91,781735.8704,1980752.082,17.89656638,101.6590086,โรงแรม อยู่ ชายโขง,U Chaikhong ,เชียงคาน,โรงแรมอยู่ ชายโขง ซอย 18 ถนนชายโขง,เชียงคาน,เชียงคาน,08 6600 7332,https://www.facebook.com/uchiangkhan/
92,775535.7538,1975538.668,17.85028255,101.5998517,เชียงโขงริเวอร์ไซด์รีสอร์ต,Chiang Klong Riverside Resort,เชียงคาน,222/2 หมู่ 3 ,เชียงคาน,เชียงคาน,08 6471 5545,https://www.facebook.com/chiangklongriversideresort/
93,781117.7712,1980520.002,17.89455049,101.6531485,บ้านเสี่ยวกัญ,BaanXiaokan,เชียงคาน,224 หมู่ 1 ,เชียงคาน,เชียงคาน,09 4562 9536,https://www.facebook.com/XiaokanyaHomestay/
94,781867.6613,1980685.619,17.8959493,101.6602425,บ้านใกล้โขง,Ban Glai Kong,เชียงคาน,297/2 ซอย 20 (ล่าง) ,เชียงคาน,เชียงคาน,08 0750 8120,https://www.facebook.com/banglaikong/
95,780993.1373,1980430.287,17.89375647,101.6519611,เฮือนคุ้มฮัก,Huan Kum Huk,เชียงคาน,149/1 หมู่ 1 ,เชียงคาน,เชียงคาน,09 4179 3622,https://www.facebook.com/Huankumhuk/
96,781216.443,1978947.247,17.8803374,101.6538678,เจเจ แอท เชียงคาน,JJ @ chiangkhan,เชียงคาน,7/1 หมู่ 6 ,เชียงคาน,เชียงคาน,08 0956 3924,https://m.facebook.com/juie8889/?locale2=th_TH
97,780089.2074,1980218.287,17.89195827,101.6434083,ริเวอร์ทรี รีสอร์ท,River Tree Resort,เชียงคาน,429 หมู่ 1,เชียงคาน,เชียงคาน,09 2797 1633,https://www.facebook.com/RiverTree-Resort-Chiangkhan-101180641843509/
98,781510.5662,1980713.362,17.89624579,101.6568787,วิทอะวิว @ เชียงคาน,With A View Hotel @ Chiangkhan,เชียงคาน,185 หมู่ 2 ถนนชายโขง ,เชียงคาน,เชียงคาน,09 1058 0185,https://www.facebook.com/withaviewhotel
99,780778.2439,1979808.132,17.88816662,101.6498511,สายทอง บูติก โฮเทล,Saythong boutique hotel,เชียงคาน,99/7 หมู่ 1 ถนนศรีเชียงคาน,เชียงคาน,เชียงคาน,0 4203 1042,https://www.facebook.com/Saythong-boutique-hotel-105976928296175/
100,781251.6599,1980612.6,17.89536934,101.6544235,ภู่เชียงคาน โฮสเทล,Phu Chiangkhan Hostel,เชียงคาน,299/3 ซอย 10 ,เชียงคาน,เชียงคาน,08 9981 3759,https://m.facebook.com/Phuchiangkhan/?locale2=th_TH
101,780816.2931,1980362.777,17.89316964,101.6502843,บ้านระเบียงโขง ,Ban Rabeang Kong,เชียงคาน,90 ซอย 4-5 ถนนชายโขง ,เชียงคาน,เชียงคาน,08 7952 5758,https://m.facebook.com/%E0%B8%9A%E0%B9%89%E0%B8%B2%E0%B8%99%E0%B8%A3%E0%B8%B0%E0%B9%80%E0%B8%9A%E0%B8%B5%E0%B8%A2%E0%B8%87%E0%B9%82%E0%B8%82%E0%B8%87-%E0%B9%80%E0%B8%8A%E0%B8%B5%E0%B8%A2%E0%B8%87%E0%B8%84%E0%B8%B2%E0%B8%99-241943132548968/
102,781222.2148,1980595.415,17.89521796,101.6541435,บ้านระเบียงโขง 2,Ban Rabeang Kong2,เชียงคาน,291 ถนนศรีเชียงคาน ซอย 9,เชียงคาน,เชียงคาน,08 7952 5758,https://m.facebook.com/%E0%B8%9A%E0%B9%89%E0%B8%B2%E0%B8%99%E0%B8%A3%E0%B8%B0%E0%B9%80%E0%B8%9A%E0%B8%B5%E0%B8%A2%E0%B8%87%E0%B9%82%E0%B8%82%E0%B8%87-%E0%B9%80%E0%B8%8A%E0%B8%B5%E0%B8%A2%E0%B8%87%E0%B8%84%E0%B8%B2%E0%B8%99-241943132548968/
103,781079.0313,1980495.824,17.89433717,101.6527799,บ้านริมโขง,Ban Rim Khong,เชียงคาน,191/1 ถนนชายโขง,เชียงคาน,เชียงคาน,08 7221 3430,https://www.facebook.com/bannrimkhong/
104,781626.0448,1980772.669,17.89676641,101.6579757,โรงแรมเชียงคานริเวอร์วอล์ค,Chiangkhan River Walk Hotel,เชียงคาน,204 ถนนชายโขง ,เชียงคาน,เชียงคาน,06 1971 6262,https://www.facebook.com/Chiangkhanriverwalk/
105,783084.3509,1980832.455,17.89711788,101.6717363,เชียงคาน บูติก โฮเต็ล ,Chiang Khan Boutique Hotel,เชียงคาน,404/9 หมู่ 2 ,เชียงคาน,เชียงคาน,08 6014 1535,https://www.facebook.com/%E0%B9%80%E0%B8%8A%E0%B8%B5%E0%B8%A2%E0%B8%87%E0%B8%84%E0%B8%B2%E0%B8%99%E0%B8%9A%E0%B8%B9%E0%B8%95%E0%B8%B4%E0%B8%84-Chiangkhan-boutique-Hotel-249863795059979/
106,780823.2303,1980371.555,17.893248,101.6503509,บ้านพัลลภา,Baan Phunlapa,เชียงคาน,89 ถนนชายโขง ,เชียงคาน,เชียงคาน,08 1311 9754,
107,781657.0952,1980767.415,17.89671497,101.6582678,ยายเสมือนโฮมสเตย์ @เชียงคาน ณ เลย,Banyaisamuan@Chaing Kan,เชียงคาน,4 ถนนชายโขง ,เชียงคาน,เชียงคาน,08 1872 3373,https://www.facebook.com/%E0%B8%97%E0%B8%B5%E0%B9%88%E0%B8%9E%E0%B8%B1%E0%B8%81%E0%B8%A2%E0%B8%B2%E0%B8%A2%E0%B9%80%E0%B8%AA%E0%B8%A1%E0%B8%B7%E0%B8%AD%E0%B8%99%E0%B9%82%E0%B8%AE%E0%B8%A1%E0%B9%80%E0%B8%AA%E0%B8%95%E0%B8%A2%E0%B9%8C-at-%E0%B9%80%E0%B8%8A%E0%B8%B5%E0%B8%A2%E0%B8%87%E0%B8%84%E0%B8%B2%E0%B8%99-1045124782239825/
108,780939.3249,1980362.056,17.89314732,101.6514444,พืชไทยเชียงคาน,PlantThai ChiangKhan,เชียงคาน,121 หมู่ 1 ซอย 5,เชียงคาน,เชียงคาน,08 4516 2012,https://www.facebook.com/plantthai.chiangkhan
109,780851.9985,1980393.636,17.89344368,101.6506252,มะลิแกลเลอรี,Mali Gallery,เชียงคาน,92/2 ถนนชายโขง ,เชียงคาน,เชียงคาน,08 1922 0423,https://www.facebook.com/maliigallery/
110,780843.5043,1980393.549,17.89344398,101.650545,เถ้าแก่ลาว,Tao Kae Lao,เชียงคาน,92 หมู่ 1 ,เชียงคาน,เชียงคาน,08 1311 9754,https://www.facebook.com/taokaelaochiangkhanloei/
111,783026.7605,1978528.212,17.87632063,101.6708818,บ้านเอเครีสอร์ท,Baan AK Resort,เชียงคาน,516/36 หมู่ 2 ,เชียงคาน,เชียงคาน,09 3342 0897,https://www.facebook.com/%E0%B8%9A%E0%B9%89%E0%B8%B2%E0%B8%99-%E0%B9%80%E0%B8%AD%E0%B9%80%E0%B8%84-%E0%B8%A3%E0%B8%B5%E0%B8%AA%E0%B8%AD%E0%B8%A3%E0%B9%8C%E0%B8%97-%E0%B9%80%E0%B8%8A%E0%B8%B5%E0%B8%A2%E0%B8%87%E0%B8%84%E0%B8%B2%E0%B8%99-190200031322848/
112,781169.3123,1980559.424,17.8948998,101.6536398,สองผัวเมีย เกสท์เฮาส์,SongPhuaMia Guesthouse,เชียงคาน,241 หมู่ 1 ถนนชายโขง ,เชียงคาน,เชียงคาน,06 3614 6995,https://www.facebook.com/SongPhuaMiaGroup
113,785867.1381,1982297.353,17.90998186,101.698179,เอนกายสบาย เชียงคาน โฮมสเตย์,Aenguy Sabey Chiangkhan Homestay,เชียงคาน,51 หมู่ 4 ,บ้านน้อย ,เชียงคาน,09 5703 8757,https://m.facebook.com/%E0%B9%82%E0%B8%AE%E0%B8%A1%E0%B8%AA%E0%B9%80%E0%B8%95%E0%B8%A2%E0%B9%8C-%E0%B9%80%E0%B8%AD%E0%B8%99%E0%B8%81%E0%B8%B2%E0%B8%A2-%E0%B8%AA%E0%B8%9A%E0%B8%B2%E0%B8%A2-%E0%B9%80%E0%B8%8A%E0%B8%B5%E0%B8%A2%E0%B8%87%E0%B8%84%E0%B8%B2%E0%B8%99-1506802582941635/
114,781477.8637,1980688.5,17.89602553,101.6565669,ทัยธารา เชียงคาน,Thaitara Chiangkhan,เชียงคาน,205 ​ซอย 14 ถนนศรีเชียงคาน ,เชียงคาน,เชียงคาน,08 3771 1193,https://www.facebook.com/RATCHADAPORNPUNCHAROEN/
115,780644.5774,1980324.824,17.892849,101.6486599,บ้านกอแก้ว เชียงคาน,Baan Kokaew Chiang Khan,เชียงคาน,44/1 ถนนชายโขง ,เชียงคาน,เชียงคาน,09 7216 3555,https://www.facebook.com/baankokaew/
116,786077.1837,1981949.178,17.90681082,101.7001123,เชียงคาน ซีวิว เกสท์เฮาส์,Chiangkhan See View Guest House,เชียงคาน,49/10 หมู่ 10 ,เชียงคาน,เชียงคาน,08 9944 5106,https://www.facebook.com/profile.php?id=100047288065994&refid=17&_ft_=mf_story_key.2527417087481340%3Atop_level_post_id.2527417087481340%3Atl_objid.2527417087481340%3Acontent_owner_id_new.1507625589460500%3Athrowback_story_fbid.2527417087481340%3Apage_id.1507625589460500%3Astory_location.4%3Astory_attachment_style.photo%3Aott.AX-BQvjd8c8Al79I%3Atds_flgs.3%3Athid.1507625589460500%3A306061129499414%3A2%3A0%3A1638345599%3A-2256442699523062597%3A%3A%3Apage_insights.%7B%221507625589460500%22%3A%7B%22page_id%22%3A1507625589460500%2C%22page_id_type%22%3A%22page%22%2C%22actor_id%22%3A1507625589460500%2C%22dm%22%3A%7B%22isShare%22%3A0%2C%22originalPostOwnerID%22%3A0%7D%2C%22psn%22%3A%22EntStatusCreationStory%22%2C%22post_context%22%3A%7B%22object_fbtype%22%3A266%2C%22publish_time%22%3A1566121866%2C%22story_name%22%3A%22EntStatusCreationStory%22%2C%22story_fbid%22%3A[2527417087481340]%7D%2C%22role%22%3A1%2C%22sl%22%3A4%2C%22targets%22%3A[%7B%22actor_id%22%3A1507625589460500%2C%22page_id%22%3A1507625589460500%2C%22post_id%22%3A2527417087481340%2C%22role%22%3A1%2C%22share_id%22%3A0%7D]%7D%7D
117,781471.5076,1980570.562,17.89496149,101.6564911,ชิล พิล โฮสเทล,Chill pill Hostel,เชียงคาน,127/6 ถนนศรีเชียงคาน ,เชียงคาน,เชียงคาน,09 9073 7388,https://www.facebook.com/Chill-Pill-Hostel-116461376416480/
118,783375.7045,1980873.214,17.89744814,101.6744894,บ้านพักหมอบิว,Baan Mhor Biw,เชียงคาน,483/1 หมู่ 1 ถนนศรีเชียงคาน ,เชียงคาน,เชียงคาน,08 8561 0140,https://www.facebook.com/bannmorbeau/
119,781070.3726,1980507.953,17.89444779,101.6526999,เดือนเต็มดวง บูติก โฮเต็ล,Deuntemduang Boutique Hotel,เชียงคาน,187 หมู่ 1 ,เชียงคาน,เชียงคาน,08 4601 1054,https://m.facebook.com/chiangkhanhome/?locale2=th_TH
120,781866.3543,1980690.15,17.89599038,101.6602308,ทริปเปิลซี โฮสเทล,Zzz Hostel Chiangkhan,เชียงคาน,296/2 ซอย 20 ,เชียงคาน,เชียงคาน,08 8340 3999,https://m.facebook.com/pages/category/Inn/Zzz-Hostel-Chiangkhan-1421542641225079/?locale2=th_TH
121,786041.8679,1981890.753,17.90628795,101.6997712,บ้านแก่งรีสอร์ท,Ban Kaeng Resort,เชียงคาน,281 หมู่ 4 ถนนร่วมใจนฤมิตร ,เชียงคาน,เชียงคาน,09 5224 2971,https://www.facebook.com/BannkaengResort/
122,780964.6357,1979997.366,17.88985129,101.6516342,ณ ซอย 5,Na Soi 5 Chiangkhan,เชียงคาน,165/2 หมู่ 1,เชียงคาน,เชียงคาน,09 5215 4062,https://www.facebook.com/ChiangkhanNaSoi5/
123,780906.9926,1981305.975,17.90167413,101.6512662,บ้านสุขสำราญ,Baan Suk Sam Ran,เชียงคาน,194 หมู่ 1 ถนนชายโขง ,เชียงคาน,เชียงคาน,09 5215 9383,https://www.facebook.com/%E0%B8%97%E0%B8%B5%E0%B9%88%E0%B8%9E%E0%B8%B1%E0%B8%81%E0%B9%80%E0%B8%8A%E0%B8%B5%E0%B8%A2%E0%B8%87%E0%B8%84%E0%B8%B2%E0%B8%99%E0%B8%9A%E0%B9%89%E0%B8%B2%E0%B8%99%E0%B8%AA%E0%B8%B8%E0%B8%82%E0%B8%AA%E0%B8%B3%E0%B8%A3%E0%B8%B2%E0%B8%8D-205397863249924/
124,780914.5146,1980400.068,17.89349373,101.6512156,เดอะ ไวท์ เฮ้าส์,The White House ,เชียงคาน,112 ซอย 5 ,เชียงคาน,เชียงคาน,08 1551 5748,
125,781001.9745,1980074.98,17.89054727,101.6519967,FineUpHome,FineUpHome,เชียงคาน,84/15 ซอย 5,เชียงคาน,เชียงคาน,08 1871 6040,
126,781168.994,1980241.477,17.89202911,101.6535941,บ้านทอฝัน@เชียงคาน,Dream weaver's house,เชียงคาน,169/2 หมู่ 1 ถนนศรีเชียงคาน ซอย 23 ,เชียงคาน,เชียงคาน,09 6989 6451,https://www.facebook.com/BantorfunChiangkhan/
127,781544.8811,1982448.594,17.91190872,101.6574358,บ้านตากะยาย,BAAN TA KA YAI,เชียงคาน,261/1 หมู่ 2 ถนนชายโขง,เชียงคาน,เชียงคาน,08 5459 5761,https://www.facebook.com/baantakayai.chiangkhan/
128,780529.9397,1980332.738,17.89293517,101.6475799,หม่อลาว แอท เชียงคาน,Mhorlao@Chiangkhan,เชียงคาน,23/2 ซอย 2 ถนนชายโขง ,เชียงคาน,เชียงคาน,09 4372 3624,https://www.facebook.com/%E0%B8%AB%E0%B8%A1%E0%B9%88%E0%B8%AD%E0%B8%A5%E0%B8%B2%E0%B8%A7%E0%B9%80%E0%B8%8A%E0%B8%B5%E0%B8%A2%E0%B8%87%E0%B8%84%E0%B8%B2%E0%B8%99-812366762170729/
129,781118.1885,1980538.104,17.89471388,101.6531548,บ้านบุปผาจันทน์,Bann bupphachan,เชียงคาน,224/1 ซอย 7-8 หมู่ 1 ถนนชายโขง ,เชียงคาน,เชียงคาน,08 5181 1877,https://www.facebook.com/%E0%B8%9A%E0%B9%89%E0%B8%B2%E0%B8%99%E0%B8%9A%E0%B8%B8%E0%B8%9B%E0%B8%9C%E0%B8%B2%E0%B8%88%E0%B8%B1%E0%B8%99%E0%B8%97%E0%B8%99%E0%B9%8C-218490768212783/
130,781517.2048,1980749.273,17.89656918,101.6569461,ภักดี,Pakdee House,เชียงคาน,187/1 ,เชียงคาน,เชียงคาน,08 6067 2509,https://www.facebook.com/%E0%B8%A0%E0%B8%B1%E0%B8%81%E0%B8%94%E0%B8%B5-Pakdee-House-at-Chiangkhan-314590292792882/
131,781235.3593,1980555.421,17.89485517,101.6542621,บ้านนอก เกสท์เฮ้าส์,Baannok Guest House @Chiang Khan,เชียงคาน,291 ซอย 9 ถนนศรีเชียงคาน ,เชียงคาน,เชียงคาน,06 2260 6946,https://www.facebook.com/baannokguesthouse
132,781717.7597,1980139.991,17.89104217,101.6587555,วามินทร์รีสอร์ท เชียงคาน,Vamin Resort Chiangkhan,เชียงคาน,384/65 หมู่ 2 ,เชียงคาน,เชียงคาน,08 7947 8058,https://www.facebook.com/%E0%B8%A7%E0%B8%B2%E0%B8%A1%E0%B8%B4%E0%B8%99%E0%B8%97%E0%B8%A3%E0%B9%8C%E0%B8%A3%E0%B8%B5%E0%B8%AA%E0%B8%AD%E0%B8%A3%E0%B9%8C%E0%B8%97-%E0%B8%AD%E0%B9%80%E0%B8%8A%E0%B8%B5%E0%B8%A2%E0%B8%87%E0%B8%84%E0%B8%B2%E0%B8%99-%E0%B8%88%E0%B9%80%E0%B8%A5%E0%B8%A2-105007434417943/
133,781247.9352,1980492.068,17.89428153,101.6543722,เติมสุขเฮ้าส์ ,Thermsuk House,เชียงคาน,289 ถนนศรีเชียงคาน ซอย 9 ,เชียงคาน,เชียงคาน,09 5446 5514,https://www.facebook.com/TERMSUKHOUSE.Chaingkhan/
134,779443.3747,1980223.946,17.89209199,101.6373186,เดอะแคมป์ เชียงคาน,The camp chiangkhan,เชียงคาน,172/1 หมู่ 7 ,เชียงคาน,เชียงคาน,09 5727 4555,https://www.facebook.com/theCampChiangkhanOfficial/
135,788402.5052,1981831.008,17.90543826,101.7220252,โรงแรมอินบ็อกซ์ ลิฟวิ่ง ริมโขง เชียงคาน,Inbox Living Rimkhong,เชียงคาน,100/2 หมู่ 8 ถนนเชียงคาน-ปากชม ,บุฮม,เชียงคาน,08 1965 9765,https://www.facebook.com/RimkhongChiangkhanLoei/
136,807339.0828,1994455.034,18.01681483,101.9024521,ชมดาวรีสอร์ท,Chomdao Resort,ปากชม,210/1 หมู่ที่ 3 ถนนห้วยพิชัย - ปากชม ,ปากชม,ปากชม,08 8333 2970,https://www.facebook.com/ChomdaoPakchom/
137,811812.7446,1968344.012,17.7804793,101.9407705,ดงมณีรีสอร์ท,Dongmanee Resort,ปากชม,6 หมู่ที่ 2 ,เชียงกลม,ปากชม,08 9518 2119,https://th-th.facebook.com/dongmaneeresort
138,806053.5219,1995207.283,18.02378703,101.8904338,โรงแรมบ้านตาปากชม,Baanta Hotel Pakchom,ปากชม,557 หมู่ที่ 1 ถนนปากชม-ศรีเชียงใหม่,ปากชม,ปากชม,08 9994 4660,https://www.facebook.com/pages/category/Hotel/Baanta-HotelResort-172855686995676/
139,805460.8933,1993736.281,18.01059163,101.8846257,โรงแรมภูฆ้องรีสอร์ท,Phukhongresort,ปากชม,575 หมู่ที่ 1 ,ปากชม,ปากชม,09 3058 5556,https://web.facebook.com/profile.php?id=100055054946178
140,800684.7973,1997863.19,18.04851359,101.8401615,โรงแรมแม่โขงวิลล่า,Mekong Villas,ปากชม,96 หมู่ที่ 6 ,ปากชม,ปากชม,08 9810 0498,https://web.facebook.com/mekongvillasthailand
141,806072.2251,1995388.021,18.02541593,101.8906369,โรงแรมริมโขงรีสอร์ท,RimKhong Resort,ปากชม,288 หมู่ที่ 1,ปากชม,ปากชม,08 8534 7028,https://th-th.facebook.com/pages/category/Hotel---Lodging/%E0%B8%A3%E0%B8%B4%E0%B8%A1%E0%B9%82%E0%B8%82%E0%B8%87%E0%B8%A3%E0%B8%B5%E0%B8%AA%E0%B8%AD%E0%B8%A3%E0%B9%8C%E0%B8%97-%E0%B8%9B%E0%B8%B2%E0%B8%81%E0%B8%8A%E0%B8%A1-143698635779098/
142,730323.9796,1911372.494,17.27591749,101.1665875,ปนัดดารีสอร์ทด่านซ้าย,Panutda Resort Dansai,ด่านซ้าย,312 หมู่ที่ 3 ,ด่านซ้าย,ด่านซ้าย,08 2103 4398,https://th-th.facebook.com/PanutdaresortDansai
143,736685.1154,1918730.409,17.34172274,101.2271926,ภูผาน้ำ รีสอร์ท แอนด์ สปา ,Phu Pha Nam Resort & Spa,ด่านซ้าย,252 หมู่ที่ 1 ,โคกงาม,ด่านซ้าย,08 1407 7577,https://th-th.facebook.com/pages/%E0%B8%A0%E0%B8%B9%E0%B8%9C%E0%B8%B2%E0%B8%99%E0%B9%89%E0%B8%B3%E0%B8%A3%E0%B8%B5%E0%B8%AA%E0%B8%AD%E0%B8%A3%E0%B9%8C%E0%B8%97-%E0%B8%94%E0%B9%88%E0%B8%B2%E0%B8%99%E0%B8%8B%E0%B9%89%E0%B8%B2%E0%B8%A2-%E0%B8%88%E0%B9%80%E0%B8%A5%E0%B8%A2/311813628936074
144,728506.27,1911081.326,17.27347114,101.1494671,โรงแรม ด่านซ้าย รีสอร์ท,Dansai Resort,ด่านซ้าย, 391 หมู่ที่ 3 ,ด่านซ้าย,ด่านซ้าย,08 9277 1251,http://www.dansairesort.com/
145,727883.8605,1911296.876,17.27548076,101.1436379,โรงแรม บ้านชานภู,Baan Chanbhu Hotel,ด่านซ้าย,205 หมู่ที่ 14 ,ด่านซ้าย,ด่านซ้าย,08 1561 7530,https://th-th.facebook.com/BaanChanBhuDansai/
146,727808.6209,1911069.723,17.27343646,101.1429068,บ้านรักเลย รีสอร์ท,Banruk Loei Resort,ด่านซ้าย,16 หมู่ที่ 14 ,ด่านซ้าย,ด่านซ้าย,08 5758 8875,https://th-th.facebook.com/%E0%B8%9A%E0%B9%89%E0%B8%B2%E0%B8%99%E0%B8%A3%E0%B8%B1%E0%B8%81%E0%B9%80%E0%B8%A5%E0%B8%A2-359943600777415/
147,727949.431,1911096.797,17.27366688,101.1442335,โรงแรม เลย พันไมล์ รีสอร์ท,Loei Panmiles Resort,ด่านซ้าย,149/2 หมู่ที่ 14 ,ด่านซ้าย,ด่านซ้าย,09 9939 4249,https://www.facebook.com/Loei1000miles/?rf=141756506358563
148,728195.8522,1911836.392,17.28032282,101.1466277,โรงแรม เอสบี รีสอร์ท,S.B.Resort,ด่านซ้าย,177 หมู่ที่ 14 ,ด่านซ้าย,ด่านซ้าย,0 93945 6404,https://www.facebook.com/sbhotel.kantraralak/
149,741651.6491,1918577.225,17.33981368,101.2738838,โรงแรม ฮักจังเลย การ์เด้น แอนด์ รีสอร์ท,Hug Jang Loei Garden,ด่านซ้าย,160 หมู่ที่ 7 ,โคกงาม,ด่านซ้าย,06 2152 8064,https://www.facebook.com/hugjangloei/
150,738332.0954,1915977.372,17.31668344,101.24238,โรงแรมไพรเมท โฮม,Primate Home,ด่านซ้าย,324 หมู่ที่ 6 ,โพนสูง,ด่านซ้าย,0 4203 9616 ,https://th-th.facebook.com/PrimateHomeResort/
151,737445.9822,1920005.244,17.35315766,101.2344879,โรงแรมภูผาหมอกวัลเลย์รีสอร์ท,Phuphamok Valley Resort,ด่านซ้าย,233 หมู่ที่ 1 ,โคกงาม,ด่านซ้าย,0 4207 8077,https://www.facebook.com/%E0%B8%A3%E0%B8%B5%E0%B8%AA%E0%B8%AD%E0%B8%A3%E0%B9%8C%E0%B8%97%E0%B8%A0%E0%B8%B9%E0%B8%9C%E0%B8%B2%E0%B8%AB%E0%B8%A1%E0%B8%AD%E0%B8%81%E0%B8%A7%E0%B8%B1%E0%B8%A5%E0%B9%80%E0%B8%A5%E0%B9%88%E0%B8%A2%E0%B9%8C%E0%B9%80%E0%B8%A5%E0%B8%A2-109731917881038/
152,730142.0101,1912273.87,17.28407791,101.1649718,อิงภูรีสอร์ท,Eing Phu Resort,ด่านซ้าย,615 หมู่ที่ 3 ,บ้านเดิ่น,ด่านซ้าย,08 7856 0455,https://th-th.facebook.com/pages/category/Inn/%E0%B8%AD%E0%B8%B4%E0%B8%87%E0%B8%A0%E0%B8%B9%E0%B8%A3%E0%B8%B5%E0%B8%AA%E0%B8%AD%E0%B8%A3%E0%B9%8C%E0%B8%97-%E0%B8%94%E0%B9%88%E0%B8%B2%E0%B8%99%E0%B8%8B%E0%B9%89%E0%B8%B2%E0%B8%A2-756348027803771/
153,727811.8958,1912257.77,17.28416769,101.1430617,พูเพียงพอ ดา อาเต้ รีสอร์ท,Pupiang po Da Arte Resort,ด่านซ้าย,371 หมู่ที่ 1 ,ด่านซ้าย,ด่านซ้าย,08 1917 5806,https://www.facebook.com/pupiangpodaarte/
154,729839.2708,1911920.348,17.2809153,101.1620881,ภูนาคำ รีสอร์ท,PhuNaCome Resort,ด่านซ้าย,461 หมู่ 3 ,บ้านเดิ่น,ด่านซ้าย,0 4289 2005,https://www.facebook.com/PhunacomeResort/
155,738266.0186,1920551.632,17.35800644,101.2422606,คันทรีเฮ้าส์ โคกงาม,Country House Khokngam,ด่านซ้าย,203,โคกงาม,ด่านซ้าย,08 6620 6047,https://www.facebook.com/LongstayinLoei/
156,730438.462,1911849.911,17.28021828,101.1677143,เมาน์เทนกรีน รีสอร์ท ด่านซ้าย,Mountain Green Resort Dansai,ด่านซ้าย,589 หมู่ 3 ถนนเลย-ด่านซ้าย,ด่านซ้าย,ด่านซ้าย,08 9844 9335,-
157,725890.4427,1890777.759,17.09032795,101.1227832,บ้านไร่ลมโล,,ด่านซ้าย,บ้านไร่ลมโล ,กกสะทอน,ด่านซ้าย,09 9734 3239,https://www.facebook.com/farmhouselomlo/
158,726987.5653,1910233.814,17.26596794,101.1351003,ตรีจุฑารัตน์ รีสอร์ท,,ด่านซ้าย,123/44 หมู่ 4 ถ.ด่านซ้าย-นครไทย ,ด่านซ้าย,ด่านซ้าย,08 1441 7798,https://www.facebook.com/%E0%B8%95%E0%B8%A3%E0%B8%B5%E0%B8%88%E0%B8%B8%E0%B8%91%E0%B8%B2%E0%B8%A3%E0%B8%B1%E0%B8%95%E0%B8%99%E0%B9%8C-%E0%B8%A3%E0%B8%B5%E0%B8%AA%E0%B8%AD%E0%B8%A3%E0%B9%8C%E0%B8%97-102400454464049/
159,720641.3834,1890601.621,17.08924733,101.0734619,ปางสุขกมลโฮมสเตย์,Pangsukamol Homestay,ด่านซ้าย,92 หมู่ 7 ,กกสะทอน,ด่านซ้าย,08 2882 9914 ,https://www.facebook.com/%E0%B8%9B%E0%B8%B2%E0%B8%87%E0%B8%AA%E0%B8%B8%E0%B8%82%E0%B8%81%E0%B8%A1%E0%B8%A5%E0%B9%82%E0%B8%AE%E0%B8%A1%E0%B8%AA%E0%B9%80%E0%B8%95%E0%B8%A2%E0%B9%8C-%E0%B8%97%E0%B8%B5%E0%B9%88%E0%B8%9E%E0%B8%B1%E0%B8%81%E0%B8%A0%E0%B8%B9%E0%B8%A5%E0%B8%A1%E0%B9%82%E0%B8%A5-%E0%B8%8B%E0%B8%B2%E0%B8%81%E0%B8%B8%E0%B8%A3%E0%B8%B0%E0%B9%80%E0%B8%A1%E0%B8%B7%E0%B8%AD%E0%B8%87%E0%B9%84%E0%B8%97%E0%B8%A2-491024847672566/
160,720712.8349,1890756.775,17.09064205,101.0741486,ภูลมโล@เลย โฮมสเตย์,Phulomlo @ Loei,ด่านซ้าย,58 หมู่ 8 ,กกสะทอน,ด่านซ้าย,08 1036 5016,https://www.facebook.com/profile.php?id=100051485061190
161,726141.8111,1891990.954,17.10126226,101.1252686,โฮมสเตย์ยายตา,,ด่านซ้าย,188 หมู่ 1 บ้านน้ำหมัน ,กกสะทอน,ด่านซ้าย,08 9277 2919,https://www.facebook.com/%E0%B9%82%E0%B8%AE%E0%B8%A1%E0%B8%AA%E0%B9%80%E0%B8%95%E0%B8%A2%E0%B9%8C%E0%B8%A2%E0%B8%B2%E0%B8%A2%E0%B8%95%E0%B8%B2-%E0%B8%97%E0%B8%B5%E0%B9%88%E0%B8%9E%E0%B8%B1%E0%B8%81%E0%B8%A0%E0%B8%B9%E0%B8%A5%E0%B8%A1%E0%B9%82%E0%B8%A5-%E0%B8%8B%E0%B8%B2%E0%B8%81%E0%B8%B8%E0%B8%A3%E0%B8%B0%E0%B9%80%E0%B8%A1%E0%B8%B7%E0%B8%AD%E0%B8%87%E0%B9%84%E0%B8%97%E0%B8%A2-1853264178229690/
162,726484.1548,1890674.728,17.08933876,101.1283492,ริมน้ำโฮมสเตย์ ภูลมโล,,ด่านซ้าย,285 หมู่ 1 ,กกสะทอน,ด่านซ้าย,09 5327 8303,https://www.facebook.com/%E0%B8%A3%E0%B8%B4%E0%B8%A1%E0%B8%99%E0%B9%89%E0%B8%B3%E0%B9%82%E0%B8%AE%E0%B8%A1%E0%B8%AA%E0%B9%80%E0%B8%95%E0%B8%A2%E0%B9%8C%E0%B8%97%E0%B8%B5%E0%B9%88%E0%B8%9E%E0%B8%B1%E0%B8%81%E0%B8%A0%E0%B8%B9%E0%B8%A5%E0%B8%A1%E0%B9%82%E0%B8%A5-%E0%B8%8B%E0%B8%B2%E0%B8%81%E0%B8%B8%E0%B8%A3%E0%B8%B0%E0%B9%80%E0%B8%A1%E0%B8%B7%E0%B8%AD%E0%B8%87%E0%B9%84%E0%B8%97%E0%B8%A2-%E0%B8%AD%E0%B8%B3%E0%B9%80%E0%B8%A0%E0%B8%AD%E0%B8%94%E0%B9%88%E0%B8%B2%E0%B8%99%E0%B8%8B%E0%B9%89%E0%B8%B2%E0%B8%A2-140239256618466/
163,726522.0389,1890790.768,17.09038324,101.128717,บ้านสวนของพ่อโฮมสเตย์,Father of House Homestay  ,ด่านซ้าย,92 หมู่ 7 น ,กกสะทอน,ด่านซ้าย,08 1633 2195,https://www.facebook.com/FatherofHouseHomestay/
164,720888.5551,1890666.69,17.08981136,101.0757901,ไร่ศรีวงษ์,,ด่านซ้าย,69 หมู่ 8 บ้านห้วยมุ่น ,กกสะทอน,ด่านซ้าย,09 3183 5524,https://www.facebook.com/%E0%B9%84%E0%B8%A3%E0%B9%88%E0%B8%A8%E0%B8%A3%E0%B8%B5%E0%B8%A7%E0%B8%87%E0%B8%A9%E0%B9%8C-%E0%B8%97%E0%B8%B5%E0%B9%88%E0%B8%9E%E0%B8%B1%E0%B8%81%E0%B8%A0%E0%B8%B9%E0%B8%A5%E0%B8%A1%E0%B9%82%E0%B8%A5-%E0%B8%8B%E0%B8%B2%E0%B8%81%E0%B8%B8%E0%B8%A3%E0%B8%B0%E0%B9%80%E0%B8%A1%E0%B8%B7%E0%B8%AD%E0%B8%87%E0%B9%84%E0%B8%97%E0%B8%A2-935587066489482/
165,723125.6065,1891311.575,17.09542052,101.0968677,โฮมสเตย์บ้านไร่วันวรุณ,,ด่านซ้าย,237 หมู่ 8 ,กกสะทอน,ด่านซ้าย,08 8733 6480,https://www.facebook.com/%E0%B9%82%E0%B8%AE%E0%B8%A1%E0%B8%AA%E0%B9%80%E0%B8%95%E0%B8%A2%E0%B9%8C%E0%B8%9A%E0%B9%89%E0%B8%B2%E0%B8%99%E0%B9%84%E0%B8%A3%E0%B9%88%E0%B8%A7%E0%B8%B1%E0%B8%99%E0%B8%A7%E0%B8%A3%E0%B8%B8%E0%B8%93-%E0%B8%97%E0%B8%B5%E0%B9%88%E0%B8%9E%E0%B8%B1%E0%B8%81%E0%B8%A0%E0%B8%B9%E0%B8%A5%E0%B8%A1%E0%B9%82%E0%B8%A5-829972397170546/
166,721664.3403,1891307.95,17.09552938,101.0831414,พิมพ์ดาว โฮมสเตย์,Pimdao Homestay,ด่านซ้าย,หมู่ 8 ,กกสะทอน,ด่านซ้าย,09 1732 0563,https://www.facebook.com/%E0%B8%9E%E0%B8%B4%E0%B8%A1%E0%B8%9E%E0%B9%8C%E0%B8%94%E0%B8%B2%E0%B8%A7-%E0%B9%82%E0%B8%AE%E0%B8%A1%E0%B8%AA%E0%B9%80%E0%B8%95%E0%B8%A2%E0%B9%8C-167724687289631/
167,731631.4421,1935762.927,17.49609403,101.18149,โฮมสเตย์ยายละไม,,ด่านซ้าย,29 หมู่ 4 ,ปากหมัน,ด่านซ้าย,09 3218 8429,https://www.facebook.com/%E0%B9%82%E0%B8%AE%E0%B8%A1%E0%B8%AA%E0%B9%80%E0%B8%95%E0%B8%A2%E0%B9%8C%E0%B8%A2%E0%B8%B2%E0%B8%A2%E0%B8%A5%E0%B8%B0%E0%B9%84%E0%B8%A1-112769736906845/
168,731580.0817,1935669.446,17.49525497,101.1809965,ภูอีเลิศ โฮมสเตย์,Phu E Lert Homestay,ด่านซ้าย,78 หมู่ที่ 4 บ้านปากหมัน ,ปากหมัน,ด่านซ้าย,08 5460 6976,https://www.facebook.com/%E0%B8%A0%E0%B8%B9%E0%B8%AD%E0%B8%B5%E0%B9%80%E0%B8%A5%E0%B8%B4%E0%B8%A8-%E0%B9%82%E0%B8%AE%E0%B8%A1%E0%B8%AA%E0%B9%80%E0%B8%95%E0%B8%A2%E0%B9%8C-Phueloet-Homestay-103237721108011/
169,726082.1856,1891006.954,17.09237945,101.1246077,The Camp Phulomlo,The Camp Phulomlo,ด่านซ้าย,134 บ้านน้ำหมัน,กกสะทอน,ด่านซ้าย,06 1046 8429 ,https://www.facebook.com/thecamp.phulomlo/
170,751126.1387,1929845.786,17.44055279,101.3642898,กรีนฮิลล์ รีสอร์ท ภูเรือ,GreenHill Resort Phurue,ภูเรือ,128 หมู่ที่ 5 ,หนองบัว,ภูเรือ,08 1184 4665,https://www.facebook.com/greenhillresortphurea
171,753416.3959,1931683.189,17.45688974,101.3860544,คาซ่า เดอ ปันดาว,Casa de pandao,ภูเรือ,234 หมู่ที่ 2 ,หนองบัว,ภูเรือ,08 1260 1826,https://www.facebook.com/casadepandao/
172,754217.7343,1931502.305,17.45516554,101.3935733,คิตตี้เมืองชมพูรีสอร์ท,Kitty Resort,ภูเรือ,411 หมู่ที่ 4 ,หนองบัว,ภูเรือ,09 9625 5989,https://www.facebook.com/pages/category/Hotel---Lodging/%E0%B8%84%E0%B8%B4%E0%B8%95%E0%B8%95%E0%B8%B5%E0%B9%89%E0%B9%80%E0%B8%A1%E0%B8%B7%E0%B8%AD%E0%B8%87%E0%B8%8A%E0%B8%A1%E0%B8%9E%E0%B8%B9%E0%B8%A3%E0%B8%B5%E0%B8%AA%E0%B8%AD%E0%B8%A3%E0%B9%8C%E0%B8%97-%E0%B8%AD%E0%B8%B3%E0%B9%80%E0%B8%A0%E0%B8%AD%E0%B8%A0%E0%B8%B9%E0%B9%80%E0%B8%A3%E0%B8%B7%E0%B8%AD-%E0%B8%88%E0%B8%B1%E0%B8%87%E0%B8%AB%E0%B8%A7%E0%B8%B1%E0%B8%94%E0%B9%80%E0%B8%A5%E0%B8%A2-116045396442006/
173,748969.7946,1930727.207,17.44875335,101.3441026,ดอยเลียงรีสอร์ท,Doi Leang Resort,ภูเรือ,71 หมู่ที่ 6 ,หนองบัว,ภูเรือ,08 7807 6114,https://resort-hotel-284.business.site
174,748393.909,1930534.631,17.44707785,101.3386616,บ้านสบาย สบาย รีสอร์ท,Ban Sabai Sabai,ภูเรือ,261 หมู่ที่ 6 ,หนองบัว,ภูเรือ,08 7216 4091,https://web.facebook.com/สบายสบาย-รีสอร์ท-1544886145756481/?ref=py_c&_rdc=1&_rdr
175,748953.9911,1930652.902,17.44808402,101.3439453,ภูเรือเบสต์เฮาส์,phuruaguesthouse,ภูเรือ,218 หมู่ที่ 6 ,หนองบัว,ภูเรือ,08 4514 5214,https://m.facebook.com/ภูเรือเบสต์เฮาส์-218073668257379/?__tn__=%7E-R
176,750325.4307,1931845.802,17.4587052,101.3569883,โรงแรม พรปวีณ์ รีสอร์ท,,ภูเรือ,459 หมู่ที่ 7 ,หนองบัว,ภูเรือ,09 5668 9379,https://www.facebook.com/tel.0956689379/
177,750608.746,1931677.997,17.45715806,101.3596347,โรงแรม กังสดาลรีสอร์ท,Kangsadan Resort,ภูเรือ,543 หมู่ที่ 7 ,หนองบัว,ภูเรือ,09 3539 1835,https://web.facebook.com/kangsadan.re/?_rdc=1&_rdr
178,751931.4279,1931641.535,17.4566807,101.3720765,โรงแรม บีคูล บูทีค,Be Cool Boutique Hotel,ภูเรือ,228 หมู่ที่ 2 ,หนองบัว,ภูเรือ,09 1867 1191,https://m.facebook.com/becoolboutiquephurua/
179,750628.0037,1931347.684,17.45417271,101.3597775,โรงแรม ภูผกา รีสอร์ท,Phu Phaka Resort,ภูเรือ,533 หมู่ที่ 7 ,หนองบัว,ภูเรือ,09 8169 6462,https://m.facebook.com/phupakaresort/?locale2=th_TH
180,746466.99,1930170.158,17.44399832,101.3204887,โรงแรม ภูเรือ แซงค์ฌัวรี รีสอร์ท แอนด์ สปา,Phurua Sanctuary resort and spa,ภูเรือ,216 หมู่ที่ 8 ,หนองบัว,ภูเรือ,08 7028 0516,https://th-th.facebook.com/phuruasanctuary/
181,748786.9546,1930686.814,17.4484088,101.3423775,โรงแรม ภูเรือ มันตรา รีสอร์ท,PHURUA MANTRA HOTEL,ภูเรือ,255 หมู่ที่ 6 ,หนองบัว,ภูเรือ,08 7222 2625,https://th-th.facebook.com/phuruamantra88
182,747795.0451,1930098.413,17.44320425,101.3329765,โรงแรม ภูเรือคีรี รีสอร์ท,Phuruakeeree Resort,ภูเรือ,239 หมู่ที่ 8 ,หนองบัว,ภูเรือ,09 3298 9661,https://th-th.facebook.com/PhuruaKeereeResort/
183,751089.3434,1931278.915,17.45350009,101.3641105,โรงแรม ภูเรือบูทีค,phuruaboutique,ภูเรือ,119 หมู่ที่ 7 ,หนองบัว,ภูเรือ,09 3536 2519,https://www.facebook.com/phuruaboutique/
184,752246.4986,1931669.138,17.45689461,101.3750445,โรงแรม วิลล่าเดอพันตา,Villa de panta,ภูเรือ,258 หมู่ที่ 2 ,หนองบัว,ภูเรือ,08 7571 2519,https://th-th.facebook.com/pantahotelresort
185,748156.3853,1930458.605,17.44641748,101.3364179,โรงแรม สวยจัง - เลย บูทีค,,ภูเรือ,135 หมู่ที่ 8 ถนนเลย - หล่มสัก ,หนองบัว,ภูเรือ,06 2669 5399,https://th-th.facebook.com/pages/category/Hotel-Resort/%E0%B8%AA%E0%B8%A7%E0%B8%A2%E0%B8%88%E0%B8%B1%E0%B8%87_%E0%B9%80%E0%B8%A5%E0%B8%A2-%E0%B8%9A%E0%B8%B9%E0%B8%97%E0%B8%B5%E0%B8%84-phurua-168961233311814/
186,749168.3546,1930717.317,17.44864201,101.3459698,โรงแรม เอส เจ เค บูทีค,SJK Boutigue Hotel,ภูเรือ,322 หมู่ที่ 6 ,หนองบัว,ภูเรือ,06 3456 2441,https://th-th.facebook.com/SJKBoutiqueHotel/
187,750470.0447,1931756.224,17.45788004,101.3583386,โรงแรมบ้านธงชัยรีสอร์ท,,ภูเรือ,410 หมู่ที่ 7 ถนนเลย-หล่มสัก ,หนองบัว,ภูเรือ,09 3329 6709,
188,750444.6755,1931776.882,17.45806945,101.3581023,โรงแรมภูน้ำค้างรีสอร์ท,,ภูเรือ,118 หมู่ที่ 7 ถนนเลย - หล่มสัก ,หนองบัว,ภูเรือ,08 2839 9720,https://th-th.facebook.com/ภูน้ำค้างรีสอร์ท-อำเภอภูเรือ-623162438051303/?ref=page_internal
189,750474.8523,1931881.242,17.4590086,101.3583984,โรงแรมภูเพชรฮิลล์รีสอร์ท,Phuphet Hill Resort,ภูเรือ,369 หมู่ที่ 7,หนองบัว,ภูเรือ,08 1320 2874,https://www.facebook.com/%E0%B8%A0%E0%B8%B9%E0%B9%80%E0%B8%9E%E0%B8%8A%E0%B8%A3-%E0%B8%AE%E0%B8%B4%E0%B8%A5%E0%B8%A5%E0%B9%8C-%E0%B8%A3%E0%B8%B5%E0%B8%AA%E0%B8%AD%E0%B8%A3%E0%B9%8C%E0%B8%97-%E0%B8%A0%E0%B8%B9%E0%B9%80%E0%B8%A3%E0%B8%B7%E0%B8%AD-%E0%B8%88%E0%B8%B1%E0%B8%87%E0%B8%AB%E0%B8%A7%E0%B8%B1%E0%B8%94%E0%B9%80%E0%B8%A5%E0%B8%A2-303383629697820/
190,750409.977,1931790.796,17.45819899,101.3577774,โรงแรมภูฟ้าใส,,ภูเรือ,405 หมู่ที่ 7 ,หนองบัว,ภูเรือ,08 2852 5956,https://www.facebook.com/ภูฟ้าใส-รีสอร์ท-อภูเรือ-จเลย-372575019559026/
191,750358.5979,1931272.356,17.45352245,101.3572337,โรงแรมภูเรือเนเจอร์วิวรีสอร์ท,PhuruaNatureViewResort,ภูเรือ,535 หมู่ที่ 7 ,หนองบัว,ภูเรือ,08 1948 3567,https://th-th.facebook.com/PhuruaNatureViewResort/about
192,752646.9935,1931712.58,17.45724191,101.3788181,โรงแรมภูเรือบุษบารีสอร์ท & สปา,Phurua Bussaba Resort,ภูเรือ,184 หมู่ที่ 2 ถนนเลย - หล่มสัก ,หนองบัว,ภูเรือ,08 6218 3777,https://www.facebook.com/phuruabussaba
193,750287.7271,1931854.412,17.45878716,101.3566345,โรงแรมภูเรือพันวา,phuruapanwa,ภูเรือ,426 หมู่ที่ 7 ,หนองบัว,ภูเรือ,08 5607 7559,https://th-th.facebook.com/phuruapanwa/
194,755520.4991,1931918.059,17.45877236,101.4058808,โรงแรมภูเรือเพลินจิตรีสอร์ท,,ภูเรือ,435 หมู่ที่ 4 ,หนองบัว,ภูเรือ,08 3143 1376,https://www.facebook.com/ภูเรือเพลินจิตรีสอร์ท-1678397029109020/
195,753083.6139,1931877.867,17.45868548,101.3829459,โรงแรมภูเรือรีสอร์ท,Phurua Resort,ภูเรือ,163 หมู่ที่ 2 ถนนเลย - หล่มสัก ,หนองบัว,ภูเรือ,0 4289 9048,https://www.facebook.com/phuruaresortloei/
196,751558.1497,1931232.847,17.45303155,101.3685164,โรงแรมภูเรือเรือนไม้รีสอร์ท,Phuruarounmai Resort,ภูเรือ,471 หมู่ที่ 1 ,หนองบัว,ภูเรือ,0 4289 9418,
197,750668.0949,1931346.097,17.45415391,101.3601545,โรงแรมระเบียงภูรีสอร์ท,rabiangphuresort ,ภูเรือ,483 หมู่ที่ 7 ,หนองบัว,ภูเรือ,09 9897 4782,https://www.facebook.com/rabiangphuresort/
198,747232.0743,1930308.419,17.44516298,101.3277035,โรงแรมริมเขา ,RimKao,ภูเรือ,21 หมู่ที่ 8 ,หนองบัว,ภูเรือ,08 1871 2875,https://www.facebook.com/RimKao/
199,743711.3249,1925793.664,17.40477099,101.2940653,โรงแรมรุ่งทิวารีสอร์ท,roongthiwaresortphurua,ภูเรือ,281 หมู่ที่ 10 ,ร่องจิก,ภูเรือ,08 4391 7431,https://www.facebook.com/roongthiwaresortphurua/
200,748161.0596,1930526.233,17.44702774,101.3364697,โรงแรมไร่สบันงารีสอร์ท,,ภูเรือ,43 หมู่ที่ 8 ,หนองบัว,ภูเรือ,06 4327 7788,https://www.facebook.com/Love-เลย-Coffee-สบันงา-รีสอร์ท-311014132308364/
201,751997.7992,1931712.016,17.45730979,101.3727093,โรงแรมภูเรืออินน์,Phurua inn,ภูเรือ,65/1 บ้านหนองเสือคาง ,หนองบัว,ภูเรือ,08 0803 3799 ,https://www.facebook.com/Phurua-inn-290460575072876/
202,750446.8267,1931577.335,17.45626701,101.3580994,ทองฮักเฮ้าส์ รีสอร์ท แอนด์ โฮมสเตย์,Thonghug House Resort and Homestay,ภูเรือ,417 หมู่ 7 ,หนองบัว,ภูเรือ,09 5670 5528,https://www.facebook.com/%E0%B8%97%E0%B8%AD%E0%B8%87%E0%B8%AE%E0%B8%B1%E0%B8%81%E0%B9%80%E0%B8%AE%E0%B8%B2%E0%B8%AA%E0%B9%8C-%E0%B8%A3%E0%B8%B5%E0%B8%AA%E0%B8%AD%E0%B8%A3%E0%B9%8C%E0%B8%97-%E0%B8%A0%E0%B8%B9%E0%B9%80%E0%B8%A3%E0%B8%B7%E0%B8%AD-378945798942257/
203,752410.2575,1931584.943,17.45611581,101.3765755,ชมวิว รีสอร์ท,,ภูเรือ,218 หมู่ 2,หนองบัว,ภูเรือ,08 3451 3195,https://www.facebook.com/%E0%B8%8A%E0%B8%A1%E0%B8%A7%E0%B8%B4%E0%B8%A7-%E0%B8%A3%E0%B8%B5%E0%B8%AA%E0%B8%AD%E0%B8%A3%E0%B9%8C%E0%B8%97-113511757085796/
204,750621.1531,1931912.655,17.45927598,101.3597787,ภูสำเภา วัลเล่ย์,Phu sumphao valley,ภูเรือ,555 หมู่ 7 ,หนองบัว,ภูเรือ,08 9924 9596,https://www.facebook.com/Phusumphao/
205,750107.2129,1932212.575,17.46204202,101.3549774,วรัญญารีสอร์ท,Waranya Resort,ภูเรือ,456 หมู่ 7 ,หนองบัว,ภูเรือ,09 1541 5159,https://www.facebook.com/%E0%B8%A7%E0%B8%A3%E0%B8%B1%E0%B8%8D%E0%B8%8D%E0%B8%B2%E0%B8%A3%E0%B8%B5%E0%B8%AA%E0%B8%AD%E0%B8%A3%E0%B9%8C%E0%B8%97-148691165194414/
206,762348.8021,1930327.512,17.44362091,101.4699368,พฤกษาธาราการ์เด้น,Prruksatara garden Resort & Camping,ภูเรือ,129 หมู่ 1 ,สานตม,ภูเรือ,09 5663 4289,https://www.facebook.com/phiksataragardens/
207,754097.6771,1932445.106,17.46369376,101.3925548,ไร่สนสีแสด แอท ภูเรือ,Farm & Stay by Raison See Saed,ภูเรือ,172 หมู่ 4 ,หนองบัว,ภูเรือ,08 9770 3187,https://m.facebook.com/PhuruaShitakeFarm/posts
208,750361.7945,1931809.974,17.45837757,101.3573263,สิรยา รีสอร์ท,Siraya Resort Phu Ruea,ภูเรือ,444 หมู่ 7 ,หนองบัว,ภูเรือ,08 8509 5299,https://www.facebook.com/sirayaresort/
209,757730.327,1951880.372,17.63879729,101.4290766,ภูตะวันชมดาว รีสอร์ท,,ท่าลี่,194 หมู่ที่ 9 ,หนองผือ,ท่าลี่,08 6856 1612,https://www.facebook.com/pages/category/Hotel-Resort/ภูตะวันชมดาว-รีสอร์ท-1430996220542594/
210,756044.0189,1958618.231,17.69984122,101.4140058,โรงแรม บ้านพักพอเพียง,BAN PHAK PHOPHIANG,ท่าลี่,154 หมู่ที่ 6 ,หนองผือ,ท่าลี่,09 0985 7022,https://www.facebook.com/cakeporpeang/
211,756156.8305,1951453.541,17.63512472,101.4142049,โรงแรม ฮีโร่แอนด์ฮัก ลอฟท์ โฮเทล,Hero & Hug lofe hotel,ท่าลี่,118 หมู่ที่ 7 ,ท่าลี่,ท่าลี่,06 1934 8788,https://web.facebook.com/Heroandhuglofthotel/?_rdc=1&_rdr
212,753779.3786,1957946.115,17.69403231,101.3925878,โรงแรมบ้านสวนริมธาร,,ท่าลี่,269 หมู่ที่ 4 ,อาฮี,ท่าลี่,08 1369 5713,https://web.facebook.com/บ้านสวนริมธาร-อท่าลี่-จเลย-158389970891921/?_rdc=1&_rdr
213,757987.753,1952360.944,17.64310734,101.4315595,โรงแรมเลอ บาร์ แทรี,Le Bar Tarry Hotel,ท่าลี่,234 หมู่ 9 ,หนองผือ,ท่าลี่,09 9625 8780,https://www.facebook.com/Lebartarry/
214,795154.0165,1914906.07,17.30031837,101.7764377,ริเวอร์เลยแกรนด์วิว,River Loei Grand View Hotel,วังสะพุง,279 หมู่ที่ 2 ,ศรีสงคราม,วังสะพุง,08 8059 4212,-
215,795105.9151,1915013.493,17.30129451,101.7760001,โรงแรม เดอะ โคซี่,The Cozy Hotel,วังสะพุง,157 หมู่ที่ 2 ,ศรีสงคราม,วังสะพุง,09 5654 8965,https://www.facebook.com/The-Cozy-Hotel-1952629118287526/?ref=page_internal
216,794031.3303,1914163.268,17.29375775,101.7657856,โรงแรม พลัส โฮเทล,PLUS HOTEL,วังสะพุง,199 หมู่ที่ 4 ,วังสะพุง,วังสะพุง,0 4281 0799,https://www.facebook.com/PlusHotelLoei/
217,793992.2553,1916982.37,17.3192156,101.7657991,โรงแรมคุณนาย รีสอร์ท,,วังสะพุง,404 หมู่ที่ 6,วังสะพุง,วังสะพุง,08 9991 7490,https://www.facebook.com/pages/category/Lodge/ที่พักวังสะพุง-คุณนายรีสอร์ท-330942460345014/
218,790438.552,1916813.948,17.31815359,101.7323722,โรงแรมเจนจิรารีสอร์ท...ก๋อ,,วังสะพุง,183/1 หมู่ที่ 13 ,วังสะพุง,วังสะพุง,08 8893 6471,https://www.facebook.com/เจนจิรารีสอร์ทก๋อ-280289665428163/
219,797736.7161,1915409.379,17.3045247,101.8007802,โรงแรมต้นสักเลยรีสอร์ท,Tonsak Loei Resort,วังสะพุง,657 หมู่ที่ 11 ถนนเลย - อุดรธานี ,ศรีสงคราม,วังสะพุง,09 3546 3633,https://www.facebook.com/tonsakloei/
220,796353.6502,1917673.131,17.32514429,101.7880895,วังรีสอร์ท ,Wang Resort,วังสะพุง,135 หมู่ที่ 11 ถนนเลย - อุดรธานี ,ศรีสงคราม,วังสะพุง,0 42842 2702,https://www.facebook.com/wangresort/
221,797103.531,1915065.668,17.30150461,101.7947822,โรงแรมสกุลปลั่งรีสอร์ท,Sakolplung Resort,วังสะพุง,236 หมู่ที่ 11 ถนนเลย - อุดร ,ศรีสงคราม,วังสะพุง,09 9071 9937,https://www.facebook.com/sakolplungresort/
222,796022.396,1915436.585,17.30499491,101.7846714,โรงแรมสมายด์รีสอร์ท,Smile Resort,วังสะพุง,769 หมู่ที่ 11 ,ศรีสงคราม,วังสะพุง,08 1964 6287,https://www.facebook.com/smileresort.wangsaphung/?ref=page_internal
223,796480.2858,1915268.685,17.30341916,101.7889522,ศรีทองรีสอร์ท,Srithong Resort,วังสะพุง,628 หมู่ที่ 11 ,ศรีสงคราม,วังสะพุง,09 5498 7197,https://www.facebook.com/%E0%B8%A8%E0%B8%A3%E0%B8%B5%E0%B8%97%E0%B8%AD%E0%B8%87%E0%B8%A3%E0%B8%B5%E0%B8%AA%E0%B8%AD%E0%B8%A3%E0%B9%8C%E0%B8%97-870635279754867/
224,793902.9604,1915796.87,17.30852369,101.7647996,พัชลีพร รีสอร์ต,Patchareeporn Resort,วังสะพุง,458 หมู่ที่ 10 ,วังสะพุง,วังสะพุง,08 7222 3751,https://www.facebook.com/pages/category/Bed-and-Breakfast/พัชลีพรรีสอร์ท-อวังสะพุง-398346727180114/
225,796541.5267,1915815.511,17.30834817,101.7896023,สวนลำไยรีสอร์ท,Suanlamyai Resort,วังสะพุง,30 หมู่ที่ 11 ,ศรีสงคราม,วังสะพุง,08 1837 5458,https://web.facebook.com/SuanLamyaiResort?_rdc=1&_rdr
226,793886.4281,1914096.571,17.29317434,101.7644147,บุญนำ เดอะ วิลล่า,BOONNUM THE VILLA,วังสะพุง,251 หมู่ที่ 3 ถนนภูมิวิถี ,วังสะพุง,วังสะพุง,08 1749 7703,https://www.facebook.com/boonnumthevilla/
227,794345.6441,1914580.309,17.2974823,101.768796,ริมเลย โฮมสเตย์,,วังสะพุง,426,ศรีสงคราม,วังสะพุง,08 1234 9859,https://www.facebook.com/%E0%B8%A3%E0%B8%B4%E0%B8%A1%E0%B9%80%E0%B8%A5%E0%B8%A2-%E0%B9%82%E0%B8%AE%E0%B8%A1%E0%B8%AA%E0%B9%80%E0%B8%95%E0%B8%A2%E0%B9%8C-%E0%B8%A7%E0%B8%B1%E0%B8%87%E0%B8%AA%E0%B8%B0%E0%B8%9E%E0%B8%B8%E0%B8%87-%E0%B8%88%E0%B9%80%E0%B8%A5%E0%B8%A2-112389922912277/?ref=page_internal
228,795097.7951,1915424.838,17.30500944,101.7759796,โรงแรมแรร์ เลย,Rare Loei Hotel,วังสะพุง,124 ถนนศรีสงคราม ,ศรีสงคราม,วังสะพุง,09 5853 0557,https://www.facebook.com/Rare-Loei-Hotel-%E0%B9%82%E0%B8%A3%E0%B8%87%E0%B9%81%E0%B8%A3%E0%B8%A1-%E0%B9%81%E0%B8%A3%E0%B8%A3%E0%B9%8C-%E0%B9%80%E0%B8%A5%E0%B8%A2-103563871370064/
229,795261.1717,1914326.871,17.29507505,101.7773663,โรงแรมวราภรณ์แกรนด์เม้าเท้น,Waraporn Grand Mountain Hotel,วังสะพุง,323,ศรีสงคราม,วังสะพุง,09 8178 8396 ,https://www.facebook.com/WPGMhotel/
230,806288.4588,1868831.282,16.88287798,101.8746915,คุ้มบงแก้ว รีสอร์ท,,ภูกระดึง,333 หมู่ที่ 11 ,ภูกระดึง ,ภูกระดึง ,08 5928 4897,https://www.facebook.com/%E0%B8%84%E0%B8%B8%E0%B9%89%E0%B8%A1%E0%B8%9A%E0%B8%87%E0%B9%81%E0%B8%81%E0%B9%89%E0%B8%A7-%E0%B8%A3%E0%B8%B5%E0%B8%AA%E0%B8%AD%E0%B8%A3%E0%B9%8C%E0%B8%97-108553659635465/
231,811392.8509,1877359.461,16.95919097,101.9237429,โรงแรมเดอะครีก วิลล่า,The Creek Villa,ภูกระดึง,434 หมู่ที่ 2 ,ห้วยส้ม,ภูกระดึง ,09 4405 8787,https://www.facebook.com/thecreekvilla/
232,809065.1946,1869295.822,16.88670461,101.9007927,โรงแรมบ้านทิพย์สุวรรณ,Ban Tipsuwan Resort,ภูกระดึง,91 หมู่ที่ 13 ,ผานกเค้า,ภูกระดึง ,08 6850 1109,https://www.facebook.com/pages/category/Hotel-Resort/ที่พักภูกระดึง-บ้านทิพย์สุวรรณ-รีสอร์ท-phukradung-hotel-527052774013262/
233,808063.0974,1869849.27,16.89183413,101.8914722,บ้านศรีสุนนท์ โฮมสเตย์,Baan Srisunon Homestay,ภูกระดึง,44 หมู่ที่ 8 ,ห้วยส้ม,ภูกระดึง ,08 2116 2334,https://www.facebook.com/BaanSrisunonHomeStay/
234,813032.4898,1864743.89,16.84508048,101.9373578,โรงแรมผานกเค้า เดอ เลย,Phanokkhao De Loei,ภูกระดึง,333 หมู่ที่ 4 ,ผานกเค้า,ภูกระดึง ,09 0850 2434,https://www.facebook.com/p.deloei/
235,807710.4247,1869995.633,16.89320221,101.8881852,โรงแรมภูน้ำฟ้า รีสอร์ท,Phunamfa Resort,ภูกระดึง,185 หมู่ที่ 3 ,ภูกระดึง ,ภูกระดึง ,08 1799 7379,https://www.facebook.com/phunumfha/
236,810007.809,1866889.409,16.8648542,101.9092986,สวนน้ำภูกระดึง รีสอร์ท แอนด์ โฮเทล,Suannamphukradueng & Resort,ภูกระดึง,151/1 หมู่ 2 ,ภูกระดึง ,ภูกระดึง ,09 7131 7988,https://www.facebook.com/%E0%B8%AA%E0%B8%A7%E0%B8%99%E0%B8%99%E0%B9%89%E0%B8%B3%E0%B8%A0%E0%B8%B9%E0%B8%81%E0%B8%A3%E0%B8%B0%E0%B8%94%E0%B8%B6%E0%B8%87-Phukradueng-waterpark-and-Resort-291725597962171/
237,809452.311,1869689.808,16.89021003,101.9044772,ฮักก๋อ รีสอร์ท,Hugkor Resort,ภูกระดึง,306 หมู่ที่ 8 ,ภูกระดึง ,ภูกระดึง ,08 8562 2223,https://www.facebook.com/HugkorResort/
238,808499.0375,1869340.134,16.88717983,101.89549,พลเทวา เพลส,Polthawa Place,ภูกระดึง,42 หมู่ 3 ,ผานกเค้า,ภูกระดึง ,08 7856 6250,https://www.facebook.com/Polthawaplace/
239,807517.5884,1868285.284,16.87778649,101.8861421,อวบอิ๋มรีสอร์ท,OuabIm Resort,ภูกระดึง,310 หมู่ที่ 8 ,ภูกระดึง ,ภูกระดึง ,09 5146 0145,https://www.facebook.com/OuabImResort/
240,783147.605,1898272.701,17.15165846,101.661435,โรงแรมหญิงฤดี รีสอร์ท,Yingruedi Resort,ภูหลวง,198 หมู่ 11 ,ภูหอ,ภูหลวง,08 2564 5694,https://www.facebook.com/%E0%B9%82%E0%B8%A3%E0%B8%87%E0%B9%81%E0%B8%A3%E0%B8%A1%E0%B8%AB%E0%B8%8D%E0%B8%B4%E0%B8%87%E0%B8%A4%E0%B8%94%E0%B8%B5-%E0%B8%A3%E0%B8%B5%E0%B8%AA%E0%B8%AD%E0%B8%A3%E0%B9%8C%E0%B8%97-1832079946896681/
241,803318.9571,1895388.631,17.12303512,101.8504722,ปังค์รีสอร์ท,Pung Resort,หนองหิน,259 หมู่ที่ 2 ,หนองหิน,หนองหิน,08 1260 7367,https://m.facebook.com/pangpangresort/?locale2=th_TH
242,803268.0355,1895298.779,17.12223066,101.8499817,พนิดากู๊ดวิวล์ รีสอร์ท,Panida Goodwill,หนองหิน,368 หมู่ที่ 5 ,หนองหิน,หนองหิน,08 3328 8474,https://www.facebook.com/pages/category/Hotel-Resort/Panida-Goodwill-พนิดากู๊ดวิลล์-393733590787056/
243,791848.5192,1887836.91,17.05633973,101.7417713,ม่านเมฆ ทะเลหมอก รีสอร์ท,Maan Mek Talay Mok Resort,หนองหิน,132 หมู่ที่ 10 ,ปวนพุ,หนองหิน,08 9992 0300,https://www.facebook.com/maanmektalaymok
244,803259.0013,1895377.624,17.12294368,101.8499078,โรงแรมสมายบ๊อกซ์,Smile Box Coffee&resort,หนองหิน,131 หมู่ที่ 2 ,หนองหิน,หนองหิน,06 2859 6941,https://m.facebook.com/smilebox2016/?locale2=th_TH
245,804796.5878,1890352.385,17.07737132,101.8636503,คุ้มเลยวิลล์ รีสอร์ท,Khoom Loei Vill Resort,หนองหิน,284 หมู่ 10 ถนนมะลิวัลย์ ,หนองหิน,หนองหิน,09 4289 7456,https://www.facebook.com/khoomloeivill/