ที่,name,ประเภทร้านอาหาร 1,ประเภทร้านอาหาร 2,ประเภทร้านอาหาร 3,สินค้า บริการ,เปิด-ปิด,phone,โทรศัพท์ 2,โทรศัพท์ 3,website,FB,latitude,longtitude,UTM_X,UTM_Y,subDistrict,district
1,คำปลิว Coffee&หมูกะทะ,ร้านคาเฟ่,ร้านหมูกระทะ,,บุฟเฟ่ หมูกะทะ,ทุกวัน 16:30 - 22:00 น.,09 5648 1731, 09 5178 7493,0 4285 4087,https://www.wongnai.com/restaurants/355093ct-%E0%B8%84%E0%B8%B3%E0%B8%9B%E0%B8%A5%E0%B8%B4%E0%B8%A7-%E0%B8%9A%E0%B8%B8%E0%B8%9F%E0%B9%80%E0%B8%9F%E0%B9%88%E0%B8%95%E0%B9%8C,https://www.facebook.com/cumpiw,17.708529,101.7113,787581.2446,1960009.599,นาแขม,เมืองเลย
2,ก๋วยเตี๋ยวหมูหมักนายฮั่ง,ร้านก๋วยเตี๋ยว,,,ก๋วยเตี๋ยวหมูหมัก,ทุกวัน 07:00 - 16:00 น.,0 4281 1544,09 5192 4891,,https://www.wongnai.com/restaurants/477669Qn-%E0%B8%81%E0%B9%8B%E0%B8%A7%E0%B8%A2%E0%B9%80%E0%B8%95%E0%B8%B5%E0%B9%8B%E0%B8%A2%E0%B8%A7%E0%B8%99%E0%B8%B2%E0%B8%A2%E0%B8%AE%E0%B8%B1%E0%B9%88%E0%B8%87-%E0%B9%80%E0%B8%A5%E0%B8%A2,https://www.facebook.com/pages/ก๋วยเตี๋ยวหมูนายฮั่งLoei/154850781283132,17.488534,101.72619,789512.2926,1935671.35,กุดป่อง,เมืองเลย
3,สเต็กบางกอก,ร้านอาหารตามสั่ง,,,อาหารฝรั่ง กาแฟ,ทุกวัน 16:30 - 21:30 น. หยุดวันอาทิตย์,08 1830 5792,,,https://www.wongnai.com/restaurants/143497dp-steak-bangkok-%E0%B9%80%E0%B8%A5%E0%B8%A2,https://m.facebook.com/people/%E0%B8%AA%E0%B9%80%E0%B8%95%E0%B9%87%E0%B8%81%E0%B8%9A%E0%B8%B2%E0%B8%87%E0%B8%81%E0%B8%AD%E0%B8%81Loei/100042391846093/,17.4866655,101.7305231,789975.706,1935471.038,กุดป่อง,เมืองเลย
4,กาแฟรสเลิศ (โจ๊ก+อาหารเช้า),ร้านอาหารตามสั่ง,ร้านกาแฟ/ชา,,อาหารเช้า กาแฟ,ทุกวัน 05:00 - 20:00 น.,0 4281 1123,0 4281 5470,,https://www.wongnai.com/restaurants/159333jE-%E0%B8%A3%E0%B8%AA%E0%B9%80%E0%B8%A5%E0%B8%B4%E0%B8%A8,,17.489921,101.731836,790110.0511,1935833.533,กุดป่อง,เมืองเลย
5,ร้านอาหารเลย-ดานัง,ร้านอาหารเวียดนาม,,,อาหารเวียดนาม,ทุกวัน 10:00 - 17:00 น.,0 4283 0413,08 6218 3293,,https://www.wongnai.com/restaurants/93675IK-%E0%B9%80%E0%B8%A5%E0%B8%A2%E0%B8%94%E0%B8%B2%E0%B8%99%E0%B8%B1%E0%B8%87-1-%E0%B8%AA%E0%B8%B2%E0%B8%82%E0%B8%B2%E0%B9%83%E0%B8%99%E0%B9%80%E0%B8%A1%E0%B8%B7%E0%B8%AD%E0%B8%87,https://www.facebook.com/loeidanang1/,17.489007,101.729726,789887.2878,1935729.108,กุดป่อง,เมืองเลย
6,กาแฟนัว,ร้านกาแฟ/ชา,เบเกอรี/เค้ก,,กาแฟ เบเกอรี่,ทุกวัน 09:00 - 18:00 น.,0 4281 0387,,,https://www.wongnai.com/restaurants/121930ZO-กาแฟนัว-เลย,https://www.facebook.com/coffeenualoei/,17.490082,101.704973,787255.297,1935810.627,เมือง,เมืองเลย
7,Saloon Loei,ร้านอาหาร,,,สเต็ก อาหาร ,ทุกวัน 12.00 - 24.00 น.,09 5661 9157,08 3352 8000,,,https://www.facebook.com/SaloonLoei/,17.4885685,101.7262609,789519.7741,1935675.278,กุดป่อง,เมืองเลย
8,ร้านอาหารล้านช้าง,ร้านอาหารตามสั่ง,,,"อาหาร, เครื่องดื่ม",ทุกวัน 12:00 - 22:30 น.,08 5465 1234,,,https://www.wongnai.com/restaurants/93466Pl-%E0%B8%A5%E0%B9%89%E0%B8%B2%E0%B8%99%E0%B8%8A%E0%B9%89%E0%B8%B2%E0%B8%87,https://www.facebook.com/%E0%B8%A3%E0%B9%89%E0%B8%B2%E0%B8%99%E0%B8%AD%E0%B8%B2%E0%B8%AB%E0%B8%B2%E0%B8%A3%E0%B8%A5%E0%B9%89%E0%B8%B2%E0%B8%99%E0%B8%8A%E0%B9%89%E0%B8%B2%E0%B8%87-1766477250310293/,17.491950,101.696888,786393.2559,1936005.293,เมือง,เมืองเลย
9,ข้าวเปียกลานชัย,ร้านอาหารเวียดนาม,,,ข้าวเปียก ของฝาก,ทุกวัน 06:00 - 18:00 น. หยุดวันอังคาร,09 3426 4665,,,https://www.wongnai.com/restaurants/153079Jq-%E0%B8%82%E0%B9%89%E0%B8%B2%E0%B8%A7%E0%B9%80%E0%B8%9B%E0%B8%B5%E0%B8%A2%E0%B8%81%E0%B8%A5%E0%B8%B2%E0%B8%99%E0%B8%8A%E0%B8%B1%E0%B8%A2,https://www.facebook.com/passpod,17.488243,101.72619,789512.7537,1935639.127,กุดป่อง,เมืองเลย
10,Coffee de Loei,ร้านกาแฟ/ชา,,,กาแฟ เบเกอรี่,ทุกวัน 09:00 - 19:00 น.,08 2928 0663,,,https://www.wongnai.com/restaurants/642930gc-coffee-de-loei-%E0%B9%80%E0%B8%A5%E0%B8%A2,https://www.facebook.com/Coffee-de-Loei-352599431486424/,17.489618,101.722354,789102.9537,1935785.556,กุดป่อง,เมืองเลย
11,ครัวบุญทิพย์,ร้านอาหารอีสาน,,,อาหารอีสาน,ทุกวัน 10:00 - 21:00 น.,09 3554 2020,,,https://www.wongnai.com/restaurants/157797tW-%E0%B8%84%E0%B8%A3%E0%B8%B1%E0%B8%A7%E0%B8%9A%E0%B8%B8%E0%B8%8D%E0%B8%97%E0%B8%B4%E0%B8%9E%E0%B8%A2%E0%B9%8C,https://www.facebook.com/%E0%B8%A3%E0%B9%89%E0%B8%B2%E0%B8%99%E0%B8%AD%E0%B8%B2%E0%B8%AB%E0%B8%B2%E0%B8%A3-%E0%B8%84%E0%B8%A3%E0%B8%B1%E0%B8%A7%E0%B8%9A%E0%B8%B8%E0%B8%8D%E0%B8%97%E0%B8%B4%E0%B8%9E%E0%B8%A2%E0%B9%8C-594860810592003/,17.498453,101.725772,789452.1554,1936769.083,กุดป่อง,เมืองเลย
12,เจ๊ตุ้ม ส้มตำบ้านนาอ้อ,ร้านอาหารตามสั่ง,,,อาหารตามสั่ง,ทุกวัน 08:30 - 17:00 น.,04 283 4896,,,https://www.wongnai.com/restaurants/152239LI-%E0%B9%80%E0%B8%88%E0%B9%8A%E0%B8%95%E0%B8%B8%E0%B9%89%E0%B8%A1-%E0%B8%AA%E0%B9%89%E0%B8%A1%E0%B8%95%E0%B8%B3-%E0%B8%9A%E0%B9%89%E0%B8%B2%E0%B8%99%E0%B8%99%E0%B8%B2%E0%B8%AD%E0%B9%89%E0%B8%AD,,17.583065,101.73061,789831.5464,1946145.917,นาอ้อ,เมืองเลย
13,ข้าวต้มแรงงาน,ร้านอาหารตามสั่ง,,,อาหารตามสั่ง,ทุกวัน 14:00 - 22:00 น.,0 4203 3050,,,https://www.wongnai.com/restaurants/264318pF-%E0%B8%A3%E0%B9%89%E0%B8%B2%E0%B8%99%E0%B8%82%E0%B9%89%E0%B8%B2%E0%B8%A7%E0%B8%95%E0%B9%89%E0%B8%A1%E0%B9%81%E0%B8%A3%E0%B8%87%E0%B8%87%E0%B8%B2%E0%B8%99-%E0%B9%80%E0%B8%A5%E0%B8%A2,https://www.facebook.com/people/%E0%B8%A3%E0%B9%89%E0%B8%B2%E0%B8%99%E0%B8%82%E0%B9%89%E0%B8%B2%E0%B8%A7%E0%B8%95%E0%B9%89%E0%B8%A1%E0%B9%81%E0%B8%A3%E0%B8%87%E0%B8%87%E0%B8%B2%E0%B8%99/100057629041712/,17.486109,101.727925,789700.5035,1935405.46,กุดป่อง,เมืองเลย
14,พับเพียบ ส้มตำ,ร้านอาหารอีสาน,,,อาหารตามสั่ง,ทุกวัน 07:00 - 16:00 น. ,08 7232 2774,,,https://www.wongnai.com/restaurants/93594rP-%E0%B8%9E%E0%B8%B1%E0%B8%9A%E0%B9%80%E0%B8%9E%E0%B8%B5%E0%B8%A2%E0%B8%9A%E0%B8%AA%E0%B9%89%E0%B8%A1%E0%B8%95%E0%B8%B3,https://web.facebook.com/pages/%E0%B8%A3%E0%B9%89%E0%B8%B2%E0%B8%99%E0%B8%AA%E0%B9%89%E0%B8%A1%E0%B8%95%E0%B8%B3%E0%B8%9E%E0%B8%B1%E0%B8%9A%E0%B9%80%E0%B8%9E%E0%B8%B5%E0%B8%A2%E0%B8%9A-%E0%B9%80%E0%B8%A1%E0%B8%B7%E0%B8%AD%E0%B8%87%E0%B9%80%E0%B8%A5%E0%B8%A2/205389122874550?_rdc=1&_rdr,17.487069,101.724364,789320.5766,1935506.35,กุดป่อง,เมืองเลย
15,หน่อยตำซั่ว อาหารอีสาน,ร้านอาหารอีสาน,,,อาหารอีสาน,ทุกวัน 09:00 - 20:00 น.,08 1471 5904,08 0768 5259,,https://www.wongnai.com/restaurants/160299Sh-หน่อยตำซั่ว,,17.487711,101.727849,789689.8876,1935582.74,กุดป่อง,เมืองเลย
16,มะกัน,ร้านอาหารตามสั่ง,,,อาหารเช้า กาแฟ,ทุกวัน 06:00 - 11:00 น. หยุดวันจันทร์,0 4281 1379,,,https://www.wongnai.com/restaurants/17584Gq-มะกัน,,17.489119,101.729679,789882.1158,1935741.438,กุดป่อง,เมืองเลย
17,พิกุลลาบก้อย,ร้านอาหารอีสาน,,,อาหารตามสั่ง,ทุกวัน 08:00 - 21:00 น.,0 4283 0227,,,https://www.wongnai.com/restaurants/93543uo-%E0%B8%9E%E0%B8%B4%E0%B8%81%E0%B8%B8%E0%B8%A5%E0%B8%A5%E0%B8%B2%E0%B8%9A%E0%B8%81%E0%B9%89%E0%B8%AD%E0%B8%A2,https://web.facebook.com/pages/category/Thai-Restaurant/%E0%B8%A3%E0%B9%89%E0%B8%B2%E0%B8%99%E0%B8%9E%E0%B8%B4%E0%B8%81%E0%B8%B8%E0%B8%A5%E0%B8%A5%E0%B8%B2%E0%B8%9A%E0%B8%81%E0%B9%89%E0%B8%AD%E0%B8%A2-1646440718782645/?_rdc=1&_rdr,17.489516,101.729433,789855.3453,1935785.025,กุดป่อง,เมืองเลย
18,ครัวมะเดื่อ,ร้านอาหารตามสั่ง,,,อาหารตามสั่ง,ทุกวัน 17:00 - 24:00 น.,0 4286 1114,,,https://www.wongnai.com/restaurants/7074tN-%E0%B8%84%E0%B8%A3%E0%B8%B1%E0%B8%A7%E0%B8%A1%E0%B8%B0%E0%B9%80%E0%B8%94%E0%B8%B7%E0%B9%88%E0%B8%AD,https://www.facebook.com/KhrowMadua/,17.495823,101.718371,788669.9068,1936466.612,เมือง,เมืองเลย
19,รสเลิศ,ร้านอาหารตามสั่ง,,,อาหารเช้า กาแฟ,ทุกวัน 05:00 - 20:00 น.,0 4281 1123,0 4281 5470,,https://www.wongnai.com/restaurants/159333jE-รสเลิศ,,17.489973,101.732156,790143.9725,1935839.779,กุดป่อง,เมืองเลย
20,แพเพื่อนพ้อง,ร้านอาหารตามสั่ง,,,อาหารตามสั่ง,ทุกวัน 09:00 - 18:00 น.,08 9964 3938,,,https://www.wongnai.com/restaurants/174563Gc-แพเพื่อนพ้อง,https://web.facebook.com/paepuenpong.loei/?_rdc=1&_rdr,17.503476,101.603164,776417.1328,1937142.961,กกทอง,เมืองเลย
21,Driptionary,ร้านคาเฟ่,ร้านกาแฟ/ชา,,กาแฟ ชา,ทุกวัน 07:30 - 17:00 น.,0 4203 9647,,,https://www.wongnai.com/restaurants/366810nc-driptionary,https://web.facebook.com/driptionary/?_rdc=1&_rdr,17.44696,101.728544,789828.2936,1931071.287,นาอาน,เมืองเลย
22,Crystal Box Coffee & Wine Zone,ร้านคาเฟ่,เบเกอรี/เค้ก,,เครื่องดื่ม เบเกอรี่,ทุกวัน 08:00 - 18:00 น.,09 5665 9298,,,https://www.wongnai.com/restaurants/203159PA-crystal-box-coffee-wine-zone,https://web.facebook.com/crystalboxhotel/?rf=1574426432786785&_rdc=1&_rdr,17.501526,101.711591,787940.486,1937087.85,เมือง,เมืองเลย
23,Tiny Tea Café,ร้านคาเฟ่,,,เครื่องดื่ม เบเกอรี่,ทุกวัน 09:00 - 17:00 น. หยุดวันจันทร์,06 5591 6269,,,https://www.wongnai.com/restaurants/413632KG-tiny-tea-cafe,https://web.facebook.com/pages/category/Coffee-Shop/Tiny-Tea-Cafe-386112088662824/?_rdc=1&_rdr,17.499681,101.72409,789271.4858,1936902.506,กุดป่อง,เมืองเลย
24,ตะโขน เมืองเลย,ร้านคาเฟ่,ร้านอาหารอีสาน,,อาหาร เครื่องดื่ม ขนมหวาน,ทุกวัน 09:30 - 19:00 น.,09 1051 8338,,,https://www.wongnai.com/restaurants/379777Og-%E0%B8%95%E0%B8%B0%E0%B9%82%E0%B8%82%E0%B8%99-%E0%B9%80%E0%B8%A1%E0%B8%B7%E0%B8%AD%E0%B8%87%E0%B9%80%E0%B8%A5%E0%B8%A2-%E0%B9%80%E0%B8%A1%E0%B8%B7%E0%B8%AD%E0%B8%87%E0%B9%80%E0%B8%A5%E0%B8%A2,https://web.facebook.com/takhonloei/?_rdc=1&_rdr,17.472733,101.730829,790030.3162,1933928.702,นาอาน,เมืองเลย
25,Memories Coffee,ร้านคาเฟ่,ร้านกาแฟ ชา,,อาหาร เครื่องดื่ม ขนมหวาน,ทุกวัน 10:00 - 19:00 น.,06 1525 4598,,,https://www.wongnai.com/restaurants/487511Wh-memories-coffee,https://web.facebook.com/pages/category/Cafe/Memories-coffee-101006711423444/?_rdc=1&_rdr,17.500152,101.74063,791028.2218,1936979.884,ชัยพฤกษ์,เมืองเลย
26,Up to you,ร้านคาเฟ่,อาหารตามสั่ง,,อาหาร เครื่องดื่ม,ทุกวัน 10:00 - 20:30 น.,08 8562 1162,,,https://www.wongnai.com/restaurants/810413yN-up-to-you-loei,https://web.facebook.com/uptoyouloeii/?_rdc=1&_rdr,17.475709,101.728832,789813.3739,1934255.208,กุดป่อง,เมืองเลย
27,Otop Loei The Best,ร้านคาเฟ่,ร้านกาแฟ,,เครื่องดื่ม,ทุกวัน 08:00 - 17:00 น. หยุดวันอาทิตย์,0 4203 3426,,,https://www.wongnai.com/restaurants/299637KT-otop-loei-the-best,https://web.facebook.com/OtopLoeiTheBest/?_rdc=1&_rdr,17.48732,101.732277,790161.0436,1935546.185,กุดป่อง,เมืองเลย
28,ธารธรรม ฟาร์มเมด,ร้านคาเฟ่,,,เครื่องดื่ม อาหาร สลัด พิซซ่า กิจกรรมทำพิซซ่า,จันทร์ และ พฤหัสบดี - อาทิตย์ 10:00 - 19:00 น.,08 1408 2004,09 5586 2256,,https://www.wongnai.com/restaurants/456936QR-%E0%B8%98%E0%B8%B2%E0%B8%A3%E0%B8%98%E0%B8%A3%E0%B8%A3%E0%B8%A1-%E0%B8%9F%E0%B8%B2%E0%B8%A3%E0%B9%8C%E0%B8%A1%E0%B9%80%E0%B8%A1%E0%B8%94-by-%E0%B9%84%E0%B8%A3%E0%B9%88%E0%B8%98%E0%B8%B2%E0%B8%A3%E0%B8%98%E0%B8%A3%E0%B8%A3%E0%B8%A1-1,https://web.facebook.com/thanthamfarm/?_rdc=1&_rdr,17.640695,101.743782,791137.9836,1952547.845,ศรีสองรัก,เมืองเลย
29,Doodduem Homemade (ดูดดื่ม โฮมเมด),ร้านคาเฟ่,ร้านกาแฟ ชา,เบเกอรี เค้ก,เครื่องดื่ม เบเกอรี่,ทุกวัน 10:00 - 17:00 น.,06 3145 9295,,,https://www.wongnai.com/restaurants/463283cI-doodduem-homemade,https://web.facebook.com/Doodduem65/?_rdc=1&_rdr,17.49679,101.722339,789090.0083,1936579.714,น้ำหมาน,เมืองเลย
30,whanwhan cake & coffee,ร้านคาเฟ่,,,เครื่องดื่ม เบเกอรี่,ทุกวัน 08:00 - 18:00 น.,08 8561 5949,08 0755 5560,,https://www.wongnai.com/restaurants/483119Rh-whanwhan-cake-coffee,https://web.facebook.com/pages/category/Coffee-Shop/whan-whan-cake-coffee-2119906914686823/?_rdc=1&_rdr,17.590153,101.723758,789092.5295,1946920.33,นาอ้อ,เมืองเลย
31,ก๋วยเตี๋ยวฟาดปาก,ร้านก๋วยเตี๋ยว,,,ก๋วยเตี๋ยว,จันทร์ - ศุกร์ 09:00 - 14:30 น.,08 5742 2155,,,https://www.wongnai.com/restaurants/195043aA-%E0%B8%81%E0%B9%8B%E0%B8%A7%E0%B8%A2%E0%B9%80%E0%B8%95%E0%B8%B5%E0%B9%8B%E0%B8%A2%E0%B8%A7%E0%B8%9F%E0%B8%B2%E0%B8%94%E0%B8%9B%E0%B8%B2%E0%B8%81,https://web.facebook.com/pages/category/Deli/%E0%B8%81%E0%B9%8B%E0%B8%A7%E0%B8%A2%E0%B9%80%E0%B8%95%E0%B8%B5%E0%B9%8B%E0%B8%A2%E0%B8%A7%E0%B8%AB%E0%B8%A1%E0%B8%B9%E0%B8%95%E0%B9%89%E0%B8%A1%E0%B8%A2%E0%B8%B3-%E0%B8%9F%E0%B8%B2%E0%B8%94%E0%B8%9B%E0%B8%B2%E0%B8%81-728964937180002/?_rdc=1&_rdr,17.492246,101.727619,789658.2566,1936084.568,กุดป่อง,เมืองเลย
32,เย็นตาโฟรสเด็ด โรงหนังอัมรินทร์,ร้านก๋วยเตี๋ยว,,,ก๋วยเตี๋ยว,ทุกวัน 16:00 - 24:00 น.,08 6218 1192,,,https://www.wongnai.com/restaurants/134368sO-%E0%B9%80%E0%B8%A2%E0%B9%87%E0%B8%99%E0%B8%95%E0%B8%B2%E0%B9%82%E0%B8%9F%E0%B8%A3%E0%B8%AA%E0%B9%80%E0%B8%94%E0%B9%87%E0%B8%94-%E0%B9%82%E0%B8%A3%E0%B8%87%E0%B8%AB%E0%B8%99%E0%B8%B1%E0%B8%87%E0%B8%AD%E0%B8%B1%E0%B8%A1%E0%B8%A3%E0%B8%B4%E0%B8%99%E0%B8%97%E0%B8%A3%E0%B9%8C,https://web.facebook.com/pages/category/Fast-Food-Restaurant/%E0%B9%80%E0%B8%A2%E0%B9%87%E0%B8%99%E0%B8%95%E0%B8%B2%E0%B9%82%E0%B8%9F%E0%B8%A3%E0%B8%AA%E0%B9%80%E0%B8%94%E0%B9%87%E0%B8%94%E0%B8%AB%E0%B8%99%E0%B9%89%E0%B8%B2%E0%B9%82%E0%B8%A3%E0%B8%87%E0%B8%AB%E0%B8%99%E0%B8%B1%E0%B8%87%E0%B8%AD%E0%B8%A1%E0%B8%A3%E0%B8%B4%E0%B8%99%E0%B8%97%E0%B8%A3%E0%B9%8C%E0%B8%AD%E0%B8%A1%E0%B8%A3%E0%B8%B4%E0%B8%99%E0%B8%97%E0%B8%A3%E0%B9%8C-290758404760193/?_rdc=1&_rdr,17.488958,101.728892,789798.7424,1935722.412,กุดป่อง,เมืองเลย
33,บังฮิตก๋วยเตี๋ยวไก่มะระ,ร้านก๋วยเตี๋ยว,,,ก๋วยเตี๋ยว,ทุกวัน 12:00 - 02:00 น.,09 2895 0786,08 0172 6047,,https://www.wongnai.com/restaurants/201596ST-%E0%B8%9A%E0%B8%B1%E0%B8%87%E0%B8%AE%E0%B8%B4%E0%B8%95%E0%B8%81%E0%B9%8B%E0%B8%A7%E0%B8%A2%E0%B9%80%E0%B8%95%E0%B8%B5%E0%B9%8B%E0%B8%A2%E0%B8%A7%E0%B9%84%E0%B8%81%E0%B9%88%E0%B8%A1%E0%B8%B0%E0%B8%A3%E0%B8%B0-%E0%B9%80%E0%B8%A5%E0%B8%A2,https://web.facebook.com/%E0%B8%9A%E0%B8%B1%E0%B8%87%E0%B8%AE%E0%B8%B4%E0%B8%95-%E0%B8%81%E0%B9%8B%E0%B8%A7%E0%B8%A2%E0%B9%80%E0%B8%95%E0%B8%B5%E0%B9%8B%E0%B8%A2%E0%B8%A7%E0%B9%84%E0%B8%81%E0%B9%88%E0%B8%A1%E0%B8%B0%E0%B8%A3%E0%B8%B0-%E0%B8%81%E0%B9%8B%E0%B8%A7%E0%B8%A2%E0%B9%80%E0%B8%95%E0%B8%B5%E0%B9%8B%E0%B8%A2%E0%B8%A7%E0%B8%95%E0%B9%89%E0%B8%A1%E0%B8%A2%E0%B8%B3-465684400926103/?_rdc=1&_rdr,17.488995,101.728792,789788.0575,1935726.357,กุดป่อง,เมืองเลย
34,โรงแรมเลยพาเลซ,ร้านอาหารนานาชาติ,,,อาหาร เครื่องดื่ม,ทุกวัน 12:00 - 21:00 น.,0 4281 5668,,,https://www.wongnai.com/restaurants/38435Vr-%E0%B9%82%E0%B8%A3%E0%B8%87%E0%B9%81%E0%B8%A3%E0%B8%A1%E0%B9%80%E0%B8%A5%E0%B8%A2%E0%B8%9E%E0%B8%B2%E0%B9%80%E0%B8%A5%E0%B8%8B,https://web.facebook.com/loeipalacehotel/?_rdc=1&_rdr,17.48443,101.734609,790413.4443,1935229.718,กุดป่อง,เมืองเลย
35,ส้มตำกะยำแซ่บ,ร้านอาหารอีสาน,,,อาหาร,ทุกวัน 11:00 - 21:00 น.,08 6855 3990,,,https://www.wongnai.com/restaurants/143468wW-%E0%B8%AA%E0%B9%89%E0%B8%A1%E0%B8%95%E0%B8%B3%E0%B8%81%E0%B8%B0%E0%B8%A2%E0%B8%B3%E0%B9%81%E0%B8%8B%E0%B9%88%E0%B8%9A-%E0%B8%95%E0%B8%A5%E0%B8%B2%E0%B8%94%E0%B9%84%E0%B8%97%E0%B9%80%E0%B8%A5%E0%B8%A2,https://web.facebook.com/SmtaKaYaSaeB/?_rdc=1&_rdr,17.490595,101.723354,789207.669,1935895.262,กุดป่อง,เมืองเลย
36,Baboo Café,ร้านอาหารอีสาน,ร้านกาแฟ ชา,,อาหาร เครื่องดื่ม เบเกอรี่,ทุกวัน 07:30 - 16:30 น.,06 1629 5563,,,https://www.wongnai.com/restaurants/228512yL-baboo-cafe-%E0%B8%A3%E0%B8%B2%E0%B8%8A%E0%B8%A0%E0%B8%B1%E0%B8%8F%E0%B9%80%E0%B8%A5%E0%B8%A2,https://web.facebook.com/BOONBUNT/,17.53856,101.723807,789179.7582,1941207.296,เมือง,เมืองเลย
37,ผู้ชาย ขายหอย ปลาร้านัวเมืองเลย,ร้านอาหารอีสาน,,,อาหาร,ทุกวัน 10:00 - 23:00 น.,09 5168 8493,,,https://www.wongnai.com/restaurants/323782sV-%E0%B8%9C%E0%B8%B9%E0%B9%89%E0%B8%8A%E0%B8%B2%E0%B8%A2-%E0%B8%82%E0%B8%B2%E0%B8%A2%E0%B8%AB%E0%B8%AD%E0%B8%A2-%E0%B8%9B%E0%B8%A5%E0%B8%B2%E0%B8%A3%E0%B9%89%E0%B8%B2%E0%B8%99%E0%B8%B1%E0%B8%A7%E0%B9%80%E0%B8%A1%E0%B8%B7%E0%B8%AD%E0%B8%87%E0%B9%80%E0%B8%A5%E0%B8%A2-%E0%B8%AA%E0%B8%B2%E0%B8%82%E0%B8%B2%E0%B8%88%E0%B8%B1%E0%B8%87%E0%B8%AB%E0%B8%A7%E0%B8%B1%E0%B8%94%E0%B9%80%E0%B8%A5%E0%B8%A2,https://web.facebook.com/Phuchaikaihoi/,17.53154046,101.7261817,789443.1821,1940433.612,เมือง,เมืองเลย
38,The Witcht Café ร้านแม่มดเมืองเลย,ร้านอาหารอีสาน,,,อาหาร ขนมหวาน,ทุกวัน 10:30 - 20:00 น. หยุดวันจันทร์,08 0640 4915,,,https://www.wongnai.com/restaurants/260739Be-the-witch-t-cafe-%E0%B9%80%E0%B8%A5%E0%B8%A2,https://web.facebook.com/thewitchtloei/?_rdc=1&_rdr,17.528991,101.72759,789596.8484,1940153.445,เมือง,เมืองเลย
39,ตำแซ่บมอเลย,ร้านอาหารอีสาน,,,อาหาร ส้มตำ,ทุกวัน 10:00 - 17:30 น. หยุดวันจันทร์,06 1262 9636,,,https://www.wongnai.com/restaurants/323608nC-%E0%B8%95%E0%B8%B3%E0%B9%81%E0%B8%8B%E0%B9%88%E0%B8%9A%E0%B8%A1%E0%B8%AD%E0%B9%80%E0%B8%A5%E0%B8%A2,https://web.facebook.com/katayzapzaa/?_rdc=1&_rdr,17.531049,101.726331,789459.8245,1940379.417,เมือง,เมืองเลย
40,ร้านข้าวซอย,ร้านอาหาร,,,ข้าวซอย,ทุกวัน 09:00 - 17:00 น. หยุดวันพุธ,09 5646 9965,,,https://www.wongnai.com/restaurants/291545OV-%E0%B8%82%E0%B9%89%E0%B8%B2%E0%B8%A7-%E0%B8%81%E0%B8%B0-%E0%B8%99%E0%B9%89%E0%B8%B3-kao-ka-nam,,17.50329,101.729502,789840.8153,1937310.381,กุดป่อง,เมืองเลย
41,จ๋อยลาบเป็ด,ร้านอาหารอีสาน,,,อาหาร,ทุกวัน 07:00 - 16:00 น. หยุดวันอาทิตย์,0 4281 1618,,,https://www.wongnai.com/restaurants/144220Yh-%E0%B8%88%E0%B9%8B%E0%B8%AD%E0%B8%A2%E0%B8%A5%E0%B8%B2%E0%B8%9A%E0%B9%80%E0%B8%9B%E0%B9%87%E0%B8%94,,17.493663,101.726551,789542.5239,1936239.853,กุดป่อง,เมืองเลย
42,ขาหมูลำใย ณ เลย,ร้านอาหารจานเดียว,ร้านก๋วยเตี๋ยว,,อาหาร ก๋วยเตี๋ยว,ทุกวัน 07:30 - 17:00 น. หยุดวันอาทิตย์,08 9 549 8069,,,https://www.wongnai.com/restaurants/263634wR-%E0%B8%82%E0%B8%B2%E0%B8%AB%E0%B8%A1%E0%B8%B9%E0%B8%A5%E0%B8%B3%E0%B9%84%E0%B8%A2-%E0%B8%93-%E0%B9%80%E0%B8%A5%E0%B8%A2,https://web.facebook.com/pages/category/Fast-Food-Restaurant/%E0%B8%82%E0%B8%B2%E0%B8%AB%E0%B8%A1%E0%B8%B9%E0%B8%A5%E0%B8%B3%E0%B9%84%E0%B8%A2-%E0%B8%93-%E0%B9%80%E0%B8%A5%E0%B8%A2-116965793015628/?_rdc=1&_rdr,17.489632,101.727911,789693.43,1935795.554,กุดป่อง,เมืองเลย
43,BAAN KUA,ร้านอาหารจานเดียว,ร้านก๋วยเตี๋ยว,ร้านกาแฟ ชา,อาหาร ก๋วยเตี๋ยว เครื่องดื่ม,ทุกวัน 10:00 - 19:00 น.,08 5464 7669,,,https://www.wongnai.com/restaurants/540569jK-baan-kua-%E0%B8%9A%E0%B9%89%E0%B8%B2%E0%B8%99%E0%B8%84%E0%B8%B1%E0%B9%88%E0%B8%A7,https://web.facebook.com/baankualoei/?_rdc=1&_rdr,17.494144,101.724427,789316.0663,1936289.886,กุดป่อง,เมืองเลย
44,ก๋วยเตี๋ยวเอ็นแก้ว ฮูแปว2,ร้านอาหารจานเดียว,ร้านก๋วยเตี๋ยว,,อาหาร ก๋วยเตี๋ยว,ทุกวัน 09:00 - 19:00 น.,08 1708 4698,,,https://www.wongnai.com/restaurants/366823tD-%E0%B8%81%E0%B9%8B%E0%B8%A7%E0%B8%A2%E0%B9%80%E0%B8%95%E0%B8%B5%E0%B9%8B%E0%B8%A2%E0%B8%A7%E0%B9%80%E0%B8%AD%E0%B9%87%E0%B8%99%E0%B9%81%E0%B8%81%E0%B9%89%E0%B8%A7-%E0%B8%AE%E0%B8%B9%E0%B9%81%E0%B8%9B%E0%B8%A72-%E0%B8%8A%E0%B8%A5%E0%B8%9A%E0%B8%B8%E0%B8%A3%E0%B8%B5,https://web.facebook.com/pages/category/Restaurant/%E0%B8%81%E0%B9%8B%E0%B8%A7%E0%B8%A2%E0%B9%80%E0%B8%95%E0%B8%B5%E0%B9%8B%E0%B8%A2%E0%B8%A7%E0%B9%80%E0%B8%AD%E0%B9%87%E0%B8%99%E0%B9%81%E0%B8%81%E0%B9%89%E0%B8%A7-%E0%B8%AE%E0%B8%B9%E0%B9%81%E0%B8%9B%E0%B8%A7-331592473951738/?_rdc=1&_rdr,17.49743,101.72243,789098.6646,1936650.722,เมือง,เมืองเลย
45,แพไผ่งาม...ห้วยกระทิง,ร้านอาหารริมน้ำ,,,อาหาร,ทุกวัน 09:00 - 17:00 น.,08 9276 3075,,,https://www.wongnai.com/restaurants/131963ht-%E0%B9%81%E0%B8%9E%E0%B9%84%E0%B8%9C%E0%B9%88%E0%B8%87%E0%B8%B2%E0%B8%A1-%E0%B8%AB%E0%B9%89%E0%B8%A7%E0%B8%A2%E0%B8%81%E0%B8%A3%E0%B8%B0%E0%B8%97%E0%B8%B4%E0%B8%87,https://web.facebook.com/paepaingam/?_rdc=1&_rdr,17.500816,101.601612,776256.2649,1936846.18,กกทอง,เมืองเลย
46,ร้านอาหารดีเลย,ร้านกาแฟ/ชา,,,อาหาร เครื่องดื่ม,ทุกวัน 10:00 - 20:00 น.,09 9245 2556,,,https://www.wongnai.com/restaurants/236623IB-%E0%B8%A3%E0%B9%89%E0%B8%B2%E0%B8%99%E0%B8%AD%E0%B8%B2%E0%B8%AB%E0%B8%B2%E0%B8%A3%E0%B8%94%E0%B8%B5%E0%B9%80%E0%B8%A5%E0%B8%A2,https://web.facebook.com/DLoeiCafe/?_rdc=1&_rdr,17.495173,101.71611,788430.6843,1936391.208,กุดป่อง,เมืองเลย
47,ผู้หญิงขายน้ำมะพร้าว,ร้านกาแฟ/ชา,,,เครื่องดื่ม,ทุกวัน 08:30 - 17:00 น.,09 5609 3869,,,https://www.wongnai.com/restaurants/coconutgirl,https://web.facebook.com/Pooyingkhainammaphrao/?_rdc=1&_rdr,17.480709,101.728834,789805.6604,1934808.88,กุดป่อง,เมืองเลย
48,กาแฟภูเลย,ร้านกาแฟ/ชา,,,เครื่องดื่ม,ทุกวัน 08:30 - 21:00 น. (เปิดให้บริการเครื่องดื่ม) ทุกวัน 09:30 - 21:00 น. (เปิดให้บริการอาหาร),09 3486 8585,,,https://www.wongnai.com/restaurants/171605tc-%E0%B8%81%E0%B8%B2%E0%B9%81%E0%B8%9F%E0%B8%A0%E0%B8%B9%E0%B9%80%E0%B8%A5%E0%B8%A2-%E0%B8%96%E0%B8%99%E0%B8%99%E0%B8%A3%E0%B9%88%E0%B8%A7%E0%B8%A1%E0%B9%83%E0%B8%88,https://web.facebook.com/PhuloeiBisto/?_rdc=1&_rdr,17.490185,101.728338,789737.9269,1935857.439,กุดป่อง,เมืองเลย
49,บ้านฉันเบเกอรี่,ร้านกาแฟ/ชา,เบเกอรี/เค้ก,,เครื่องดื่ม เบเกอรี่ ไอศกรีม,ทุกวัน 07:30 - 17:00 น.,0 4281 2197,08 1380 0630,,https://www.wongnai.com/restaurants/15022dr-%E0%B8%9A%E0%B9%89%E0%B8%B2%E0%B8%99%E0%B8%89%E0%B8%B1%E0%B8%99%E0%B9%80%E0%B8%9A%E0%B9%80%E0%B8%81%E0%B8%AD%E0%B8%A3%E0%B8%B5%E0%B9%88,https://web.facebook.com/baanchan?_rdc=1&_rdr,17.494682,101.716809,788505.7344,1936337.897,กุดป่อง,เมืองเลย
50,เจ๊เจี๊ยบ เมืองเลย,ร้านอาหารตามสั่ง,,,อาหารตามสั่ง ก๋วยเตี๋ยว,ทุกวัน 08:00 - 21:00 น.,09 9007 8789,06 1487 6777,,https://www.wongnai.com/restaurants/439855Kh-เจ๊เจี๊ยบ-เมืองเลย,https://web.facebook.com/pages/%E0%B8%A3%E0%B9%89%E0%B8%B2%E0%B8%99%E0%B8%AD%E0%B8%B2%E0%B8%AB%E0%B8%B2%E0%B8%A3%E0%B9%80%E0%B8%88%E0%B9%8A%E0%B9%80%E0%B8%88%E0%B8%B5%E0%B9%8A%E0%B8%A2%E0%B8%9A%E0%B9%80%E0%B8%A1%E0%B8%B7%E0%B8%AD%E0%B8%87%E0%B9%80%E0%B8%A5%E0%B8%A2/1081608282000199?_rdc=1&_rdr,17.479122,101.727997,789719.2297,1934631.872,กุดป่อง,เมืองเลย
51,ร้านก๋วยเตี๋ยวลมทุ่ง,ร้านก๋วยเตี๋ยว,,,ก๋วยเตี๋ยว,ทุกวัน 07:30 - 15:30 น. หยุดวันจันทร์,08 9781 0671,,,https://www.wongnai.com/restaurants/162311TR-%E0%B8%81%E0%B9%8B%E0%B8%A7%E0%B8%A2%E0%B9%80%E0%B8%95%E0%B8%B5%E0%B9%8B%E0%B8%A2%E0%B8%A7%E0%B8%A5%E0%B8%A1%E0%B8%97%E0%B8%B8%E0%B9%88%E0%B8%87,https://web.facebook.com/%E0%B8%81%E0%B9%8B%E0%B8%A7%E0%B8%A2%E0%B9%80%E0%B8%95%E0%B8%B5%E0%B9%8B%E0%B8%A2%E0%B8%A7%E0%B8%99%E0%B9%89%E0%B8%B3%E0%B8%95%E0%B8%81%E0%B8%A5%E0%B8%A1%E0%B8%97%E0%B8%B8%E0%B9%88%E0%B8%87-853126598194829/,17.554094,101.727594,789557.3582,1942933.215,เมือง,เมืองเลย
52,ร้านรสหนึ่ง,ร้านอาหารจานเดียว,,,อาหารเช้า ขนมปัง ไข่กระทะ,ทุกวัน 06:30 - 13:30 น.,09 3514 3000,,,https://www.wongnai.com/restaurants/394517mP-%E0%B8%A3%E0%B8%AA%E0%B8%AB%E0%B8%99%E0%B8%B6%E0%B9%88%E0%B8%87,-,17.488865,101.730629,789983.4686,1935714.759,กุดป่อง,เมืองเลย
53,Parking Kaffe,ร้านอาหารตามสั่ง,ร้านกาแฟ/ชา,,อาหาร เครื่องดื่ม,ทุกวัน 09:00 - 18:00 น.,0 4281 1247,,,https://www.wongnai.com/restaurants/152255YW-parking-kaffe-เลย,https://web.facebook.com/parkingkaffe/?_rdc=1&_rdr,17.489923,101.726816,789576.6116,1935826.111,กุดป่อง,เมืองเลย
54,อิ่มเอม,ร้านอาหารจานเดียว,ร้านอาหารตามสั่ง,,อาหารตามสั่ง,ทุกวัน 11:00 - 22:00 น.,09 8667 4530,,,https://www.wongnai.com/restaurants/466717wj-%E0%B8%AD%E0%B8%B4%E0%B9%88%E0%B8%A1%E0%B9%80%E0%B8%AD%E0%B8%A1-%E0%B9%80%E0%B8%A5%E0%B8%A2,https://web.facebook.com/immloei/?_rdc=1&_rdr,17.489826,101.72665,789559.1258,1935815.118,กุดป่อง,เมืองเลย
55,สเต็กไทเลย,ร้านอาหารตามสั่ง,,,อาหารตามสั่ง อาหารฝรั่ง,ทุกวัน 06:00 - 21:00 น.,08 0193 2878,,,https://www.wongnai.com/restaurants/172464iu-%E0%B8%AA%E0%B9%80%E0%B8%95%E0%B9%87%E0%B8%81%E0%B9%84%E0%B8%97%E0%B9%80%E0%B8%A5%E0%B8%A2,https://www.facebook.com/สเต็กไทเลย-511458479052407/?ref=nf,17.487679,101.731369,790063.986,1935584.555,กุดป่อง,เมืองเลย
56,วิไลวรรณ,ร้านก๋วยเตี๋ยว,ร้านอาหารจานเดียว,,อาหาร ก๋วยเตี๋ยว,ทุกวัน 07:00 - 15:00 น.,0 4281 1407,,,https://www.wongnai.com/restaurants/93641uS-%E0%B8%A7%E0%B8%B4%E0%B9%84%E0%B8%A5%E0%B8%A7%E0%B8%A3%E0%B8%A3%E0%B8%93,https://www.facebook.com/%E0%B8%A7%E0%B8%B4%E0%B9%84%E0%B8%A5%E0%B8%A7%E0%B8%A3%E0%B8%A3%E0%B8%93%E0%B8%81%E0%B9%8B%E0%B8%A7%E0%B8%A2%E0%B9%80%E0%B8%95%E0%B8%B5%E0%B9%8B%E0%B8%A2%E0%B8%A7%E0%B9%80%E0%B8%A1%E0%B8%B7%E0%B8%AD%E0%B8%87%E0%B9%80%E0%B8%A5%E0%B8%A2-1289620551050500/,17.488034,101.729775,789894.0386,1935621.438,กุดป่อง,เมืองเลย
57,ชาบูบ้านนักบอล,ร้านอาหารจานเดียว,,,อาหารตามสั่ง ชาบู สุกี้ หม้อไฟ,ทุกวัน 15:00 - 22:00 น.,08 6219 3907,,,https://www.wongnai.com/restaurants/473443VT-%E0%B8%8A%E0%B8%B2%E0%B8%9A%E0%B8%B9%E0%B8%9A%E0%B9%89%E0%B8%B2%E0%B8%99%E0%B8%99%E0%B8%B1%E0%B8%81%E0%B8%9A%E0%B8%AD%E0%B8%A5-%E0%B9%80%E0%B8%A5%E0%B8%A2,https://web.facebook.com/bannukball/?_rdc=1&_rdr,17.48765,101.731306,790057.3374,1935581.248,กุดป่อง,เมืองเลย
58,Plearn Coffee,ร้านกาแฟ/ชา,เบเกอรี/เค้ก,,อาหาร เครื่องดื่ม เบเกอรี่,ทุกวัน 07:00 - 20:00 น.,09 2695 8897,,,https://www.wongnai.com/restaurants/211223zh-plearn-coffee,https://web.facebook.com/PlearnCoffeeLoei/?_rdc=1&_rdr,17.493869,101.71565,788383.8645,1936246.115,กุดป่อง,เมืองเลย
59,บ้านท่าแพ,ร้านกาแฟ/ชา,,,อาหาร เครื่องดื่ม,ทุกวัน 07:00 - 23:00 น.,09 5 604 5544,,,https://www.wongnai.com/restaurants/267292tL-%E0%B8%9A%E0%B9%89%E0%B8%B2%E0%B8%99%E0%B8%97%E0%B9%88%E0%B8%B2%E0%B9%81%E0%B8%9E,https://web.facebook.com/BanThaPaeRestaurant?_rdc=1&_rdr,17.493121,101.706361,787398.0053,1936149.237,กุดป่อง,เมืองเลย
60,สวนอาหาร ท่าลี่แกรนด์วิว,ร้านอาหารไทย,,,"อาหาร, เครื่องดื่ม",ทุกวัน 10.00 - 23:00 น.,09 8108 5456,,,https://www.travel2guide.com/%E0%B8%A3%E0%B9%89%E0%B8%B2%E0%B8%99%E0%B8%AD%E0%B8%B2%E0%B8%AB%E0%B8%B2%E0%B8%A3%20%E0%B8%97%E0%B9%88%E0%B8%B2%E0%B8%A5%E0%B8%B5%E0%B9%88%E0%B9%81%E0%B8%81%E0%B8%A3%E0%B8%99%E0%B8%94%E0%B9%8C%E0%B8%A7%E0%B8%B4%E0%B8%A7.html,https://www.facebook.com/grandview99/,17.64229295,101.4090519,755599.6896,1952240.173,ท่าลี่,ท่าลี่ 
61,ก๋วยเตี๋ยวตาเเต๊ก,ร้านก๋วยเตี๋ยว,,,ก๋วยเตี๋ยว ส้มตำลูกค้าตำเอง ไข่มุกลาวา,ทุกวัน 09:00–16:00 น.,08 3026 7986,,,,https://www.facebook.com/%E0%B8%81%E0%B9%8B%E0%B8%A7%E0%B8%A2%E0%B9%80%E0%B8%95%E0%B8%B5%E0%B9%8B%E0%B8%A2%E0%B8%A7%E0%B8%95%E0%B8%B2%E0%B9%80%E0%B9%80%E0%B8%95%E0%B9%8A%E0%B8%81-100378652190259/,17.63151863,101.4160155,756354.136,1951056.756,ท่าลี่,ท่าลี่
62,ร้านเจ้จุ๋ม-ชมวิว,ร้านก๋วยเตี๋ยว,,,ก๋วยเตี๋ยว,ทุกวัน 09:00 – 18.00 น.,09 7112 4332,,,,,17.70135905,101.5249191,767812.0147,1958940.618,น้ำแคม,ท่าลี่
63,กีกี้ เนื้อย่างเกาหลี สาขาท่าลี่,ปิ้งย่างเกาหลี,,,บุฟเฟต์ปิ้งย่างทะเลซีฟู๊ด,ทุกวัน 10:00 – 22:00 น.,09 2394 8178,,,,https://www.facebook.com/%E0%B8%81%E0%B8%B5%E0%B8%81%E0%B8%B5%E0%B9%89%E0%B9%80%E0%B8%99%E0%B8%B7%E0%B9%89%E0%B8%AD%E0%B8%A2%E0%B9%88%E0%B8%B2%E0%B8%87%E0%B9%80%E0%B8%81%E0%B8%B2%E0%B8%AB%E0%B8%A5%E0%B8%B5-%E0%B8%9A%E0%B8%B8%E0%B8%9F%E0%B9%80%E0%B8%9F%E0%B9%88%E0%B8%81%E0%B8%B4%E0%B9%82%E0%B8%A5-%E0%B8%AA%E0%B8%B2%E0%B8%82%E0%B8%B2%E0%B8%97%E0%B9%88%E0%B8%B2%E0%B8%A5%E0%B8%B5%E0%B9%88-111508773983650/,17.2825694,101.7588227,793308.3687,1912913.709,หนองผือ,ท่าลี่
64,ร้านอาหารแก่งโตน,ร้านอาหาร,,,อาหารตามสั่ง,ทุกวัน 08:00 – 17:00 น.,08 3335 7865,,,,,17.70014111,101.4065498,755252.3793,1958641.308,หนองผือ,ท่าลี่
65,ส้มตำยายเป่า,ร้านส้มตำ,,,ส้มตำ แคปหมู หมี่ ขนมจีน น้ำผักสะทอน,ทุกวัน 07:00 – 17:00 น.,06 1294 4788,,,https://th.worldorgs.com/%E0%B9%81%E0%B8%84%E0%B8%95%E0%B8%95%E0%B8%B2%E0%B8%A5%E0%B9%87%E0%B8%AD%E0%B8%81/%E0%B8%AD%E0%B8%B3%E0%B9%80%E0%B8%A0%E0%B8%AD-%E0%B8%97%E0%B9%88%E0%B8%B2%E0%B8%A5%E0%B8%B5%E0%B9%88/%E0%B8%A3%E0%B9%89%E0%B8%B2%E0%B8%99%E0%B8%84%E0%B9%89%E0%B8%B2/%E0%B8%AA%E0%B9%89%E0%B8%A1%E0%B8%95%E0%B8%B3%E0%B8%A2%E0%B8%B2%E0%B8%A2%E0%B9%80%E0%B8%9B%E0%B9%88%E0%B8%B2,,17.64522987,101.4335478,758195.7886,1952598.656,หนองผือ,ท่าลี่
66,น้องโอ ร้านอาหาร,ร้านอาหาร,,,อาหารตามสั่ง,ทุกวัน 10:00 - 19:00 น.,0 4288 9065,08 1708 5250,,https://www.yellowpages.co.th/profile/%E0%B8%A3%E0%B9%89%E0%B8%B2%E0%B8%99-%E0%B8%99%E0%B9%89%E0%B8%AD%E0%B8%87%E0%B9%82%E0%B8%AD-%E0%B8%AD%E0%B8%B2%E0%B8%AB%E0%B8%B2%E0%B8%A3-349vzabjh,,17.63292041,101.4269107,757508.7566,1951226.767,ท่าลี่,ท่าลี่
67,สเต็กสวนป่า & พิซซ่าตีนภู บ้านไร่ภูคำฟาร์มสเตย์,ร้านอาหาร,ฟาร์มสเตย์,,สเต็ก พิซซ่า ที่พักฟาร์มสเตย์,ทุกวัน 11:00 – 14:00 น.,08 1717 9545,,,,https://www.facebook.com/kAipachara/,17.5930105,101.4109501,755870.7192,1946786.567,ท่าลี่,ท่าลี่
68,เตี๋ยวต้มยำ อร่อยจังก๋อ,ร้านก๋วยเตี๋ยว,,,ก๋วยเตี๋ยว,ทุกวัน 09.00 - 15.00 น.,09 3459 8505 ,,,https://www.wongnai.com/restaurants/277522GB-%E0%B9%80%E0%B8%95%E0%B8%B5%E0%B9%8B%E0%B8%A2%E0%B8%A7%E0%B8%95%E0%B9%89%E0%B8%A1%E0%B8%A2%E0%B8%B3-%E0%B8%AD%E0%B8%A3%E0%B9%88%E0%B8%AD%E0%B8%A2%E0%B8%88%E0%B8%B1%E0%B8%87%E0%B8%81%E0%B9%8B%E0%B8%AD,,17.64406915,101.4326484,758101.9718,1952468.918,หนองผือ,ท่าลี่
69,กาแฟพอดี เบเกอรี่พอใจ,ร้านอาหารเวียดนาม,เบเกอรี่,ที่พัก,กาแฟ เบเกอรี่ อาหารเวียดนาม บริการล้างรถ,ทุกวัน 08.30 - 22.00 น.,09 0985 7022,,,https://www.gotoloei.com/%E0%B8%97%E0%B8%B5%E0%B9%88%E0%B8%94%E0%B8%B7%E0%B9%88%E0%B8%A1/%E0%B8%81%E0%B8%B2%E0%B9%81%E0%B8%9F%E0%B8%9E%E0%B8%AD%E0%B8%94%E0%B8%B5-%E0%B9%80%E0%B8%9A%E0%B9%80%E0%B8%81%E0%B8%AD%E0%B8%A3%E0%B8%B5%E0%B9%88%E0%B8%9E%E0%B8%AD%E0%B9%83%E0%B8%88,https://www.facebook.com/%E0%B8%81%E0%B8%B2%E0%B9%81%E0%B8%9F%E0%B8%9E%E0%B8%AD%E0%B8%94%E0%B8%B5-%E0%B9%80%E0%B8%9A%E0%B9%80%E0%B8%81%E0%B8%AD%E0%B8%A3%E0%B8%B5%E0%B8%9E%E0%B8%AD%E0%B9%83%E0%B8%88-195586884108245/,17.69912474,101.4142331,756069.1582,1958539.217,หนองผือ,ท่าลี่
70,โกปี คอฟฟี่ (KoPi Coffee),ร้านเครื่องดื่ม,,,กาแฟ เบเกอรี่,ทุกวัน 08:15 - 15:30 น.,08 6646 3881,,,https://www.wongnai.com/restaurants/212768hg-kopi-coffee,https://www.facebook.com/KoPi-Coffee-177775982555429/,17.62665869,101.4232893,757133.2064,1950528.579,หนองผือ,ท่าลี่
71,ครัวอิ่มท้อง,ร้านอาหารจานเดียว,,,ข้าวมันไก่ อาหารตามสั่ง,ทุกวัน 07:30 - 13:30 น.,09 5578 6901 ,06 2198 8185,,https://www.wongnai.com/restaurants/287684Gz-%E0%B8%84%E0%B8%A3%E0%B8%B1%E0%B8%A7%E0%B8%AD%E0%B8%B4%E0%B9%88%E0%B8%A1%E0%B8%97%E0%B9%89%E0%B8%AD%E0%B8%87-%E0%B8%95%E0%B8%A3%E0%B8%87%E0%B8%82%E0%B9%89%E0%B8%B2%E0%B8%A1%E0%B8%9B%E0%B8%B1%E0%B9%8A%E0%B8%A1-%E0%B8%9B%E0%B8%95%E0%B8%97-%E0%B8%97%E0%B9%88%E0%B8%B2%E0%B8%A5%E0%B8%B5%E0%B9%88, https://www.facebook.com/ครัวอิ่มท้อง-704781169617033/,17.62701129,101.4233102,757134.9248,1950567.645,หนองผือ,ท่าลี่
72,ร้านอาหารบ้านพัฒนา ,ร้านอาหาร,,,"อาหาร, เครื่องดื่ม",ทุกวัน 09:30 - 21:00 น.,06 1076 4259 ,,,https://www.wongnai.com/restaurants/93403Ds-%E0%B8%A3%E0%B9%89%E0%B8%B2%E0%B8%99%E0%B8%AD%E0%B8%B2%E0%B8%AB%E0%B8%B2%E0%B8%A3%E0%B8%9A%E0%B9%89%E0%B8%B2%E0%B8%99%E0%B8%9E%E0%B8%B1%E0%B8%92%E0%B8%99%E0%B8%B2?_st=cD0zO2I9OTM0MDM7YWQ9ZmFsc2U7dD0xNjM3MDM4MTcyMjUyO3JpPTFYN2FLd2RYZHg5MXVHU3doVk43Rk1Xb1FMYlVpaztpPTFYNnpvR1A4OElrSXVwMEtXNWhSNDBoTUg4S2lHRDt3cmVmPXNyOw%3D%3D,,17.62251257,101.4452401,759469.482,1950099.541,ท่าลี่,ท่าลี่
73,Hen Om Coffee (กาแฟเห็นอ้ม),ร้านกาแฟ,ร้านอาหารตามสั่ง,,อาหารตามสั่ง เครื่องดื่ม กาแฟขี้ชะมด ชาดอกกาแฟ ถั่วคั่วกาแฟ กาแฟเห็นอ้ม กาแฟดริปธรรมดา,ทุกวัน 09:00 - 17:00 น.,09 0992 8825,08 1721 3668 ,,https://www.wongnai.com/restaurants/385677id-hen-om-coffee?_st=cD03O2I9Mzg1Njc3O2FkPWZhbHNlO3Q9MTYzNzAyNjc2NzEzNztyaT0xWDdhS3dHUU5RWUU0dE4wNnJkaWpKeW5VdVpVa3Q7aT0xWDZ6b0cyMHJoN1dRU01xQXpaYzlVVXFNaVoyU2g7d3JlZj1zcjs%3D,https://www.facebook.com/henomcoffee/,17.68476838,101.3909908,753622.9132,1956918.337,อาฮี,ท่าลี่
74,ร้านกะเทยเฒ่า,ร้านก๋วยจั๊บ,ร้านเครื่องดื่ม,,ก๋วยจั๊บ เครื่องดื่ม,ทุกวัน 09:00 – 21:00 น.,08 3343 2928,,,,https://www.facebook.com/aew2928/,17.67515502,101.5548367,771026.3516,1956082.054,น้ำแคม,ท่าลี่
75,ครัวริมทาง,ร้านอาหาร,,,อาหารตามสั่ง ก๋วยเตี๋ยวหมู ผัดไทย ส้มตำ,ทุกวัน 09:00 - 18:00 น.,08 6857 3117 ,,,https://www.wongnai.com/restaurants/93416Sm-%E0%B8%84%E0%B8%A3%E0%B8%B1%E0%B8%A7%E0%B8%A3%E0%B8%B4%E0%B8%A1%E0%B8%97%E0%B8%B2%E0%B8%87,,17.63934975,101.4297532,757801.3584,1951942.46,หนองผือ,ท่าลี่
76,Le bar tarry (เลอ บาร์ ทาร์รี่),ร้านอาหาร,,,อาหารตามสั่ง ส้มตำ ขนมจีนน้ำเงี้ยว ผลิตภัณฑ์ชุมชน บริการห้องพัก บริการรถรับ-ส่งจากสนามบิน,ทุกวัน 10:30 - 19:00 น.,0 4288 9442,09 9625 8780,09 5754 6268,https://www.wongnai.com/restaurants/180336Tv-%E0%B8%A3%E0%B9%89%E0%B8%B2%E0%B8%99%E0%B8%AD%E0%B8%B2%E0%B8%AB%E0%B8%B2%E0%B8%A3-le-bar-tarry-%E0%B9%80%E0%B8%A5%E0%B8%AD-%E0%B8%9A%E0%B8%B2%E0%B8%A3%E0%B9%8C-%E0%B8%97%E0%B8%B2%E0%B8%A3%E0%B9%8C%E0%B8%A3%E0%B8%B5%E0%B9%88?_st=cD0zO2I9MTgwMzM2O2FkPWZhbHNlO3Q9MTYzNzAyNjc2NzEzNDtyaT0xWDdhS3dHUUxnUmdrbUl6eTZ3ZUVrWlZqbXZpcE07aT0xWDZ6b0cyMHJoN1dRU01xQXpaYzlVVXFNaVoyU2g7d3JlZj1zcjs%3D,,17.64314396,101.4316133,757993.4139,1952365.073,หนองผือ,ท่าลี่
77,ถังปั่นป๊อก @ เชียงคาน,ร้านเครื่องดื่ม,,,เครื่องดื่ม โค้กวุ้น เบียร์วุ้น,ทุกวัน 16:00 - 21:00 น.,08 4442 7235,,,,https://www.facebook.com/%E0%B9%82%E0%B8%9A%E0%B8%A7%E0%B9%8C%E0%B8%96%E0%B8%B1%E0%B8%87%E0%B8%9B%E0%B8%B1%E0%B9%88%E0%B8%99%E0%B8%9B%E0%B9%8A%E0%B8%AD%E0%B8%81-313575396246361/,17.89650606,101.6582745,781658.1301,1980744.292,เชียงคาน,เชียงคาน
78,ก๋วยเตี๋ยวซอย 9,ร้านก๋วยเตี๋ยว,,,ก๋วยเตี๋ยว,ทุกวัน 09:00 - 17:00 น., ,,,,https://www.wongnai.com/restaurants/156563fE-%E0%B8%81%E0%B9%8B%E0%B8%A7%E0%B8%A2%E0%B9%80%E0%B8%95%E0%B8%B5%E0%B9%8B%E0%B8%A2%E0%B8%A7%E0%B8%8B%E0%B8%AD%E0%B8%A2-9?_st=cD0xNztiPTE1NjU2MzthZD1mYWxzZTt0PTE2MDM3NzEzNzY0MzY7cmk9MVg3YTNQNUxENG9Wem91cXNxRkVUUjJ6M3hHSzZ1O2k9MVg2eldpcXZvc1diU2pvV05hcEJkSWg3dVpMM0d2O3dyZWY9c3I7,17.893808,101.654435,781255.3384,1980439.727,เชียงคาน,เชียงคาน
79,ป้าลี่ข้าวปุ้นน้ำแจ่ว,ร้านก๋วยเตี๋ยว,,,ก๋วยเตี๋ยว อาหารเช้า,ทุกวัน 09:00 - 21:00 น.,0 4282 1404,,,,https://www.wongnai.com/restaurants/143114jO-%E0%B8%9B%E0%B9%89%E0%B8%B2%E0%B8%A5%E0%B8%B5%E0%B9%88%E0%B8%82%E0%B9%89%E0%B8%B2%E0%B8%A7%E0%B8%9B%E0%B8%B8%E0%B9%89%E0%B8%99%E0%B8%99%E0%B9%89%E0%B8%B3%E0%B9%81%E0%B8%88%E0%B9%88%E0%B8%A7-%E0%B8%AA%E0%B8%B9%E0%B8%95%E0%B8%A3%E0%B9%82%E0%B8%9A%E0%B8%A3%E0%B8%B2%E0%B8%93,17.894979,101.6570061,781526.0772,1980573.28,เชียงคาน,เชียงคาน
80,จำเลยรัก คาเฟ่,ร้านคาเฟ่,,,กาแฟ เครื่องดื่ม,ทุกวัน 06:30 - 21:00 น.,08 8572 7754,,,https://www.wongnai.com/restaurants/213574KM-จำเลยรักคาเฟ่,https://www.facebook.com/jamloeirak/,17.89613645,101.6569028,781513.2949,1980701.29,เชียงคาน,เชียงคาน
81,ฮักก๋อ @ เชียงคาน,ร้านคาเฟ่,,,อาหาร เครื่องดื่ม เสื้อผ้าที่ระลึก,จันทร์ - ศุกร์ 17.00 - 21.00 น. เสาร์ - อาทิตย์ 07.00 - 21.00 น.,09 5196 5859,,,,https://web.facebook.com/pages/category/Lodge/%E0%B8%AE%E0%B8%B1%E0%B8%81%E0%B8%81%E0%B9%8B%E0%B8%AD-%E0%B9%80%E0%B8%8A%E0%B8%B5%E0%B8%A2%E0%B8%87%E0%B8%84%E0%B8%B2%E0%B8%99-%E0%B9%82%E0%B8%AE%E0%B8%A1%E0%B8%AA%E0%B9%80%E0%B8%95%E0%B8%A2%E0%B9%8C-296405654521299/?_rdc=1&_rdr,17.89504088,101.6543367,781242.9676,1980576.098,เชียงคาน,เชียงคาน
82,สองผัวเมีย,ร้านคาเฟ่,,,กาแฟ เครื่องดื่ม เบเกอร์รี่,ทุกวัน 07:30 - 21:00 น.,06 3614 6995,0 4282 1492,,https://www.wongnai.com/restaurants/48078aP-สองผัวเมีย-มุมกาแฟ-ห้องทานข้าว-เชียงคาน,https://www.facebook.com/SongPhuaMiaGroup/,17.89471894,101.6536462,781170.2711,1980539.406,เชียงคาน,เชียงคาน
83,Toffee Coffee by Baan Supichaya,ร้านคาเฟ่,เบเกอรี/เค้ก,,เครื่องดื่ม เบเกอรี่,ทุกวัน 07:00 - 17:00 น.,08 5608 7557,,,,https://www.wongnai.com/restaurants/142761KY-toffee-coffee-by-baan-supichaya,17.89620506,101.656598,781480.8754,1980708.427,เชียงคาน,เชียงคาน
84,เดอะ ครีม คาเฟ่ ,ร้านคาเฟ่,,,อาหาร เครื่องดื่ม,ทุกวัน 08:00 - 17:00 น. ,095 727 4555 ,,,https://www.wongnai.com/articles/the-cream-cafe-chiangkhan,https://www.facebook.com/theCampChiangkhanOfficial/,17.89210645,101.6370583,779415.7556,1980225.157,เชียงคาน,เชียงคาน
85,Café De' River,ร้านคาเฟ่,,,อาหาร เครื่องดื่ม ,ทุกวัน 07:00 - 19:00 น.,06 1453 6954,08 6240 1617  ,0 4282 2191,https://www.wongnai.com/restaurants/307887mN-cafe-de-river,https://web.facebook.com/CafedeRiver/?_rdc=1&_rdr,17.89198407,101.6361603,779320.7506,1980210.259,เชียงคาน,เชียงคาน
86,With A View @ ChiangKhan,ร้านคาเฟ่,เบเกอรี/เค้ก,,เครื่องดื่ม เบเกอรี่,ทุกวัน 08:00 - 20:00 น.,09 1058 0185,0 4281 0696,,https://www.wongnai.com/restaurants/217381Hr-with-a-view-chiangkhan,https://web.facebook.com/withaviewhotel?_rdc=1&_rdr,17.89623295,101.6568779,781510.4981,1980711.938,เชียงคาน,เชียงคาน
87,Tani Chiangkhan Café Stand,ร้านคาเฟ่,,,เครื่องดื่ม เบเกอรี่,ทุกวัน 08:00 - 15:00 น.,09 6969 5193,,,https://www.wongnai.com/restaurants/307992yo-tani-chiangkhan-cafe-stand-%E0%B9%80%E0%B8%8A%E0%B8%B5%E0%B8%A2%E0%B8%87%E0%B8%84%E0%B8%B2%E0%B8%99,https://web.facebook.com/pages/Tani-Chiangkhan-Cafe-Stand/800079850115943?_rdc=1&_rdr,17.89761394,101.6751404,783444.4614,1980892.564,เชียงคาน,เชียงคาน
88,สังขยาคุณแม่,ร้านคาเฟ่,,,ขนมปังสังขยา,ทุกวัน 08:00 - 20:00 น. ,08 9180 1021,,,https://www.wongnai.com/restaurants/16213mi-%E0%B8%AA%E0%B8%B1%E0%B8%87%E0%B8%82%E0%B8%A2%E0%B8%B2%E0%B8%84%E0%B8%B8%E0%B8%93%E0%B9%81%E0%B8%A1%E0%B9%88,https://web.facebook.com/sangkayah/?hc_location=timeline,17.89462729,101.6539941,781207.298,1980529.783,เชียงคาน,เชียงคาน
89,นับดาว คาเฟ่ & ฟาร์มแกะ,ร้านคาเฟ่,, ,อาหาร เครื่องดื่ม บริการห้องพัก,ทุกวัน 07.00 - 17.00 น.,09 5663 7401,,,https://www.chillpainai.com/scoop/10728/,https://www.facebook.com/%E0%B8%99%E0%B8%AD%E0%B8%99%E0%B8%99%E0%B8%B1%E0%B8%9A%E0%B8%94%E0%B8%B2%E0%B8%A7%E0%B8%A3%E0%B8%B4%E0%B8%A1%E0%B8%A0%E0%B8%B9-%E0%B8%A3%E0%B8%B5%E0%B8%AA%E0%B8%AD%E0%B8%A3%E0%B9%8C%E0%B8%97-%E0%B8%9F%E0%B8%B2%E0%B8%A3%E0%B9%8C%E0%B8%A1%E0%B9%81%E0%B8%81%E0%B8%B0-%E0%B9%80%E0%B8%8A%E0%B8%B5%E0%B8%A2%E0%B8%87%E0%B8%84%E0%B8%B2%E0%B8%99-1541671706073133/,17.87552294,101.6734342,783298.6567,1978443.759,เชียงคาน,เชียงคาน
90,บ้านชานเคียง ที่เชียงคาน,ร้านคาเฟ่,,,กาแฟ เครื่องดื่ม,ทุกวัน 06.00 - 22.00 น.,08 5460 2035  ,0 4282 1096,,,https://www.facebook.com/Chankhiang.Chiangkhan/,17.8935571,101.6514009,780934.068,1980407.365,เชียงคาน,เชียงคาน
91,สุวรรณรามาคอฟฟี่ เชียงคาน,ร้านคาเฟ่,,,กาแฟ เครื่องดื่ม,ทุกวัน 07.00 - 19.00 น.,0 4282 1218,,,https://www2.edtguide.com/index.php/www/drink/332641/Suwanrama-Coffee,https://www.facebook.com/Suwanrama/,17.8932164,101.654655,781279.5979,1980374.55,เชียงคาน,เชียงคาน
92,จิ๊กโก๋ยัดไส้,ร้านสตรีทฟู้ด,,,ปาท่องโก๋,ทุกวัน 17.00 - 21:30 น. ,06 5246 2746,,,,https://www.wongnai.com/restaurants/178362iy-%E0%B8%88%E0%B8%B4%E0%B9%8A%E0%B8%81%E0%B9%82%E0%B8%81%E0%B9%8B%E0%B8%A2%E0%B8%B1%E0%B8%94%E0%B9%84%E0%B8%AA%E0%B9%89,17.89655753,101.6585172,781683.7811,1980750.359,เชียงคาน,เชียงคาน
93,โรตีหวานใจ เชียงคาน,ร้านสตรีทฟู้ด,,,โรตี,ทุกวัน 16:00 - 22:00 น.,08 1050 8952,,,https://www.wongnai.com/restaurants/472419cY-%E0%B9%82%E0%B8%A3%E0%B8%95%E0%B8%B5%E0%B8%AB%E0%B8%A7%E0%B8%B2%E0%B8%99%E0%B9%83%E0%B8%88-%E0%B9%80%E0%B8%8A%E0%B8%B5%E0%B8%A2%E0%B8%87%E0%B8%84%E0%B8%B2%E0%B8%99,https://web.facebook.com/%E0%B8%AB%E0%B8%A7%E0%B8%B2%E0%B8%99%E0%B9%83%E0%B8%88%E0%B9%82%E0%B8%A3%E0%B8%95%E0%B8%B5-%E0%B9%80%E0%B8%8A%E0%B8%B5%E0%B8%A2%E0%B8%87%E0%B8%84%E0%B8%B2%E0%B8%99-1010979042444066/,17.8954776,101.6602355,781867.6644,1980633.376,เชียงคาน,เชียงคาน
94,แหนมคลุกแม่แห่ว,ร้านสตรีทฟู้ด,,,อาหาร,ทุกวัน 09:00 - 18:00 น.,08 0238 0652,,,https://www.wongnai.com/restaurants/142882KT-%E0%B9%81%E0%B8%AB%E0%B8%99%E0%B8%A1%E0%B8%84%E0%B8%A5%E0%B8%B8%E0%B8%81%E0%B9%81%E0%B8%A1%E0%B9%88%E0%B9%81%E0%B8%AB%E0%B9%88%E0%B8%A7,https://web.facebook.com/pages/category/Food---Beverage-Company/%E0%B9%81%E0%B8%AB%E0%B8%99%E0%B8%A1%E0%B8%84%E0%B8%A5%E0%B8%B8%E0%B8%81%E0%B9%81%E0%B8%A1%E0%B9%88%E0%B9%81%E0%B8%AB%E0%B9%88%E0%B8%A7-Namklukmaeheaw-1639292169694205/?_rdc=1&_rdr,17.89396727,101.6527478,781076.2086,1980454.816,เชียงคาน,เชียงคาน
95,อังเปาปลาท่องโก๋ยัดใส้,ร้านสตรีทฟู้ด,,,ปาท่องโก๋ อาหารจีน,ทุกวัน 15:00 น. , ,,,,https://www.wongnai.com/restaurants/217359Dy-%E0%B8%AD%E0%B8%B1%E0%B8%87%E0%B9%80%E0%B8%9B%E0%B8%B2%E0%B8%9B%E0%B8%A5%E0%B8%B2%E0%B8%97%E0%B9%88%E0%B8%AD%E0%B8%87%E0%B9%82%E0%B8%81%E0%B9%8B%E0%B8%A2%E0%B8%B1%E0%B8%94%E0%B9%84%E0%B8%AA%E0%B9%89,17.89641385,101.6576032,781587.1113,1980733.066,เชียงคาน,เชียงคาน
96,กุ้งน้ำโขงยายลอง,ร้านสตรีทฟู้ด,,,อาหาร,ทุกวัน 18:00 - 21:00 น., ,,,,https://www.wongnai.com/restaurants/216537Gj-%E0%B8%81%E0%B8%B8%E0%B9%89%E0%B8%87%E0%B8%99%E0%B9%89%E0%B8%B3%E0%B9%82%E0%B8%82%E0%B8%87%E0%B8%A2%E0%B8%B2%E0%B8%A2%E0%B8%A5%E0%B8%AD%E0%B8%87,17.89607521,101.6567429,781496.4424,1980694.267,เชียงคาน,เชียงคาน
97,ข้าวเปียกเส้น ซอย 10,ร้านสตรีทฟู้ด,,,อาหาร,จันทร์ - ศุกร์ 06.30 - 15.00 น. เสาร์ - อาทิตย์ 06.30 - 20.00 น.,08 5447 3812,,,,https://www.wongnai.com/reviews/919049ebc16e46c4a250c21ab5ba60cc,17.8944192,101.6555581,781373.44,1980509.103,เชียงคาน,เชียงคาน
98,ติดนมเลย เชียงคาน,ร้านสตรีทฟู้ด,,,เครื่องดื่ม,เปิดบริการ 24 ชม.,0 4282 1218,,,https://www.wongnai.com/restaurants/243986FS-%E0%B8%95%E0%B8%B4%E0%B8%94%E0%B8%99%E0%B8%A1%E0%B9%80%E0%B8%A5%E0%B8%A2-%E0%B9%80%E0%B8%8A%E0%B8%B5%E0%B8%A2%E0%B8%87%E0%B8%84%E0%B8%B2%E0%B8%99,https://web.facebook.com/TidNomLoei/?_rdc=1&_rdr,17.895838,101.655697,781385.9303,1980666.42,เชียงคาน,เชียงคาน
99,ร้านแม่งามอิ่มอร่อย ,ร้านอาหาร,,,อาหารเช้า กาแฟ,ทุกวัน 06:00 - 22:00 น.,09 3365 4230  ,09 8150 7588,,https://www.wongnai.com/listings/chiangkhan-good-view-restaurants,https://www.facebook.com/%E0%B8%A3%E0%B9%89%E0%B8%B2%E0%B8%99%E0%B9%81%E0%B8%A1%E0%B9%88%E0%B8%87%E0%B8%B2%E0%B8%A1%E0%B8%AD%E0%B8%B4%E0%B9%88%E0%B8%A1%E0%B8%AD%E0%B8%A3%E0%B9%88%E0%B8%AD%E0%B8%A2-%E0%B8%82%E0%B9%89%E0%B8%B2%E0%B8%A7%E0%B9%80%E0%B8%9B%E0%B8%B5%E0%B8%A2%E0%B8%81%E0%B9%80%E0%B8%AA%E0%B9%89%E0%B8%99-%E0%B9%82%E0%B8%88%E0%B9%8A%E0%B8%81%E0%B8%AB%E0%B8%A1%E0%B8%B9-%E0%B9%84%E0%B8%82%E0%B9%88%E0%B8%81%E0%B8%A3%E0%B8%B0%E0%B8%97%E0%B8%B0-108734157632696/,17.89624434,101.6571527,781539.6191,1980713.615,เชียงคาน,เชียงคาน
100,จุ่มนัวยายพัด เชียงคาน,ร้านอาหาร,,,สุกี้ลาว,จันทร์ - เสาร์ เวลา 07.00 - 15.00 น. หยุดวันอาทิตย์,0 4282 2079,,,https://www.wongnai.com/restaurants/148250wx-%E0%B8%88%E0%B8%B8%E0%B9%88%E0%B8%A1%E0%B8%99%E0%B8%B1%E0%B8%A7-%E0%B8%A2%E0%B8%B2%E0%B8%A2%E0%B8%9E%E0%B8%B1%E0%B8%94,https://www.facebook.com/suttinant26/,17.89485296,101.654921,781305.2146,1980556.172,เชียงคาน,เชียงคาน
101,เดอะ มาส์ก (The MASK Chill Bar & Relaxing),ร้านอาหาร,,,อาหาร สเต๊ก เครื่องดื่ม,ทุกวัน 12.00 - 23.00 น. หยุดวันอังคาร,08 8692 4416  ,06 2923 6559,,https://www.wongnai.com/restaurants/247606ib-the-mask-chill-bar-relaxing,https://www.facebook.com/Themaskbarchiangkhansoi9/,17.89397496,101.6544318,781254.7407,1980458.21,เชียงคาน,เชียงคาน
102,Smile @ ChiangKhan ,ร้านอาหาร,,,อาหาร เครื่องดื่ม,ทุกวัน 11:00 - 22:00 น. หยุดวันจันทร์,08 8563 6377,,,https://www.wongnai.com/articles/smile-at-chiangkhan-loey,https://www.facebook.com/smileatchiangkhan/,17.89295703,101.6477033,780542.9969,1980335.344,เชียงคาน,เชียงคาน
103,ระเบียงริมโขง เชียงคาน,ร้านอาหาร,,,อาหาร เครื่องดื่ม,ทุกวัน 11.00 - 22.00 น.,08 7952 5758,,,,https://www2.edtguide.com/index.php/www/eat/65576/rabiang-rim-kong,17.89530156,101.6543105,781239.7807,1980604.924,เชียงคาน,เชียงคาน
104,จิตส้มตำไก่ย่าง เชียงคาน,ร้านอาหาร,,,อาหาร,ทุกวัน 08.00 - 18.00 น.,08 5752 8887,,,https://www.wongnai.com/restaurants/12933kz-%E0%B8%88%E0%B8%B4%E0%B8%95%E0%B8%AA%E0%B9%89%E0%B8%A1%E0%B8%95%E0%B8%B3,https://www.facebook.com/jitsomtam/,17.89591119,101.6618497,782038.1056,1980683.833,เชียงคาน,เชียงคาน
105,ซุมกันประชามิตร เชียงคาน,ร้านอาหาร,,,อาหารเช้า อาหารตามสั่ง เกาเหลาต้มเลือดหมู โจ๊ก,ทุกวัน 07.00 - 19.30 น.,0 4282 1051  ,08 1964 6407,,https://www.wongnai.com/restaurants/18078Tq-%E0%B8%84%E0%B8%A3%E0%B8%B1%E0%B8%A7%E0%B8%8B%E0%B8%B8%E0%B8%A1%E0%B8%81%E0%B8%B1%E0%B8%99,https://www.facebook.com/%E0%B8%A3%E0%B9%89%E0%B8%B2%E0%B8%99%E0%B8%8B%E0%B8%B8%E0%B8%A1%E0%B8%81%E0%B8%B1%E0%B8%99%E0%B8%9B%E0%B8%A3%E0%B8%B0%E0%B8%8A%E0%B8%B2%E0%B8%A1%E0%B8%B4%E0%B8%95%E0%B8%A3-176063699655488/,17.89354203,101.6544555,781257.9303,1980410.307,เชียงคาน,เชียงคาน
106,อร่อยจังเลย เชียงคาน,ร้านอาหาร,,,อาหารตามสั่ง,ทุกวัน 09.00 - 21.00 น.,08 2226 4554  ,08 2226 4004,,https://www2.edtguide.com/index.php/www/eat/424172/Aroychang-Leoi-Restaurant,https://www.facebook.com/%E0%B8%84%E0%B8%A3%E0%B8%B1%E0%B8%A7%E0%B8%AD%E0%B8%A3%E0%B9%88%E0%B8%AD%E0%B8%A2%E0%B8%88%E0%B8%B1%E0%B8%87%E0%B9%80%E0%B8%A5%E0%B8%A2-Aroy-Chang-Loei-Restaurant-107716087229834/,17.89576044,101.6585427,781687.747,1980662.134,เชียงคาน,เชียงคาน
107,ลุงมุขปาท่องโก๋ยัดไส้ (แม่อรุณศรี) เชียงคาน,ร้านอาหาร,,,เครื่องดื่ม ขนมหวาน,ทุกวัน 04.00 - 09.00 น. และ 17.00 - 21.00 น.,08 5743 5394,,,https://www.wongnai.com/reviews/43babdccbddc49019b5d523afa3f6dd8,https://www.facebook.com/%E0%B8%9B%E0%B8%B2%E0%B8%97%E0%B9%88%E0%B8%AD%E0%B8%87%E0%B9%82%E0%B8%81%E0%B9%8B%E0%B8%A2%E0%B8%B1%E0%B8%94%E0%B9%84%E0%B8%AA%E0%B9%89-%E0%B8%AA%E0%B8%B9%E0%B8%95%E0%B8%A3%E0%B8%A5%E0%B8%B8%E0%B8%87%E0%B8%A1%E0%B8%B8%E0%B8%82-369803790098071/,17.89222902,101.6552271,781341.81,1980266.08,เชียงคาน,เชียงคาน
108,ป้าบัวหวานข้าวปุ้นน้ำแจ่ว เชียงคาน,ร้านอาหาร,,,อาหารเช้า ขนมปัง กาแฟ,ทุกวัน 07.30 - 12.00 น.,0 4282 1404,08 3418 9809,,,https://www.wongnai.com/restaurants/93499qr-%E0%B8%82%E0%B9%89%E0%B8%B2%E0%B8%A7%E0%B8%9B%E0%B8%B8%E0%B9%89%E0%B8%99%E0%B8%99%E0%B9%89%E0%B8%B3%E0%B9%81%E0%B8%88%E0%B9%88%E0%B8%A7%E0%B8%9B%E0%B9%89%E0%B8%B2%E0%B8%9A%E0%B8%B1%E0%B8%A7%E0%B8%AB%E0%B8%A7%E0%B8%B2%E0%B8%99,17.89315979,101.6572785,781557.8222,1980372.246,เชียงคาน,เชียงคาน
109,อันจัง บุฟเฟต์หมูกระทะ,ร้านอาหาร,,,บุฟเฟต์หมูกระทะ,ทุกวัน 09.00 - 22.00 น.,08 8550 9254,,,https://food.trueid.net/detail/7qyQOBa44rmq,https://www.facebook.com/%E0%B8%A3%E0%B9%89%E0%B8%B2%E0%B8%99%E0%B8%AD%E0%B8%B1%E0%B8%99%E0%B8%88%E0%B8%B1%E0%B8%87%E0%B8%9A%E0%B8%B8%E0%B8%9F%E0%B9%80%E0%B8%9F%E0%B8%95%E0%B9%8C%E0%B8%AB%E0%B8%A1%E0%B8%B9%E0%B8%81%E0%B8%A3%E0%B8%B0%E0%B8%97%E0%B8%B0-%E0%B8%AA%E0%B8%B2%E0%B8%82%E0%B8%B2%E0%B8%AD%E0%B8%B3%E0%B9%80%E0%B8%A0%E0%B8%AD%E0%B9%80%E0%B8%8A%E0%B8%B5%E0%B8%A2%E0%B8%87%E0%B8%84%E0%B8%B2%E0%B8%99-%E0%B8%88%E0%B8%B1%E0%B8%87%E0%B8%AB%E0%B8%A7%E0%B8%B1%E0%B8%94%E0%B9%80%E0%B8%A5%E0%B8%A2-183668019232759/,17.864719,101.6556365,781428.587,1977220.463,เชียงคาน,เชียงคาน
110,เฮือนพัดโบก,ร้านอาหาร,,,อาหาร เครื่องดื่ม บริการห้องพัก,ทุกวัน 09.00 - 17.30 น.,09 5916 8392,09 8353 5639,08 4514 0624,https://www.wongnai.com/restaurants/462531Ff-%E0%B9%80%E0%B8%AE%E0%B8%B7%E0%B8%AD%E0%B8%99%E0%B8%9E%E0%B8%B1%E0%B8%94%E0%B9%82%E0%B8%9A%E0%B8%81,https://www.facebook.com/PUDBOK-COFFEE-238896623246653/,17.89352502,101.6516166,780956.9801,1980404.138,เชียงคาน,เชียงคาน
111,ครัวนุชา (เชียงคานฮิลล์รีสอร์ท) ,ร้านอาหาร,,,อาหาร เครื่องดื่ม บริการห้องพัก,ทุกวัน 11.00 - 20.00 น.,08 1860 8810,09 4591 5251,,https://www.wongnai.com/restaurants/93409ks-%E0%B8%84%E0%B8%A3%E0%B8%B1%E0%B8%A7%E0%B8%99%E0%B8%B8%E0%B8%8A%E0%B8%B2-%E0%B9%80%E0%B8%8A%E0%B8%B5%E0%B8%A2%E0%B8%87%E0%B8%84%E0%B8%B2%E0%B8%99%E0%B8%AE%E0%B8%B4%E0%B8%A5%E0%B8%A5%E0%B9%8C%E0%B8%A3%E0%B8%B5%E0%B8%AA%E0%B8%AD%E0%B8%A3%E0%B9%8C%E0%B8%97,https://www.facebook.com/chiangkhanhill/posts/1919322341453340/,17.90635766,101.7012838,786202.1143,1981900.799,เชียงคาน,เชียงคาน
112,เฮือนข้าวฟ่าง เชียงคาน ริเวอร์ กรีน ฮิลล์ ,ร้านอาหาร,,,อาหารไทย-พื้นเมือง บริการห้องพัก,ทุกวัน 11.00 – 21.00 น. ,0 4203 9600  ,06 1019 6660 ,,https://www.wongnai.com/restaurants/305953oY-%E0%B9%80%E0%B8%AE%E0%B8%B7%E0%B8%AD%E0%B8%99%E0%B8%82%E0%B9%89%E0%B8%B2%E0%B8%A7%E0%B8%9F%E0%B9%88%E0%B8%B2%E0%B8%87-%E0%B9%80%E0%B8%8A%E0%B8%B5%E0%B8%A2%E0%B8%87%E0%B8%84%E0%B8%B2%E0%B8%99-%E0%B8%A3%E0%B8%B4%E0%B9%80%E0%B8%A7%E0%B8%AD%E0%B8%A3%E0%B9%8C-%E0%B8%81%E0%B8%A3%E0%B8%B5%E0%B8%99-%E0%B8%AE%E0%B8%B4%E0%B8%A5%E0%B8%A5%E0%B9%8C,https://www.facebook.com/chiangkhanrivergreenhill/,17.89754265,101.7163351,787812.0089,1980947.866,เชียงคาน,เชียงคาน
113,เหลียวแล เชียงคาน,ร้านอาหาร,,,อาหาร,จันทร์ - ศุกร์ 11.00 - 21.30 น. เสาร์ - อาทิตย์ 16.00 - 21.30 น.,08 6240 2350,,,https://www.wongnai.com/restaurants/93497vF-%E0%B8%84%E0%B8%A3%E0%B8%B1%E0%B8%A7%E0%B9%80%E0%B8%AB%E0%B8%A5%E0%B8%B5%E0%B8%A2%E0%B8%A7%E0%B9%81%E0%B8%A5,https://www.facebook.com/%E0%B9%80%E0%B8%AB%E0%B8%A5%E0%B8%B5%E0%B8%A2%E0%B8%A7%E0%B9%81%E0%B8%A5-104119367638592/,17.89653097,101.658364,781667.5823,1980747.186,เชียงคาน,เชียงคาน
114,ตำลืมผัว ชิดฮิมโขง เชียงคาน,ร้านอาหาร,,,อาหาร เครื่องดื่ม,ทุกวัน 07.00 - 21.00 น.,08 9093 3017,,,https://www.wongnai.com/restaurants/373889Ts-%E0%B8%95%E0%B8%B3%E0%B8%A5%E0%B8%B7%E0%B8%A1%E0%B8%9C%E0%B8%B1%E0%B8%A7-%E0%B8%8A%E0%B8%B4%E0%B8%94%E0%B8%AE%E0%B8%B4%E0%B8%A1%E0%B9%82%E0%B8%82%E0%B8%87-%E0%B9%80%E0%B8%8A%E0%B8%B5%E0%B8%A2%E0%B8%87%E0%B8%84%E0%B8%B2%E0%B8%99,https://www.facebook.com/%E0%B8%95%E0%B8%B3%E0%B8%A5%E0%B8%B7%E0%B8%A1%E0%B8%9C%E0%B8%B1%E0%B8%A7-%E0%B8%8A%E0%B8%B4%E0%B8%94%E0%B8%AE%E0%B8%B4%E0%B8%A1%E0%B9%82%E0%B8%82%E0%B8%87%E0%B9%80%E0%B8%8A%E0%B8%B5%E0%B8%A2%E0%B8%87%E0%B8%84%E0%B8%B2%E0%B8%99-105058465103668/,17.89685479,101.659167,781752.207,1980784.258,เชียงคาน,เชียงคาน
115,ข้าวเปียกงอยโขง เชียงคาน,ร้านอาหาร,,,อาหาร,ทุกวัน 10.00 - 21.30 น.,08 0752 2009,,,https://www.wongnai.com/restaurants/147916vt-%E0%B8%87%E0%B8%AD%E0%B8%A2%E0%B9%82%E0%B8%82%E0%B8%87,,17.89543051,101.6542247,781230.4801,1980619.074,เชียงคาน,เชียงคาน
116,ปล่อยแสงผัดไทยสูตรโบราณ เชียงคาน,ร้านอาหาร,,,อาหาร,ทุกวัน 10.00 - 20.30 น.,08 3661 3936,,,https://www.wongnai.com/restaurants/217393Po-%E0%B8%9C%E0%B8%B1%E0%B8%94%E0%B9%84%E0%B8%97%E0%B9%82%E0%B8%9A%E0%B8%A3%E0%B8%B2%E0%B8%93-%E0%B9%80%E0%B8%8A%E0%B8%B5%E0%B8%A2%E0%B8%87%E0%B8%84%E0%B8%B2%E0%B8%99,,17.89489119,101.6535974,781164.8257,1980558.406,เชียงคาน,เชียงคาน
117,ร้านซอยซาวเชียงคาน,ร้านอาหาร,,,อาหาร,ทุกวัน 06.00 – 13.00 น.,0 4282 1314,,,,https://www.chillpainai.com/scoop/10738/,17.89701277,101.6599189,781831.673,1980802.89,เชียงคาน,เชียงคาน
118,เวียงเวียต,ร้านอาหารเวียดนาม,,,อาหารเวียดนาม,ทุกวัน 10:30 - 20:00 น.,08 9009 4345,,,https://www.tripgether.com/%E0%B8%AD%E0%B8%B1%E0%B8%9B%E0%B9%80%E0%B8%94%E0%B8%95%E0%B9%80%E0%B8%A3%E0%B8%B7%E0%B9%88%E0%B8%AD%E0%B8%87%E0%B9%80%E0%B8%97%E0%B8%B5%E0%B9%88%E0%B8%A2%E0%B8%A7/9-%E0%B8%A3%E0%B9%89%E0%B8%B2%E0%B8%99%E0%B8%99%E0%B9%88%E0%B8%B2%E0%B8%99%E0%B8%B1%E0%B9%88%E0%B8%87%E0%B9%80%E0%B8%8A%E0%B8%B5%E0%B8%A2%E0%B8%87%E0%B8%84%E0%B8%B2%E0%B8%99-%E0%B8%9A%E0%B8%A3%E0%B8%A3%E0%B8%A2%E0%B8%B2%E0%B8%81%E0%B8%B2%E0%B8%A8%E0%B8%94%E0%B8%B5-%E0%B8%A3%E0%B8%AA%E0%B8%8A%E0%B8%B2%E0%B8%95%E0%B8%B4%E0%B9%80%E0%B8%A7%E0%B8%A3%E0%B8%B5%E0%B9%88%E0%B8%81%E0%B8%B9%E0%B9%8A%E0%B8%94-%E0%B8%A1%E0%B8%B2%E0%B8%96%E0%B8%B6%E0%B8%87%E0%B9%80%E0%B8%8A%E0%B8%B5%E0%B8%A2%E0%B8%87%E0%B8%84%E0%B8%B2%E0%B8%99%E0%B9%81%E0%B8%A5%E0%B9%89%E0%B8%A7%E0%B8%95%E0%B9%89%E0%B8%AD%E0%B8%87%E0%B8%AB%E0%B9%89%E0%B8%B2%E0%B8%A1%E0%B8%9E%E0%B8%A5%E0%B8%B2%E0%B8%94/,https://www.facebook.com/ViengViet2323/,17.89657955,101.6582702,781657.5687,1980752.424,เชียงคาน,เชียงคาน
119,อิ่มอร่อยสมใจ,ร้านอาหารเวียดนาม,,,ข้าวเปียกเส้น โจ้ก ไข่กระทะ ยำหมูยอ ,"อังคาร - อาทิตย์ 16:00 - 22:00 น. 
",09 6239 6498,,,https://www.wongnai.com/restaurants/144962HZ-%E0%B8%AD%E0%B8%B4%E0%B9%88%E0%B8%A1%E0%B8%AD%E0%B8%A3%E0%B9%88%E0%B8%AD%E0%B8%A2%E0%B8%AA%E0%B8%A1%E0%B9%83%E0%B8%88,https://www.facebook.com/wanlada18/,17.89646504,101.6580838,781637.9838,1980739.461,เชียงคาน,เชียงคาน
120,ซุปจักรพรรดิ เชียงคาน ,ร้านอาหารจีน,,,ซุป ติ่มซำ,ทุกวัน 16.00 - 22.00 น. หยุดวันอังคาร,08 6222 7655,,,https://www.wongnai.com/listings/chiangkhan-good-view-restaurants,https://m.facebook.com/SoupJakkaphat/?locale2=th_TH,17.8961604,101.6569157,781514.6222,1980703.962,เชียงคาน,เชียงคาน
121,ครัวศรีพรรณ,ร้านอาหารตามสั่ง,,,อาหารตามสั่ง,ทุกวัน 10:00 - 22:00 น.,0 4282 1797,,,https://www.wongnai.com/restaurants/120346mR-%E0%B8%84%E0%B8%A3%E0%B8%B1%E0%B8%A7%E0%B8%A8%E0%B8%A3%E0%B8%B5%E0%B8%9E%E0%B8%A3%E0%B8%A3%E0%B8%93,https://www.facebook.com//sripanrestaurant01/,17.896109,101.65615,781433.5285,1980697.113,เชียงคาน,เชียงคาน
122,ต้องมาโดน เล่าปั่น,ร้านอาหารตามสั่ง,ร้านอาหารริมน้ำ,,อาหาร เครื่องดื่ม,ทุกวัน 17:00 - 22:00 น. หยุดวันพุธ,08 1570 8577,,,https://www.wongnai.com/restaurants/141130wp-ต้องมาโดน-เล่าปั่น,https://web.facebook.com/TongMaDon/?_rdc=1&_rdr,17.895891,101.655247,781338.1387,1980671.608,เชียงคาน,เชียงคาน
123,เฟื่องฟ้า บะหมี่โบราณ,ร้านอาหารตามสั่ง,,,อาหารตามสั่ง ก๋วยเตี๋ยว,ทุกวัน 07:00 - 15:30 น.,09 0665 7210,,,,https://www.facebook.com/fuengfahnoodlebar/,17.89378084,101.6549527,781310.2676,1980437.502,เชียงคาน,เชียงคาน
124,ร้านบ้านเชฟ,ร้านอาหารตามสั่ง,อาหารฟิวชั่น,เบเกอรี/เค้ก,อาหาร ขนมหวาน เบเกอรี่,"ทุกวัน 12:00 - 21:00 น. หยุดวันอังคาร
",08 6563 9345,,,https://www.wongnai.com/restaurants/157626Ck-กินเส้นเด้-กินข้าวเด้อ,https://www.facebook.com/people/%E0%B8%9A%E0%B9%89%E0%B8%B2%E0%B8%99%E0%B9%80%E0%B8%8A%E0%B8%9F-%E0%B8%8B%E0%B8%AD%E0%B8%A2%E0%B8%AA%E0%B8%B4%E0%B8%9A%E0%B8%9A%E0%B8%99-%E0%B9%80%E0%B8%8A%E0%B8%B5%E0%B8%A2%E0%B8%87%E0%B8%84%E0%B8%B2%E0%B8%99/100052470007109/,17.89359723,101.6552906,781346.3815,1980417.68,เชียงคาน,เชียงคาน
125,บ้านยายชุม ข้าวขาหมูโบราณ,ร้านอาหารตามสั่ง,,,อาหาร,ทุกวัน 10:00 - 22:00 น.,08 5008 2097,,,,https://www.wongnai.com/restaurants/187746yY-บ้านยายชุม-ข้าวขาหมูโบราณ,17.89419548,101.6528126,781082.7203,1980480.184,เชียงคาน,เชียงคาน
126,เฮือนหลวงพระบาง,ร้านอาหารพื้นเมืองเชียงคาน ,,,ร้านอาหาร กุญเชียง OTOP,ทุกวัน 11:00 - 15:00 น. 17:00 - 22:00 น. ,08 9009 4345,,,https://www.wongnai.com/restaurants/48087Eu-%E0%B9%80%E0%B8%AE%E0%B8%B7%E0%B8%AD%E0%B8%99%E0%B8%AB%E0%B8%A5%E0%B8%A7%E0%B8%87%E0%B8%9E%E0%B8%A3%E0%B8%B0%E0%B8%9A%E0%B8%B2%E0%B8%87,https://web.facebook.com/Heonluangprabang/?_rdc=1&_rdr,17.89582512,101.6554632,781361.1664,1980664.64,เชียงคาน,เชียงคาน
127,ลุกโภชนา เชียงคาน สาขา 1,ร้านอาหารพื้นเมืองเชียงคาน ,,,อาหาร,ทุกวัน เวลา 06.00 - 11.00 น. และ 17.00 - 21.00 น.,08 8059 5228    ,0 4282 1251,,https://www.wongnai.com/restaurants/93502QE-%E0%B8%A5%E0%B8%B8%E0%B8%81%E0%B9%82%E0%B8%A0%E0%B8%8A%E0%B8%99%E0%B8%B2,http://www.facebook.com/ลุก โภชนา,17.89452931,101.6541929,781228.5283,1980519.233,เชียงคาน,เชียงคาน
128,ลุกโภชนา เชียงคาน สาขา 2 @รีสอร์ท,ร้านอาหารพื้นเมืองเชียงคาน ,,,อาหาร,ทุกวัน 10.00  - 21.00 น.  ,08 7199 2625,,,https://locanfy.com/th/-407566000.html,http://www.facebook.com/ลุก โภชนา,,,,,เชียงคาน,เชียงคาน
129,เจอเลย มินิบาร์,ร้านอาหารริมน้ำ,,,อาหาร เครื่องดื่ม,ศุกร์ - อาทิตย์ 17.00 - 23.00 น.,06 2893 6887,,,https://www.wongnai.com/restaurants/186579YD-เจอเลย,https://www.facebook.com/pages/เจอเลย-มินิบาร์/587565654681988,17.89502882,101.6539441,781201.365,1980574.17,เชียงคาน,เชียงคาน
130,ครัวริเวอร์ไซด์ เชียงคาน,ร้านอาหารริมน้ำ,,,อาหาร บริการห้องพัก,ทุกวัน 10:00 - 21:00 น.,08 4336 7525,,,https://www.wongnai.com/restaurants/400588cM-%E0%B8%84%E0%B8%A3%E0%B8%B1%E0%B8%A7%E0%B8%A3%E0%B8%B4%E0%B9%80%E0%B8%A7%E0%B8%AD%E0%B8%A3%E0%B9%8C%E0%B9%84%E0%B8%8B%E0%B8%94%E0%B9%8C-%E0%B9%80%E0%B8%8A%E0%B8%B5%E0%B8%A2%E0%B8%87%E0%B8%84%E0%B8%B2%E0%B8%99-%E0%B9%80%E0%B8%8A%E0%B8%B5%E0%B8%A2%E0%B8%87%E0%B8%84%E0%B8%B2%E0%B8%99,https://www.facebook.com/Riversideck/,17.90823716,101.688384,784831.5432,1982089.132,เชียงคาน,เชียงคาน
131,นั่งเล่นเล่น เชียงคาน,ร้านอาหารริมน้ำ,,,อาหาร,ทุกวัน 16.00 - 22.00 น.,08 0744 8887,,,https://www.wongnai.com/restaurants/156522eo-%E0%B8%99%E0%B8%B1%E0%B9%88%E0%B8%87%E0%B9%80%E0%B8%A5%E0%B9%88%E0%B8%99%E0%B9%80%E0%B8%A5%E0%B9%88%E0%B8%99,,17.89677592,101.657328,781557.3602,1980772.743,เชียงคาน,เชียงคาน
132,กลุ่มสตรีอาหารพื้นเมือง,ร้านอาหารริมน้ำ,,,อาหาร,ทุกวัน 08:00 - 18:00 น.,09 3342 1458,,,https://www.wongnai.com/restaurants/148739jR-%E0%B8%81%E0%B8%A5%E0%B8%B8%E0%B9%88%E0%B8%A1%E0%B8%AA%E0%B8%95%E0%B8%A3%E0%B8%B5%E0%B8%AD%E0%B8%B2%E0%B8%AB%E0%B8%B2%E0%B8%A3%E0%B8%9E%E0%B8%B7%E0%B9%89%E0%B8%99%E0%B9%80%E0%B8%A1%E0%B8%B7%E0%B8%AD%E0%B8%87,https://web.facebook.com/Kaengkudku2536/?_rdc=1&_rdr,17.90794177,101.7013779,786209.5393,1982076.36,เชียงคาน,เชียงคาน
133,กลุ่มแพแม่บ้านห้วยกระทิง,ร้านอาหารริมน้ำ,,,อาหาร,ทุกวัน 09:00 - 18:00 น.,08 7223 0785,,,https://www.wongnai.com/restaurants/188375Fb-%E0%B8%81%E0%B8%A5%E0%B8%B8%E0%B9%88%E0%B8%A1%E0%B9%81%E0%B8%9E%E0%B9%81%E0%B8%A1%E0%B9%88%E0%B8%9A%E0%B9%89%E0%B8%B2%E0%B8%99%E0%B8%AB%E0%B9%89%E0%B8%A7%E0%B8%A2%E0%B8%81%E0%B8%A3%E0%B8%B0%E0%B8%97%E0%B8%B4%E0%B8%87-%E0%B8%AB%E0%B9%89%E0%B8%A7%E0%B8%A2%E0%B8%81%E0%B8%A3%E0%B8%B0%E0%B8%97%E0%B8%B4%E0%B8%87,https://web.facebook.com/pages/category/Business-Service/%E0%B8%A5%E0%B9%88%E0%B8%AD%E0%B8%87%E0%B9%81%E0%B8%9E-%E0%B8%81%E0%B8%A5%E0%B8%B8%E0%B9%88%E0%B8%A1%E0%B9%81%E0%B8%9E%E0%B9%81%E0%B8%A1%E0%B9%88%E0%B8%9A%E0%B9%89%E0%B8%B2%E0%B8%99%E0%B8%AB%E0%B9%89%E0%B8%A7%E0%B8%A2%E0%B8%81%E0%B8%A3%E0%B8%B0%E0%B8%97%E0%B8%B4%E0%B8%87-%E0%B9%81%E0%B8%AB%E0%B8%A5%E0%B9%88%E0%B8%87%E0%B8%97%E0%B9%88%E0%B8%AD%E0%B8%87%E0%B9%80%E0%B8%97%E0%B8%B5%E0%B9%88%E0%B8%A2%E0%B8%A7-%E0%B8%88-%E0%B9%80%E0%B8%A5%E0%B8%A2-1256006877779616/?_rdc=1&_rdr,17.50393548,101.6032883,776429.6437,1937194.018,เชียงคาน,เชียงคาน
134,ครัวโพธิ์ทอง,ร้านอาหารอีสาน,,,อาหารตามสั่ง,ทุกวัน 10:00 - 22:00 น.,08 0632 6451   ,09 5171 6287,0 4203 4844,https://www.wongnai.com/restaurants/124567YC-%E0%B8%84%E0%B8%A3%E0%B8%B1%E0%B8%A7%E0%B9%82%E0%B8%9E%E0%B8%98%E0%B8%B4%E0%B9%8C%E0%B8%97%E0%B8%AD%E0%B8%87,https://web.facebook.com/pages/category/Deli/%E0%B8%84%E0%B8%A3%E0%B8%B1%E0%B8%A7%E0%B9%82%E0%B8%9E%E0%B8%98%E0%B8%B4%E0%B9%8C%E0%B8%97%E0%B8%AD%E0%B8%87-%E0%B9%80%E0%B8%8A%E0%B8%B5%E0%B8%A2%E0%B8%87%E0%B8%84%E0%B8%B2%E0%B8%99-286732928179246/?_rdc=1&_rdr,17.880648,101.655433,781381.9038,1978984.002,เชียงคาน,เชียงคาน
135,ติ้งตำซั่ว เชียงคาน,ร้านอาหารอีสาน,,,อาหาร,ทุกวัน 10.00 - 17.00 น.,082 737 1996,,,https://www.wongnai.com/reviews/78d8290f966f4f44bc6f585d03bd6c61,https://www.facebook.com/profile.php?id=100057033086732,17.89554344,101.6615438,782006.2566,1980642.647,เชียงคาน,เชียงคาน
136,เฮือนฝ้ายคำ,ร้านอาหารอีสาน,,,อาหารตามสั่ง,ทุกวัน 10:00 - 22:00 น.,0 4282 2109,08 1808 2826,08 1618 5964,https://www.wongnai.com/restaurants/50236dn-เฮือนฝ้ายคำ,https://web.facebook.com/heonfaicome/?_rdc=1&_rdr,17.896275,101.656538,781474.4011,1980716.081,บุฮม,เชียงคาน
137,ครัวเข็มทอง,ร้านอาหารตามสั่ง,ร้านคาเฟ่,,อาหารตามสั่ง ,ทุกวัน 08:00 - 18:00 น., 088 560 2862,,,https://www.wongnai.com/restaurants/93430eQ-%E0%B8%84%E0%B8%A3%E0%B8%B1%E0%B8%A7%E0%B9%80%E0%B8%82%E0%B9%87%E0%B8%A1%E0%B8%97%E0%B8%AD%E0%B8%87,https://www.facebook.com/Khruakhemthongloei/,17.10291129,101.1723735,731154.0149,1892228.816,โป่ง,ด่านซ้าย
138,ครัวแม่คำพัน,ร้านอาหารอีสาน,,,"อาหาร, เครื่องดื่ม",ทุกวัน 08:00 - 18:00 น. ,087 217 8104,,,https://www.wongnai.com/restaurants/183985el-%E0%B8%84%E0%B8%A3%E0%B8%B1%E0%B8%A7-%E0%B9%81%E0%B8%A1%E0%B9%88%E0%B8%84%E0%B8%B3%E0%B8%9E%E0%B8%B1%E0%B8%99-%E0%B8%9E%E0%B9%88%E0%B8%AD%E0%B8%A1%E0%B9%82%E0%B8%99,,17.26710617,101.1363801,727122.2781,1910361.312,ด่านซ้าย,ด่านซ้าย
139,ฮัก ณ สะบายดี ,ร้านอาหาร,,,"อาหาร, เครื่องดื่ม",ทุกวัน 11:00 - 21:00 น.,081 051 0555,,,https://www.wongnai.com/restaurants/249682Eu-%E0%B8%AE%E0%B8%B1%E0%B8%81-%E0%B8%93-%E0%B8%AA%E0%B8%B0%E0%B8%9A%E0%B8%B2%E0%B8%A2%E0%B8%94%E0%B8%B5,https://www.facebook.com/Hugsabaidee/,17.27907053,101.1656724,730222.7448,1911720.422,ด่านซ้าย,ด่านซ้าย
140,ส้มตำป้าวัลย์,ร้านอาหารอีสาน,,,อาหาร,ทุกวัน 09:00 - 16:00 น.,"090 -​ 3530810, 084 -​ 3616853",,,https://www.wongnai.com/restaurants/121032RU-%E0%B8%AA%E0%B9%89%E0%B8%A1%E0%B8%95%E0%B8%B3%E0%B8%9B%E0%B9%89%E0%B8%B2%E0%B8%A7%E0%B8%B1%E0%B8%A5%E0%B8%A2%E0%B9%8C,,17.28243213,101.1429446,727801.5791,1912065.519,ด่านซ้าย,ด่านซ้าย
141,เจ้น้อยส้มตำ,ร้านอาหารอีสาน,,,อาหาร,ทุกวัน 07:00 - 17:00 น.,"091-367-1500, 063 123 0081",,,https://www.wongnai.com/restaurants/12963SD-%E0%B9%80%E0%B8%88%E0%B9%89%E0%B8%99%E0%B9%89%E0%B8%AD%E0%B8%A2%E0%B8%AA%E0%B9%89%E0%B8%A1%E0%B8%95%E0%B8%B3,https://web.facebook.com/people/%E0%B9%80%E0%B8%88%E0%B9%8A%E0%B8%99%E0%B9%89%E0%B8%AD%E0%B8%A2%E0%B8%AA%E0%B9%89%E0%B8%A1%E0%B8%95%E0%B8%B3%E0%B9%81%E0%B8%8B%E0%B8%9A%E0%B9%81%E0%B8%97%E0%B9%89%E0%B9%86%E0%B9%81%E0%B8%99%E0%B9%89%E0%B8%A7-%E0%B8%94%E0%B9%88%E0%B8%B2%E0%B8%99%E0%B8%8B%E0%B9%89%E0%B8%B2%E0%B8%A2/100004776096965?_rdc=1&_rdr,17.27559229,101.1593921,729559.1599,1911327.914,ด่านซ้าย,ด่านซ้าย
142,ครัวคุณนาย,ร้านอาหารจานเดียว,ร้านอาหารตามสั่ง,,อาหารตามสั่ง (เป็นโฮมสเตย์คาดว่าจะเปิดปีหน้า),ทุกวัน 08:00 - 21:00 น.,081 261 5089,,,https://www.wongnai.com/restaurants/370146PQ-%E0%B8%84%E0%B8%A3%E0%B8%B1%E0%B8%A7%E0%B8%84%E0%B8%B8%E0%B8%93%E0%B8%99%E0%B8%B2%E0%B8%A2,https://web.facebook.com/KunnaiHomestay?_rdc=1&_rdr,17.273755,101.148634,728417.3172,1911111.76,ด่านซ้าย,ด่านซ้าย
143,ด่านซ้ายส้มตำ,ร้านอาหารอีสาน,,,อาหาร,ทุกวัน 06:00 - 15:00 น.,087-2150019,,,https://www.wongnai.com/restaurants/125229vo-%E0%B8%94%E0%B9%88%E0%B8%B2%E0%B8%99%E0%B8%8B%E0%B9%89%E0%B8%B2%E0%B8%A2%E0%B8%AA%E0%B9%89%E0%B8%A1%E0%B8%95%E0%B8%B3,,17.27946,101.146538,728187.3792,1911740.778,ด่านซ้าย,ด่านซ้าย
144,ส้มตำเจ้าจอม ,ร้านอาหารอีสาน,,,อาหาร,ทุกวัน 06:00 - 15:00 น.,087 223 7951,,,https://www.wongnai.com/restaurants/93607vn-%E0%B8%AA%E0%B9%89%E0%B8%A1%E0%B8%95%E0%B8%B3%E0%B9%80%E0%B8%88%E0%B9%89%E0%B8%B2%E0%B8%88%E0%B8%AD%E0%B8%A1,https://www.facebook.com/Jomjai28/,17.2726613,101.1444871,727977.6461,1910985.787,ด่านซ้าย,ด่านซ้าย
145,ร้านอาหารฮักนะสบายดี,ร้านอาหาร,,,"อาหาร, เครื่องดื่ม",ทุกวัน 10:30 – 21:00 น.,081 051 0555,,,https://www.wongnai.com/restaurants/249682Eu-%E0%B8%AE%E0%B8%B1%E0%B8%81-%E0%B8%93-%E0%B8%AA%E0%B8%B0%E0%B8%9A%E0%B8%B2%E0%B8%A2%E0%B8%94%E0%B8%B5,https://www.facebook.com/Hugsabaidee/,17.27908217,101.1656705,730222.526,1911721.709,ด่านซ้าย,ด่านซ้าย
146,ช่างเหิม food&folk,ร้านอาหาร,,,"อาหาร, สเต็ก",ทุกวัน 11:00 - 16:00 น. หยุดทุกวันจันทร์ และวันอาทิตย์,095 662 7997,,,,https://www.facebook.com/hermfolk/,17.27830082,101.1416331,727667.1849,1911606.665,ด่านซ้าย,ด่านซ้าย
147,ชามา คาเฟ่,ร้านคาเฟ่,,,"อาหาร, เครื่องดื่ม",ทุกวัน 09:00 - 17:00 น.,061 169 4825,,,,https://www.facebook.com/%E0%B8%8A%E0%B8%B2%E0%B8%A1%E0%B8%B2-%E0%B8%84%E0%B8%B2%E0%B9%80%E0%B8%9F%E0%B9%88-115714939983552/,17.31815031,101.148825,728382.8075,1916026.224,นาหอ,ด่านซ้าย
148,ลานนา คาเฟ่ ภูเรือ,ร้านอาหาร,,,อาหาร เครื่องดื่ม,ทุกวัน 08:00 - 17:00 น. (โซนคาเฟ่) 11:00 - 20:00 น. (อาหาร),06 1153 9363,,,https://th.worldorgs.com/%E0%B9%81%E0%B8%84%E0%B8%95%E0%B8%95%E0%B8%B2%E0%B8%A5%E0%B9%87%E0%B8%AD%E0%B8%81/%E0%B8%AD%E0%B8%B3%E0%B9%80%E0%B8%A0%E0%B8%AD-%E0%B8%A0%E0%B8%B9%E0%B9%80%E0%B8%A3%E0%B8%B7%E0%B8%AD/%E0%B8%A3%E0%B9%89%E0%B8%B2%E0%B8%99%E0%B8%82%E0%B8%AD%E0%B8%87%E0%B8%AB%E0%B8%A7%E0%B8%B2%E0%B8%99/%E0%B8%A5%E0%B8%B2%E0%B8%99%E0%B8%99%E0%B8%B2-%E0%B8%84%E0%B8%B2%E0%B9%80%E0%B8%9F%E0%B9%88-%E0%B8%A0%E0%B8%B9%E0%B9%80%E0%B8%A3%E0%B8%B7%E0%B8%AD,https://www.facebook.com/%E0%B8%A5%E0%B8%B2%E0%B8%99%E0%B8%99%E0%B8%B2cafe-103567671464042/,17.4552865,101.374355,752175.4484,1931490.195,หนองบัว,ภูเรือ
149,แฟมิลี่ ที คาเฟ่ Family T. Cafe,ร้านคาเฟ่,,,เครื่องดื่ม เค้ก,ทุกวัน 8:00 – 17:00 น.,09 8831 2734,,,,https://www.facebook.com/FamilyT.Cafe/,17.45840186,101.3820836,752992.3811,1931845.324,หนองบัว,ภูเรือ
150,มุมอร่อยไก่ย่างต้นตำรับภูเรือ,ร้านอาหารตามสั่ง,,,อาหารตามสั่ง,ทุกวัน 11:00 - 17:00 น.,08 2163 9453,,,https://www.wongnai.com/restaurants/250806GN-%E0%B8%A1%E0%B8%B8%E0%B8%A1%E0%B8%AD%E0%B8%A3%E0%B9%88%E0%B8%AD%E0%B8%A2-%E0%B8%93%E0%B8%A0%E0%B8%B9%E0%B9%80%E0%B8%A3%E0%B8%B7%E0%B8%AD,https://www.facebook.com/Mumoroi/,17.45575856,101.3948501,754352.5811,1931569.66,หนองบัว,ภูเรือ
151,ไฮน์ไฟน์สเต็กภูเรือ,ร้านอาหารตามสั่ง,,,กาแฟ เบเกอรี่ สเต็ก,ทุกวัน 09:00 - 20:00 น.,08 1940 9185,,,https://www.wongnai.com/restaurants/176098hb-hi-fine-steak-phuruea,https://www.facebook.com/hifinesteak.phurua/,17.45133565,101.4208898,757125.7695,1931114.895,หนองบัว,ภูเรือ
152,ร้านก๋วยเตี๋ยวเรืออาเปา สูตรรังสิต,ร้านก๋วยเตี๋ยว,,,ก๋วยเตี๋ยว,ทุกวัน 09:00 - 15:00 น. หยุดวันพุธ,08 8624 2784,,,,https://m.facebook.com/pg/%E0%B8%AD%E0%B8%B2%E0%B9%80%E0%B8%9B%E0%B8%B2-%E0%B9%80%E0%B8%95%E0%B8%B5%E0%B9%8B%E0%B8%A2%E0%B8%A7%E0%B9%80%E0%B8%A3%E0%B8%B7%E0%B8%AD-At-%E0%B8%AA%E0%B8%A7%E0%B8%99%E0%B8%AA%E0%B8%99-%E0%B8%AD%E0%B8%A0%E0%B8%B9%E0%B9%80%E0%B8%A3%E0%B8%B7%E0%B8%AD-386395638847071/posts/,17.46037976,101.5085259,766425.3777,1932236.453,หนองบัว,ภูเรือ
153,ครัวพวงเพชรภูเรือ,ร้านอาหารตามสั่ง,,,อาหารตามสั่ง,ทุกวัน 06:00 - 18:00 น. ,08 1992 5143 ,08 1962 2570,,https://www.wongnai.com/restaurants/126765Fh-%E0%B8%84%E0%B8%A3%E0%B8%B1%E0%B8%A7%E0%B8%9E%E0%B8%A7%E0%B8%87%E0%B9%80%E0%B8%9E%E0%B8%8A%E0%B8%A3,,17.459363,101.401766,755082.4413,1931977.942,หนองบัว,ภูเรือ
154,ภูเรือไก่ย่าง,ร้านอาหารอีสาน,,,ไก่ย่าง อาหารตามสั่ง,ทุกวัน 08:00 - 20:30 น.,0 4289 9149,09 5657 1444,,https://www.wongnai.com/restaurants/93372MP-ภูเรือไก่ย่าง,https://web.facebook.com/pages/category/Community/%E0%B8%A3%E0%B9%89%E0%B8%B2%E0%B8%99%E0%B8%AD%E0%B8%B2%E0%B8%AB%E0%B8%B2%E0%B8%A3%E0%B8%A0%E0%B8%B9%E0%B9%80%E0%B8%A3%E0%B8%B7%E0%B8%AD%E0%B9%84%E0%B8%81%E0%B9%88%E0%B8%A2%E0%B9%88%E0%B8%B2%E0%B8%87-699724873441030/?_rdc=1&_rdr,17.45002335,101.3593699,750590.3738,1930887.784,หนองบัว,ภูเรือ
155,ภูเรือโภชนา,ร้านอาหารอีสาน,,,อาหารตามสั่ง,ทุกวัน 10:00 - 21:00 น.    ,0 4289 9159,,,https://www.wongnai.com/restaurants/9716ys-ภูเรือโภชนา,https://www.facebook.com/Phuruaphochana/,17.45599447,101.3668343,751375.3512,1931558.649,หนองบัว,ภูเรือ
156,ห้องอาหารภูเรือรีสอร์ท,ร้านก๋วยเตี๋ยว,ร้านปิ้งย่าง,,ก๋วยเตี๋ยว ปิ้งย่าง,ทุกวัน 09:30–15:00 น. (ก๋วยเดี๋ยว) 17:00 - 22:00 น. (บริการปิ้งย่าง),0 4289 9048,09 1068 3157,,https://www.wongnai.com/restaurants/38354Qc-ภูเรือรีสอร์ท,https://web.facebook.com/phuruaresortloei/?_rdc=1&_rdr,17.45829888,101.38298,753087.7689,1931835.112,หนองบัว,ภูเรือ
157,Love เลย Coffee,ร้านคาเฟ่,ร้านอาหารตามสั่ง,รีสอร์ท,อาหาร เครื่องดื่ม ที่พัก,ทุกวัน 07.00 - 18.00 น.,09 8585 2898,06 4327 7788 ,,https://www.wongnai.com/restaurants/144830Kj-love-%E0%B9%80%E0%B8%A5%E0%B8%A2-coffee/reviews,https://web.facebook.com/pages/category/Coffee-Shop/Love-%E0%B9%80%E0%B8%A5%E0%B8%A2-Coffee-%E0%B8%AA%E0%B8%9A%E0%B8%B1%E0%B8%99%E0%B8%87%E0%B8%B2-%E0%B8%A3%E0%B8%B5%E0%B8%AA%E0%B8%AD%E0%B8%A3%E0%B9%8C%E0%B8%97-311014132308364/?_rdc=1&_rdr,17.44700868,101.3369621,748213.4078,1930524.763,หนองบัว,ภูเรือ
158,ครามคีรีคาเฟ่,ร้านกาแฟ/ชา,,,เครื่องดื่ม เค้ก ขนมหวาน,ทุกวัน 08:30 - 19:00 น.,0 4289 9464,,,https://www.wongnai.com/restaurants/khramkeereecafe,https://web.facebook.com/khramkeereecafe?_rdc=1&_rdr,17.44395972,101.3323567,747728.1598,1930181.243,หนองบัว,ภูเรือ
159,ไร่แฟนฉันกาแฟห้อยขา,ร้านคาเฟ่,ลานกางเต็นท์,,เครื่องดื่ม ที่พัก,ทุกวัน 10:00 - 17:00 น.,084 460 2974,,,,https://www.facebook.com/%E0%B9%84%E0%B8%A3%E0%B9%88%E0%B9%81%E0%B8%9F%E0%B8%99%E0%B8%89%E0%B8%B1%E0%B8%99%E0%B8%81%E0%B8%B2%E0%B9%81%E0%B8%9F%E0%B8%AB%E0%B9%89%E0%B8%AD%E0%B8%A2%E0%B8%82%E0%B8%B2-268298035024024/,17.46944892,101.465289,761817.9388,1933180.669,สานตม ,ภูเรือ
160,ร้านอาหารสแตมป์,ร้านอาหารตามสั่ง,,,อาหารตามสั่ง,ทุกวัน 07:00 - 19:00 น.,08 0749 3743,,,https://www.wongnai.com/restaurants/93402jf-%E0%B8%A3%E0%B9%89%E0%B8%B2%E0%B8%99%E0%B8%AD%E0%B8%B2%E0%B8%AB%E0%B8%B2%E0%B8%A3%E0%B9%81%E0%B8%AA%E0%B8%95%E0%B8%A1%E0%B8%9B%E0%B9%8C, https://www.facebook.com/ร้านอาหารแสตมป์-อนาแห้ว-จเลย-1732210800393355/,17.502785,101.064639,719211.572,1936365.216,นาแห้ว,นาแห้ว
161,แมคเลย (กาแฟบ้านบ่อ),ร้านกาแฟ,,,เครื่องดื่ม,ทุกวัน 08:00 - 17:00 น.,09 1935 4926,09 1935 4962 ,,https://www.wongnai.com/restaurants/481813Yp-%E0%B9%81%E0%B8%A1%E0%B8%84%E0%B9%80%E0%B8%A5%E0%B8%A2-%E0%B9%81%E0%B8%A1%E0%B8%84%E0%B9%80%E0%B8%A5%E0%B8%A2-%E0%B9%81%E0%B8%A1%E0%B8%84%E0%B8%84%E0%B8%B2%E0%B9%80%E0%B8%94%E0%B9%80%E0%B8%A1%E0%B8%B5%E0%B8%A2?_st=cD0wO2I9NDgxODEzO2FkPWZhbHNlO3Q9MTYzNzIzOTc2MDg1MDtyaT0xWDdhTDNFOGY4WHBMS1ZKY1hPTXE4NGRGQVBOSk07aT0xWDZ6b016akMyTksxRlBDQXcwdVZqdmxRcmFXOUE7d3JlZj1zcjs%3D,,17.53465866,101.0030811,712636.3329,1939823.368,แสงภา,นาแห้ว
162,แวะเลยโภชนา,ร้านอาหาร,,,อาหารตามสั่ง,ทุกวัน 08:00 - 18:00 น.,09 0721 5993,08 2478 2969 ,,https://www.wongnai.com/restaurants/1083219hV-%E0%B9%81%E0%B8%A7%E0%B8%B0%E0%B9%80%E0%B8%A5%E0%B8%A2%E0%B9%82%E0%B8%A0%E0%B8%8A%E0%B8%99%E0%B8%B2?_st=cD0zO2I9MTA4MzIxOTthZD1mYWxzZTt0PTE2MzcyMzk3NjA4NjA7cmk9MVg3YUwzRThhS1lEdTBqVWh6SmxQaVBGZjB0aGVXO2k9MVg2em9NempDMk5LMUZQQ0F3MHVWanZsUXJhVzlBO3dyZWY9c3I7,,17.49161837,100.9973871,712081.6787,1935053.045,แสงภา,นาแห้ว
163,ร้านขนมจีนยายหัด,ร้านอาหาร,,,ขนมจีน,ทุกวัน 08:00 – 15:00 น.,09 4115 6417,,,https://www.wongnai.com/restaurants/637480VO-%E0%B8%A2%E0%B8%B2%E0%B8%A2%E0%B8%AB%E0%B8%B1%E0%B8%94%E0%B8%82%E0%B8%99%E0%B8%A1%E0%B8%88%E0%B8%B5%E0%B8%99%E0%B8%99%E0%B9%89%E0%B8%B3%E0%B8%A2%E0%B8%B2,,17.49045337,100.9963493,711972.8075,1934922.941,แสงภา,นาแห้ว
164,ครัวแม่สีฟ้า,ร้านอาหาร,,,อาหาร เครื่องดื่ม,ทุกวัน 08:00 – 21:00 น.,09 4936 6246,,,,https://www.facebook.com/%E0%B8%84%E0%B8%A3%E0%B8%B1%E0%B8%A7%E0%B9%81%E0%B8%A1%E0%B9%88%E0%B8%AA%E0%B8%B5%E0%B8%9F%E0%B9%89%E0%B8%B2-106682944492762/,17.48431524,101.0699774,719800.7865,1934326.954,นาแห้ว ,นาแห้ว
165,แดนสยาม Cafe  ,ร้านคาเฟ่,,,เครื่องดื่ม ขนม,ทุกวัน 08:00 – 18:00 น.,08 7959 2976,08 0687 2081,,,https://www.facebook.com/DansiamCoffee/,17.47788589,101.0485489,717532.2434,1933590.709,นาแห้ว ,นาแห้ว
166,ไฮโซ-บ้านนอก,ร้านอาหาร,,,อาหาร เครื่องดื่ม,ศุกร์ - อาทิตย์ 10:00 - 16:00 น. ,09 3420 0927,06 4961 8531,,https://www.smethailandclub.com/entrepreneur-7067-id.html,https://www.facebook.com/%E0%B9%84%E0%B8%AE%E0%B9%82%E0%B8%8B-%E0%B8%9A%E0%B9%89%E0%B8%B2%E0%B8%99%E0%B8%99%E0%B8%AD%E0%B8%81-111577254365154/,18.144014,102.0220673,184889.9972,2008670.496,หาดคัมภีร์,ปากชม
167,ปลาเผาคกไผ่ ซุ้ม 3,ร้านอาหาร,,,อาหารอีสาน,ทุกวัน 06:00 - 18:00 น.,08 7065 4521,,,https://www.wongnai.com/restaurants/189534Nc-%E0%B8%9B%E0%B8%A5%E0%B8%B2%E0%B9%80%E0%B8%9C%E0%B8%B2%E0%B8%84%E0%B8%81%E0%B9%84%E0%B8%9C%E0%B9%88?_st=cD0xO2I9MTg5NTM0O2FkPWZhbHNlO3Q9MTYzNzI0NTcwMjE2MDtyaT0xWDdhTDNRQktvSmRoaHQwOVd1V1hvZldXRlNPNHk7aT0xWDZ6b05CbHFGZER3dmRPUEdoVUFFOUE4Mm95TUU7d3JlZj1zcjs%3D,https://www.facebook.com/%E0%B8%9B%E0%B8%A5%E0%B8%B2%E0%B9%80%E0%B8%9C%E0%B8%B2%E0%B8%84%E0%B8%81%E0%B9%84%E0%B8%9C%E0%B9%88-%E0%B8%8B%E0%B8%B8%E0%B9%89%E0%B8%A1-3-1726387977595175/,18.03996466,101.8582278,802613.3835,1996945.919,ปากชม,ปากชม
168,ก.เนื้อย่างเกาหลี,ร้านอาหาร,ร้านปิ้งย่าง,,อาหาร ปิ้งย่าง เครื่องดื่ม,ทุกวัน 10:00 - 23:30 น.,09 8589 7726 ,,,https://www.wongnai.com/restaurants/301740Qj-%E0%B8%81-%E0%B9%80%E0%B8%99%E0%B8%B7%E0%B9%89%E0%B8%AD%E0%B8%A2%E0%B9%88%E0%B8%B2%E0%B8%87,https://www.facebook.com/%E0%B8%81%E0%B9%80%E0%B8%99%E0%B8%B7%E0%B9%89%E0%B8%AD%E0%B8%A2%E0%B9%88%E0%B8%B2%E0%B8%87%E0%B9%80%E0%B8%81%E0%B8%B2%E0%B8%AB%E0%B8%A5%E0%B8%B5-1628568003827225/,18.023405982953467,101.87403,804316.0724,1995138.006,ปากชม,ปากชม
169,ไฉไล ณ ปากชม,ร้านอาหาร และบาร์ ,ร้านกาแฟ ชา,,อาหาร เครื่องดื่ม,ทุกวัน 09:00 - 22:30 น.,09 8589 7726,,,https://www.wongnai.com/restaurants/469059na-%E0%B9%84%E0%B8%89%E0%B9%84%E0%B8%A5-%E0%B8%93-%E0%B8%9B%E0%B8%B2%E0%B8%81%E0%B8%8A%E0%B8%A1?_st=cD03O2I9NDY5MDU5O2FkPWZhbHNlO3Q9MTYzNzI0NTcwMjE2NTtyaT0xWDdhTDNRQk9JWWp5SWo5VzhFdVRVaDJ2Z1RicmI7aT0xWDZ6b05CbHFGZER3dmRPUEdoVUFFOUE4Mm95TUU7d3JlZj1zcjs%3D,https://www.facebook.com/%E0%B9%84%E0%B8%89%E0%B9%84%E0%B8%A5-327249168027449/,18.02269542,101.8748951,804408.9578,1995060.735,ปากชม,ปากชม
170,Chom Ploen ชมเพลิน ณ ปากชม,ร้านกาแฟ ชา,,,กาแฟสด เครื่องดื่ม เบเกอรี่ ผลักสลัด,ทุกวัน 09:00 - 19:00 น.,09 5868 9033,06 5575 1089,,https://www.wongnai.com/restaurants/696635xZ-%E0%B8%8A%E0%B8%A1%E0%B9%80%E0%B8%9E%E0%B8%A5%E0%B8%B4%E0%B8%99-%E0%B8%93-%E0%B8%9B%E0%B8%B2%E0%B8%81%E0%B8%8A%E0%B8%A1?_st=cD0yO2I9Njk2NjM1O2FkPWZhbHNlO3Q9MTYzNzI0OTYwODE0NDtyaT0xWDdhTDNZNkFid3pXWVBXb3VTUVVnbGVQaEJLQTE7aT0xWDZ6b05KZ2pMMnlYVVV4VHVHM1E3aGZuQzVBcXo7d3JlZj1zcjs%3D,https://www.facebook.com/Chom-Ploen-%E0%B8%8A%E0%B8%A1%E0%B9%80%E0%B8%9E%E0%B8%A5%E0%B8%B4%E0%B8%99-%E0%B8%93-%E0%B8%9B%E0%B8%B2%E0%B8%81%E0%B8%8A%E0%B8%A1-100864654602143/,18.02532801,101.8898596,805990.0204,1995376.998,ปากชม,ปากชม
171,ครัวกันเอง ยายวับ,ร้านอาหารอีสาน,,,ส้มตำ ปลาเผา และอาหารอีสานอื่น ๆ,ทุกวัน 10:00 - 21:00 น.,09 5258 9036,,,https://retty.co.th/area/PRO53/ARE650/,,18.03813925,101.8580117,802593.6194,1996743.404,ปากชม,ปากชม
172,ป. ปลาเป็น,ร้านอาหาร,,,อาหารตามสัง,ทุกวัน 09:00 – 17:00 น.,08 1051 6325 ,,,https://www.wongnai.com/restaurants/160035aQ-%E0%B8%9B-%E0%B8%9B%E0%B8%A5%E0%B8%B2%E0%B9%80%E0%B8%9B%E0%B9%87%E0%B8%99,,17.30262796,101.7954984,797177.909,1915191.171,ศรีสงคราม,วังสะพุง
173,คำหวาน HOME CAFE ,ร้านคาเฟ่,,,เครื่องดื่ม เค้ก,ทุกวัน 10:00 - 18:00 น.,08 6326 3545 ,09 9007 5129,,https://www.wongnai.com/restaurants/362675Ph-%E0%B8%84%E0%B8%B3%E0%B8%AB%E0%B8%A7%E0%B8%B2%E0%B8%99-home-cafe,,17.29252097,101.7605561,793476.992,1914018.333,วังสะพุง,วังสะพุง
174,ร้านก๋วยเตี๋ยวนิด,ร้านก๋วยเตี๋ยว,,,ก๋วยเตี๋ยว เครื่องดื่ม,ทุกวัน 08:00 - 16:00 น.,06 2945 8951 ,09 2943 3454,,https://www.wongnai.com/restaurants/93453CY-%E0%B8%81%E0%B9%8B%E0%B8%A7%E0%B8%A2%E0%B9%80%E0%B8%95%E0%B8%B5%E0%B9%8B%E0%B8%A2%E0%B8%A7%E0%B8%99%E0%B8%B4%E0%B8%94?_st=cD0xMTtiPTkzNDUzO2FkPWZhbHNlO3Q9MTYzNzE0NTcyNjM5MztyaT0xWDdhTDA5WGNxR3ZOZlh0aHAxSU1MNnZvbjk0eEE7aT0xWDZ6b0p2ODZtdk45bVJjR04zN3pXMVVGRFVYYmo7d3JlZj1pcGhvbmU7,https://www.facebook.com/maronggonggang16/,17.31103678,101.773811,794857.5,1916088.955,ศรีสงคราม,วังสะพุง
175,ครัวเคียงผา ,ร้านอาหารอีสาน ,,,อาหารตามสั่ง,ทุกวัน 	09:00 - 15:00 น.,08 2684 9932 ,,,https://www.wongnai.com/restaurants/159924Kv-%E0%B8%84%E0%B8%A3%E0%B8%B1%E0%B8%A7%E0%B9%80%E0%B8%84%E0%B8%B5%E0%B8%A2%E0%B8%87%E0%B8%9C%E0%B8%B2?_st=cD02O2I9MTU5OTI0O2FkPWZhbHNlO3Q9MTYzNzE1MzgwNTAxODtyaT0xWDdhTDBQdW9wVnJPOFN4bDF2OW1lMmdvRjFDUng7aT0xWDZ6b0tCVkRVUWd4dEZsMmRQaVdCZ3RYU01aT3U7d3JlZj1zcjs%3D,https://www.facebook.com/PunnatBunboribunsuk,17.33229782,101.6751312,784328.599,1918294.531,เขาหลวง,วังสะพุง
176,บาร์ลับหลังโรง ,ร้านเครื่องดื่ม,,,กาแฟ,ทุกวัน 08:00 - 18:00 น.,06 3592 5197,06 1196 5597 ,,https://www.wongnai.com/restaurants/979371ys-%E0%B8%9A%E0%B8%B2%E0%B8%A3%E0%B9%8C%E0%B8%A5%E0%B8%B1%E0%B8%9A%E0%B8%AB%E0%B8%A5%E0%B8%B1%E0%B8%87%E0%B9%82%E0%B8%A3%E0%B8%87?_st=cD0wO2I9OTc5MzcxO2FkPWZhbHNlO3Q9MTYzNzIwMzEzNjYwOTtyaT0xWDdhTDIxdTdtVFJpZ1BsVW15TDljTVhldkpQdFY7aT0xWDZ6b0xuVWs3MnlNUVZ5eWF5aWtxY2E3YVN3RWU7d3JlZj1zcjs%3D,https://www.facebook.com/BARLUBLANGRONG/,17.30716958,101.7631397,793728.546,1915644.387,วังสะพุง,วังสะพุง
177,ฮ่องเต้เนื้อย่างเกาหลี,ร้านอาหาร,,,หมูกระทะ,ทุกวัน 14:00 – 22:00 น.,0 4284 2400,08 8311 9488,,https://www.wongnai.com/restaurants/125761FC-%E0%B8%AE%E0%B9%88%E0%B8%AD%E0%B8%87%E0%B9%80%E0%B8%95%E0%B9%89%E0%B9%80%E0%B8%99%E0%B8%B7%E0%B9%89%E0%B8%AD%E0%B8%A2%E0%B9%88%E0%B8%B2%E0%B8%87%E0%B9%80%E0%B8%81%E0%B8%B2%E0%B8%AB%E0%B8%A5%E0%B8%B5,https://www.facebook.com/HongtaeLoei/,17.30824817,101.76501,793925.777,1915766.682,วังสะพุง,วังสะพุง
178,White In Cafe ,ร้านคาเฟ่,,,เครื่องดื่ม เค้ก,พฤหัสบดี - อาทิตย์ 10:00 - 16:00 น.,08 2062 1616 ,09 9445 3645,,https://www.wongnai.com/restaurants/819321Mk-white-in-cafe,https://m.facebook.com/White-In-109674651169728/,17.29872217,101.7710478,794583.213,1914721.054,วังสะพุง,วังสะพุง
179,หน้าวัง ,ร้านอาหาร,,,อาหารตามสั่ง,ทุกวัน 10:00 - 22:00 น.,0 4284 1418 ,,,https://www.wongnai.com/restaurants/93450DZ-%E0%B8%AB%E0%B8%99%E0%B9%89%E0%B8%B2%E0%B8%A7%E0%B8%B1%E0%B8%87,https://www.facebook.com/people/%E0%B8%AB%E0%B8%99%E0%B9%89%E0%B8%B2%E0%B8%A7%E0%B8%B1%E0%B8%87-%E0%B8%A7%E0%B8%B1%E0%B8%87%E0%B8%AA%E0%B8%B0%E0%B8%9E%E0%B8%B8%E0%B8%87/100009186885118,17.32266541,101.7601731,793388.372,1917355.787,วังสะพุง,วังสะพุง
180,Daddy's Girl Cafe,ร้านคาเฟ่,,,เครื่องดื่ม เค้ก,ทุกวัน 10:30 - 19:00 น.,09 5853 0557 ,09 8398 0157,,https://www.wongnai.com/restaurants/596685bI-daddy-s-girl-cafe,https://www.facebook.com/Daddys-Girl-Cafe-101447505068746/,17.30466221,101.7758538,795084.972,1915386.194,ศรีสงคราม,วังสะพุง
181,ชื่นใจก๋อกาแฟสด @วังสะพุง,ร้านเครื่องดื่ม,,,เครื่องดื่ม,ทุกวัน 08:30 – 17:30 น.,09 4346 5195,,,https://th.worldorgs.com/%E0%B9%81%E0%B8%84%E0%B8%95%E0%B8%95%E0%B8%B2%E0%B8%A5%E0%B9%87%E0%B8%AD%E0%B8%81/%E0%B8%AD%E0%B8%B3%E0%B9%80%E0%B8%A0%E0%B8%AD%E0%B8%A7%E0%B8%B1%E0%B8%87%E0%B8%AA%E0%B8%B0%E0%B8%9E%E0%B8%B8%E0%B8%87/%E0%B8%A3%E0%B9%89%E0%B8%B2%E0%B8%99%E0%B8%82%E0%B8%AD%E0%B8%87%E0%B8%AB%E0%B8%A7%E0%B8%B2%E0%B8%99/%E0%B8%8A%E0%B8%B7%E0%B9%88%E0%B8%99%E0%B9%83%E0%B8%88%E0%B8%81%E0%B9%8B%E0%B8%AD%E0%B8%81%E0%B8%B2%E0%B9%81%E0%B8%9F%E0%B8%AA%E0%B8%94-%E0%B8%A7%E0%B8%B1%E0%B8%87%E0%B8%AA%E0%B8%B0%E0%B8%9E%E0%B8%B8%E0%B8%87,,17.29955579,101.7615047,793566.728,1914798.779,วังสะพุง,วังสะพุง
182,ร้านส้มตำ จันทร์ศรี,ร้านอาหาร,,,ส้มตำ,ทุกวัน 08:00 – 15:30 น.,08 2835 1787,08 2954 4244 ,,https://www.wongnai.com/restaurants/363845YH-%E0%B9%81%E0%B8%8B%E0%B9%88%E0%B8%9A%E0%B8%9B%E0%B8%B2%E0%B8%81%E0%B9%82%E0%B8%9B-by-%E0%B8%84%E0%B8%A3%E0%B8%B1%E0%B8%A7%E0%B8%84%E0%B8%B8%E0%B8%93%E0%B8%99%E0%B8%B2%E0%B8%87-%E0%B8%9A%E0%B9%89%E0%B8%B2%E0%B8%99%E0%B8%99%E0%B8%B2%E0%B8%AB%E0%B8%A5%E0%B8%B1%E0%B8%81%E0%B8%8B%E0%B8%AD%E0%B8%A28,,17.2993475,101.7616431,793581.781,1914775.925,วังสะพุง,วังสะพุง
183,กีกี้เนื้อย่างเกาหลี,ร้านอาหาร,,,ปิ้งย่าง,ทุกวัน 10:00 – 22:00 น.,09 5507 1556,,,,https://www.facebook.com/%E0%B8%81%E0%B8%B5%E0%B8%81%E0%B8%B5%E0%B9%89%E0%B9%80%E0%B8%99%E0%B8%B7%E0%B9%89%E0%B8%AD%E0%B8%A2%E0%B9%88%E0%B8%B2%E0%B8%87%E0%B9%80%E0%B8%81%E0%B8%B2%E0%B8%AB%E0%B8%A5%E0%B8%B5-%E0%B8%AA%E0%B8%B2%E0%B8%82%E0%B8%B23-%E0%B8%A7%E0%B8%B1%E0%B8%87%E0%B8%AA%E0%B8%B0%E0%B8%9E%E0%B8%B8%E0%B8%87-339759026652523/,17.28256939,101.7588231,793308.42,1912913.708,วังสะพุง,วังสะพุง
184,คำหวาน รวมเส้น,ร้านอาหาร,,,อาหารตามสั่ง,ทุกวัน 08:00 – 17:30 น.,06 2501 2773,,,,https://www.facebook.com/pages/%E0%B8%A3%E0%B9%89%E0%B8%B2%E0%B8%99%E0%B8%84%E0%B8%B3%E0%B8%AB%E0%B8%A7%E0%B8%B2%E0%B8%99%E0%B8%A3%E0%B8%A7%E0%B8%A1%E0%B9%80%E0%B8%AA%E0%B9%89%E0%B8%99/2565838343426994/,17.28194248,101.7586471,793290.684,1912844.019,วังสะพุง,วังสะพุง
185,ยกครกชาววัง,ร้านอาหาร,,,ส้มตำ ไก่ย่าง,ทุกวัน 11:00 – 17:00 น. หยุดวันจันทร์,08 6241 5810,,,,https://www.facebook.com/Anintita.Warinporn/,17.28265519,101.7583799,793261.13,1912922.534,วังสะพุง,วังสะพุง
186,สวนอาหารทานตะวัน,ร้านอาหาร,,,อาหารตามสั่ง,ทุกวัน 09:00 – 21:00 น.,08 7220 7539,,,https://www.travel2guide.com/%E0%B8%AA%E0%B8%A7%E0%B8%99%E0%B8%AD%E0%B8%B2%E0%B8%AB%E0%B8%B2%E0%B8%A3%E0%B8%97%E0%B8%B2%E0%B8%99%E0%B8%95%E0%B8%B0%E0%B8%A7%E0%B8%B1%E0%B8%99%20%E0%B8%88.%E0%B9%80%E0%B8%A5%E0%B8%A2.html,https://www.facebook.com/%E0%B8%AA%E0%B8%A7%E0%B8%99%E0%B8%AD%E0%B8%B2%E0%B8%AB%E0%B8%B2%E0%B8%A3%E0%B8%97%E0%B8%B2%E0%B8%99%E0%B8%95%E0%B8%B0%E0%B8%A7%E0%B8%B1%E0%B8%99-Tantawangardenfood-130620393785590/,17.27929488,101.7580831,793234.877,1912549.98,วังสะพุง,วังสะพุง
187,แม่น้ำหวานลาบก้อย ,ร้านอาหารอีสาน,,,ลาบ ส้มตำ น้ำตก,ทุกวัน 09:00 – 18:00 น. หยุดวันอาทิตย์,08 9940 8539 ,,,https://www.wongnai.com/restaurants/154306dT-%E0%B9%81%E0%B8%A1%E0%B9%88%E0%B8%99%E0%B9%89%E0%B8%B3%E0%B8%AB%E0%B8%A7%E0%B8%B2%E0%B8%99%E0%B8%A5%E0%B8%B2%E0%B8%9A%E0%B8%81%E0%B9%89%E0%B8%AD%E0%B8%A2,,17.27647952,101.7572446,793150.138,1912236.946,วังสะพุง,วังสะพุง
188,ร้านอาหารกลุ่มแม่บ้านหนองบัวทอง,ร้านอาหาร,อาหารอีสาน ,,ส้มตำ,ทุกวัน 10:00 - 16:00 น.,08 1052 2363,,,https://www.wongnai.com/restaurants/596732TG-%E0%B8%A3%E0%B9%89%E0%B8%B2%E0%B8%99%E0%B8%AD%E0%B8%B2%E0%B8%AB%E0%B8%B2%E0%B8%A3%E0%B8%81%E0%B8%A5%E0%B8%B8%E0%B9%88%E0%B8%A1%E0%B9%81%E0%B8%A1%E0%B9%88%E0%B8%9A%E0%B9%89%E0%B8%B2%E0%B8%99%E0%B8%AB%E0%B8%99%E0%B8%AD%E0%B8%87%E0%B8%9A%E0%B8%B1%E0%B8%A7%E0%B8%97%E0%B8%AD%E0%B8%87?_st=cD0zO2I9NTk2NzMyO2FkPWZhbHNlO3Q9MTYzNzIxMDc2MjYwNDtyaT0xWDdhTDJITVdOTE9ldnd6SFdzRmhjZ0ltT3AydUc7aT0xWDZ6b00yd3pxV0QwR0txWElBUkhHeTZaWjNIYWc7d3JlZj1zcjs%3D,https://www.facebook.com/%E0%B8%A3%E0%B9%89%E0%B8%B2%E0%B8%99%E0%B8%AD%E0%B8%B2%E0%B8%AB%E0%B8%B2%E0%B8%A3%E0%B8%81%E0%B8%A5%E0%B8%B8%E0%B9%88%E0%B8%A1%E0%B9%81%E0%B8%A1%E0%B9%88%E0%B8%9A%E0%B9%89%E0%B8%B2%E0%B8%99%E0%B8%AB%E0%B8%99%E0%B8%AD%E0%B8%87%E0%B8%9A%E0%B8%B1%E0%B8%A7%E0%B8%97%E0%B8%AD%E0%B8%87-403456586761718/,17.27453922,101.7578866,793221.505,1912023.066,วังสะพุง,วังสะพุง
189,เคหวะชาบู วังสะพุง,ร้านอาหาร,,,ชาบู,ทุกวัน 12:00 - 21:00 น.,08 3334 6625 ,09 3319 9430,,https://www.wongnai.com/restaurants/475379Ah-%E0%B9%80%E0%B8%84%E0%B8%AB%E0%B8%A7%E0%B8%B0%E0%B8%8A%E0%B8%B2%E0%B8%9A%E0%B8%B9-%E0%B8%A7%E0%B8%B1%E0%B8%87%E0%B8%AA%E0%B8%B0%E0%B8%9E%E0%B8%B8%E0%B8%87?_st=cD00O2I9NDc1Mzc5O2FkPWZhbHNlO3Q9MTYzNzIxMDc2MjYwNjtyaT0xWDdhTDJITVNvaHhzTkFjNkw0UDN2U25XUDNKWkE7aT0xWDZ6b00yd3pxV0QwR0txWElBUkhHeTZaWjNIYWc7d3JlZj1zcjs%3D,https://www.facebook.com/%E0%B9%80%E0%B8%84%E0%B8%AB%E0%B8%A7%E0%B8%B0%E0%B8%8A%E0%B8%B2%E0%B8%9A%E0%B8%B9-%E0%B8%A7%E0%B8%B1%E0%B8%87%E0%B8%AA%E0%B8%B0%E0%B8%9E%E0%B8%B8%E0%B8%87-122255315833161/,17.30135859,101.7810734,795645.484,1915028.379,ศรีสงคราม,วังสะพุง
190,ด่านเฮงลี้ ,ร้านข้าวต้ม,,,อาหารตามสั่ง,ทุกวัน 15:30 – 23:00 น.,08 1799 2256,,,https://www.wongnai.com/restaurants/93531uX-%E0%B8%94%E0%B9%88%E0%B8%B2%E0%B8%99%E0%B9%80%E0%B8%AE%E0%B8%87%E0%B8%A5%E0%B8%B5%E0%B9%89,,17.30103727,101.7794535,795473.673,1914990.307,ศรีสงคราม,วังสะพุง
191,A Little House Cafe Bakery Homemade,ร้านกาแฟ/ชา,เบเกอรี/เค้ก,,กาแฟ เบเกอรี่,ทุกวัน 10:00 - 17:00 น. หยุดวันอาทิตย์ ,09 1879 2190 ,,,https://www.wongnai.com/restaurants/303236Hy-a-little-house-caf%C3%A9,https://web.facebook.com/alittlehousecafe/?_rdc=1&_rdr,17.30116106,101.7878031,796361.672,1915016.859,ศรีสงคราม,วังสะพุง
192,Melody Coffee,ร้านคาเฟ่,,,เครื่องดื่ม,ทุกวัน 09:00 - 22:00 น.,0 4281 0567,,,https://www.wongnai.com/restaurants/349260Pc-melody-coffee,https://web.facebook.com/melodycoffeeloei88/?_rdc=1&_rdr,17.29892335,101.7623781,793660.644,1914730.078,วังสะพุง,วังสะพุง
193,ก๋วยเตี๋ยวนิด,ร้านก๋วยเตี๋ยว,ร้านกาแฟ/ชา,,ก๋วยเตี๋ยว เครื่องดื่ม,ทุกวัน 08:00 - 16:00 น.,06 2945 8951,09 2943 3454,,https://www.wongnai.com/restaurants/93453CY-%E0%B8%81%E0%B9%8B%E0%B8%A7%E0%B8%A2%E0%B9%80%E0%B8%95%E0%B8%B5%E0%B9%8B%E0%B8%A2%E0%B8%A7%E0%B8%99%E0%B8%B4%E0%B8%94,https://web.facebook.com/%E0%B8%A3%E0%B9%89%E0%B8%B2%E0%B8%99%E0%B8%81%E0%B9%8B%E0%B8%A7%E0%B8%A2%E0%B9%80%E0%B8%95%E0%B8%B5%E0%B9%8B%E0%B8%A2%E0%B8%A7%E0%B8%99%E0%B8%B4%E0%B8%94-1501898723420277/,17.31103803,101.7738103,794857.417,1916089.091,ศรีสงคราม,วังสะพุง
194,ตำเลย ณ ป่าเป้า,ร้านอาหารอีสาน,,,อาหาร,ทุกวัน 10:00 - 16:00 น.,08 7220 0042,,,https://www.wongnai.com/restaurants/577933ys-%E0%B8%95%E0%B8%B3%E0%B9%80%E0%B8%A5%E0%B8%A2-%E0%B8%93-%E0%B8%9B%E0%B9%88%E0%B8%B2%E0%B9%80%E0%B8%9B%E0%B9%89%E0%B8%B2,https://web.facebook.com/pages/category/Restaurant/%E0%B8%95%E0%B8%B3%E0%B9%80%E0%B8%A5%E0%B8%A2-%E0%B8%93-%E0%B8%9B%E0%B9%88%E0%B8%B2%E0%B9%80%E0%B8%9B%E0%B9%89%E0%B8%B2-836844443182524/?_rdc=1&_rdr,17.34300924,101.7540779,792707.793,1919599.255,ปากปวน,วังสะพุง
195,เย็นตาโฟ แซบนัว นครปฐม,ร้านอาหารจานเดียว,,,อาหารตามสัง,ทุกวัน 07:00 - 18:00 น.,08 5129 5659,,,https://www.wongnai.com/restaurants/576827rY-%E0%B9%80%E0%B8%A2%E0%B9%87%E0%B8%99%E0%B8%95%E0%B8%B2%E0%B9%82%E0%B8%9F-%E0%B9%81%E0%B8%8B%E0%B8%9A%E0%B8%99%E0%B8%B1%E0%B8%A7-%E0%B8%99%E0%B8%84%E0%B8%A3%E0%B8%9B%E0%B8%90%E0%B8%A1,,17.34567483,101.753937,792688.572,1919894.213,ปากปวน,วังสะพุง
196,เถ้าแก่คอฟฟี่เฮาส์,ร้านเครื่องดื่ม,,,เครื่องดื่ม,ทุกวัน 09:00 – 18:00 น.,08 3338 1117,08 8914 6536,,https://www.wongnai.com/restaurants/878485hl-%E0%B9%80%E0%B8%96%E0%B9%89%E0%B8%B2%E0%B9%81%E0%B8%81%E0%B9%88%E0%B8%84%E0%B8%AD%E0%B8%9F%E0%B8%9F%E0%B8%B5%E0%B9%88%E0%B9%80%E0%B8%AE%E0%B9%89%E0%B8%B2%E0%B8%AA%E0%B9%8C,https://www.facebook.com/taokaehouse/,17.18268931,101.8238446,800387.49,1901953.273,โคกขมิ้น ,วังสะพุง
197,ชายคากาแฟ @ เลย,ร้านกาแฟ,,,เครื่องดื่ม,ทุกวัน 08:00 – 17:00 น. ,08 7773 3322,08 1380 1577 ,,,https://www.facebook.com/%E0%B8%8A%E0%B8%B2%E0%B8%A2%E0%B8%84%E0%B8%B2%E0%B8%81%E0%B8%B2%E0%B9%81%E0%B8%9F-%E0%B9%80%E0%B8%A5%E0%B8%A2-2001012073278232/,17.16342117,101.9119889,809802.537,1899958.273,โคกขมิ้น ,วังสะพุง
198,Green Space Loei,ร้านอาหารจานเดียว,ร้านกาแฟ/ชา,,อาหารตามสั่ง เครื่องดื่ม,ทุกวัน 08:00 - 17:00 น. หยุดวันพุธ,09 8605 2636,08 3684 3708,,https://www.wongnai.com/restaurants/474474eo-green-space-loei,https://web.facebook.com/pages/category/Coffee-Shop/Green-space-loei-102594221213720/?_rdc=1&_rdr,17.1442779,101.8523513,803484.514,1897744.003,โคกขมิ้น ,วังสะพุง